{
"type": "FeatureCollection",
"name": "tiempos-v3",
"crs": { "type": "name", "properties": { "name": "urn:ogc:def:crs:OGC:1.3:CRS84" } },
"features": [
{ "type": "Feature", "properties": { "provincia": "Buenos Aires", "localidad": "La Matanza", "tipo": "esp_verde", "tiempo_medio_01": 11.85344404, "tiempo_medio_10": 7.07824327 }, "geometry": { "type": "Polygon", "coordinates": [ [ [ -59.003321476266109, -34.860664862393918 ], [ -58.806478673221932, -34.860664862393918 ], [ -58.806478673221932, -34.69896885089554 ], [ -59.003321476266109, -34.69896885089554 ], [ -59.003321476266109, -34.860664862393918 ] ] ] } },
{ "type": "Feature", "properties": { "provincia": "Buenos Aires", "localidad": "La Matanza", "tipo": "jardin", "tiempo_medio_01": 73.68039029000001, "tiempo_medio_10": 10.50073855 }, "geometry": { "type": "Polygon", "coordinates": [ [ [ -58.522150179935906, -34.860664862393918 ], [ -58.325307376891729, -34.860664862393918 ], [ -58.325307376891729, -34.69896885089554 ], [ -58.522150179935906, -34.69896885089554 ], [ -58.522150179935906, -34.860664862393918 ] ] ] } },
{ "type": "Feature", "properties": { "provincia": "Buenos Aires", "localidad": "La Matanza", "tipo": "salud", "tiempo_medio_01": 23.63843034, "tiempo_medio_10": 12.90618417 }, "geometry": { "type": "Polygon", "coordinates": [ [ [ -58.762735828101007, -34.860664862393918 ], [ -58.56589302505683, -34.860664862393918 ], [ -58.56589302505683, -34.69896885089554 ], [ -58.762735828101007, -34.69896885089554 ], [ -58.762735828101007, -34.860664862393918 ] ] ] } },
{ "type": "Feature", "properties": { "provincia": "CABA", "localidad": "CABA", "tipo": "esp_verde", "tiempo_medio_01": 5.153725362, "tiempo_medio_10": 4.082639214 }, "geometry": { "type": "Polygon", "coordinates": [ [ [ -58.761642390185344, -34.618742294784319 ], [ -58.565196383570921, -34.618742294784319 ], [ -58.565196383570921, -34.457046283285941 ], [ -58.761642390185344, -34.457046283285941 ], [ -58.761642390185344, -34.618742294784319 ] ] ] } },
{ "type": "Feature", "properties": { "provincia": "CABA", "localidad": "CABA", "tipo": "jardin", "tiempo_medio_01": 8.494238572, "tiempo_medio_10": 8.611290472 }, "geometry": { "type": "Polygon", "coordinates": [ [ [ -58.281441040683433, -34.618742294784319 ], [ -58.08499503406901, -34.618742294784319 ], [ -58.08499503406901, -34.457046283285941 ], [ -58.281441040683433, -34.457046283285941 ], [ -58.281441040683433, -34.618742294784319 ] ] ] } },
{ "type": "Feature", "properties": { "provincia": "CABA", "localidad": "CABA", "tipo": "salud", "tiempo_medio_01": 6.288283028, "tiempo_medio_10": 10.93421414 }, "geometry": { "type": "Polygon", "coordinates": [ [ [ -58.521541715434388, -34.618742294784319 ], [ -58.325095708819966, -34.618742294784319 ], [ -58.325095708819966, -34.457046283285941 ], [ -58.521541715434388, -34.457046283285941 ], [ -58.521541715434388, -34.618742294784319 ] ] ] } },
{ "type": "Feature", "properties": { "provincia": "Catamarca", "localidad": "San Fernando del Valle de Catamarca", "tipo": "esp_verde", "tiempo_medio_01": 11.48609195, "tiempo_medio_10": 2.56135263 }, "geometry": { "type": "Polygon", "coordinates": [ [ [ -66.15315367506021, -28.491129005749194 ], [ -65.969316960509119, -28.491129005749194 ], [ -65.969316960509119, -28.329432994250809 ], [ -66.15315367506021, -28.329432994250809 ], [ -66.15315367506021, -28.491129005749194 ] ] ] } },
{ "type": "Feature", "properties": { "provincia": "Catamarca", "localidad": "San Fernando del Valle de Catamarca", "tipo": "jardin", "tiempo_medio_01": 119.8140339, "tiempo_medio_10": 17.77306964 }, "geometry": { "type": "Polygon", "coordinates": [ [ [ -65.703775039490878, -28.491129005749194 ], [ -65.519938324939787, -28.491129005749194 ], [ -65.519938324939787, -28.329432994250809 ], [ -65.703775039490878, -28.329432994250809 ], [ -65.703775039490878, -28.491129005749194 ] ] ] } },
{ "type": "Feature", "properties": { "provincia": "Catamarca", "localidad": "San Fernando del Valle de Catamarca", "tipo": "salud", "tiempo_medio_01": 10.83363671, "tiempo_medio_10": 8.084654941 }, "geometry": { "type": "Polygon", "coordinates": [ [ [ -65.928464357275544, -28.491129005749194 ], [ -65.744627642724453, -28.491129005749194 ], [ -65.744627642724453, -28.329432994250809 ], [ -65.928464357275544, -28.329432994250809 ], [ -65.928464357275544, -28.491129005749194 ] ] ] } },
{ "type": "Feature", "properties": { "provincia": "Chaco", "localidad": "Resistencia", "tipo": "esp_verde", "tiempo_medio_01": 13.76373086, "tiempo_medio_10": 4.697075606 }, "geometry": { "type": "Polygon", "coordinates": [ [ [ -59.497911882861501, -27.422679304082678 ], [ -59.315470585665167, -27.422679304082678 ], [ -59.315470585665167, -27.260983292584292 ], [ -59.497911882861501, -27.260983292584292 ], [ -59.497911882861501, -27.422679304082678 ] ] ] } },
{ "type": "Feature", "properties": { "provincia": "Chaco", "localidad": "Resistencia", "tipo": "jardin", "tiempo_medio_01": 240.0, "tiempo_medio_10": 9.252945212 }, "geometry": { "type": "Polygon", "coordinates": [ [ [ -59.051944267492672, -27.422679304082678 ], [ -58.869502970296338, -27.422679304082678 ], [ -58.869502970296338, -27.260983292584292 ], [ -59.051944267492672, -27.260983292584292 ], [ -59.051944267492672, -27.422679304082678 ] ] ] } },
{ "type": "Feature", "properties": { "provincia": "Chaco", "localidad": "Resistencia", "tipo": "salud", "tiempo_medio_01": 17.67768629, "tiempo_medio_10": 13.21084737 }, "geometry": { "type": "Polygon", "coordinates": [ [ [ -59.274928075177087, -27.422679304082678 ], [ -59.092486777980753, -27.422679304082678 ], [ -59.092486777980753, -27.260983292584292 ], [ -59.274928075177087, -27.260983292584292 ], [ -59.274928075177087, -27.422679304082678 ] ] ] } },
{ "type": "Feature", "properties": { "provincia": "Chubut", "localidad": "Comodoro Rivadavia", "tipo": "esp_verde", "tiempo_medio_01": 8.03509123, "tiempo_medio_10": 4.23591113 }, "geometry": { "type": "Polygon", "coordinates": [ [ [ -67.991155526923592, -45.920328005749191 ], [ -67.759057414516349, -45.920328005749191 ], [ -67.759057414516349, -45.758631994250813 ], [ -67.991155526923592, -45.758631994250813 ], [ -67.991155526923592, -45.920328005749191 ] ] ] } },
{ "type": "Feature", "properties": { "provincia": "Chubut", "localidad": "Comodoro Rivadavia", "tipo": "jardin", "tiempo_medio_01": 240.0, "tiempo_medio_10": 131.7483693 }, "geometry": { "type": "Polygon", "coordinates": [ [ [ -67.423804585483651, -45.920328005749191 ], [ -67.191706473076408, -45.920328005749191 ], [ -67.191706473076408, -45.758631994250813 ], [ -67.423804585483651, -45.758631994250813 ], [ -67.423804585483651, -45.920328005749191 ] ] ] } },
{ "type": "Feature", "properties": { "provincia": "Chubut", "localidad": "Comodoro Rivadavia", "tipo": "salud", "tiempo_medio_01": 13.53379723, "tiempo_medio_10": 20.83544884 }, "geometry": { "type": "Polygon", "coordinates": [ [ [ -67.707480056203622, -45.920328005749191 ], [ -67.475381943796378, -45.920328005749191 ], [ -67.475381943796378, -45.758631994250813 ], [ -67.707480056203622, -45.758631994250813 ], [ -67.707480056203622, -45.920328005749191 ] ] ] } },
{ "type": "Feature", "properties": { "provincia": "Corrientes", "localidad": "Corrientes", "tipo": "esp_verde", "tiempo_medio_01": 8.838266937, "tiempo_medio_10": 4.059273159 }, "geometry": { "type": "Polygon", "coordinates": [ [ [ -58.800809788770479, -27.679159143292988 ], [ -58.618526325337641, -27.679159143292988 ], [ -58.618526325337641, -27.517463131794603 ], [ -58.800809788770479, -27.517463131794603 ], [ -58.800809788770479, -27.679159143292988 ] ] ] } },
{ "type": "Feature", "properties": { "provincia": "Corrientes", "localidad": "Corrientes", "tipo": "jardin", "tiempo_medio_01": 161.8525347, "tiempo_medio_10": 8.272872282 }, "geometry": { "type": "Polygon", "coordinates": [ [ [ -58.355227989267973, -27.679159143292988 ], [ -58.172944525835135, -27.679159143292988 ], [ -58.172944525835135, -27.517463131794603 ], [ -58.355227989267973, -27.517463131794603 ], [ -58.355227989267973, -27.679159143292988 ] ] ] } },
{ "type": "Feature", "properties": { "provincia": "Corrientes", "localidad": "Corrientes", "tipo": "salud", "tiempo_medio_01": 20.4997716, "tiempo_medio_10": 5.684003289 }, "geometry": { "type": "Polygon", "coordinates": [ [ [ -58.578018889019226, -27.679159143292988 ], [ -58.395735425586388, -27.679159143292988 ], [ -58.395735425586388, -27.517463131794603 ], [ -58.578018889019226, -27.517463131794603 ], [ -58.578018889019226, -27.679159143292988 ] ] ] } },
{ "type": "Feature", "properties": { "provincia": "Córdoba", "localidad": "Córdoba", "tipo": "esp_verde", "tiempo_medio_01": 6.34671732, "tiempo_medio_10": 6.415219111 }, "geometry": { "type": "Polygon", "coordinates": [ [ [ -64.509900752114859, -31.497611005749192 ], [ -64.320427670241727, -31.497611005749192 ], [ -64.320427670241727, -31.335914994250807 ], [ -64.509900752114859, -31.335914994250807 ], [ -64.509900752114859, -31.497611005749192 ] ] ] } },
{ "type": "Feature", "properties": { "provincia": "Córdoba", "localidad": "Córdoba", "tipo": "jardin", "tiempo_medio_01": 240.0, "tiempo_medio_10": 109.8453485 }, "geometry": { "type": "Polygon", "coordinates": [ [ [ -64.046744329758297, -31.497611005749192 ], [ -63.857271247885151, -31.497611005749192 ], [ -63.857271247885151, -31.335914994250807 ], [ -64.046744329758297, -31.335914994250807 ], [ -64.046744329758297, -31.497611005749192 ] ] ] } },
{ "type": "Feature", "properties": { "provincia": "Córdoba", "localidad": "Córdoba", "tipo": "salud", "tiempo_medio_01": 13.56152748, "tiempo_medio_10": 17.70691103 }, "geometry": { "type": "Polygon", "coordinates": [ [ [ -64.278322540936571, -31.497611005749192 ], [ -64.088849459063439, -31.497611005749192 ], [ -64.088849459063439, -31.335914994250807 ], [ -64.278322540936571, -31.335914994250807 ], [ -64.278322540936571, -31.497611005749192 ] ] ] } },
{ "type": "Feature", "properties": { "provincia": "Entre Ríos", "localidad": "Paraná", "tipo": "esp_verde", "tiempo_medio_01": 8.151694422, "tiempo_medio_10": 5.046604523 }, "geometry": { "type": "Polygon", "coordinates": [ [ [ -60.82868640616887, -31.830209005749193 ], [ -60.638535912264359, -31.830209005749193 ], [ -60.638535912264359, -31.668512994250808 ], [ -60.82868640616887, -31.668512994250808 ], [ -60.82868640616887, -31.830209005749193 ] ] ] } },
{ "type": "Feature", "properties": { "provincia": "Entre Ríos", "localidad": "Paraná", "tipo": "jardin", "tiempo_medio_01": 240.0, "tiempo_medio_10": 203.758072 }, "geometry": { "type": "Polygon", "coordinates": [ [ [ -60.363874087735638, -31.830209005749193 ], [ -60.173723593831127, -31.830209005749193 ], [ -60.173723593831127, -31.668512994250808 ], [ -60.363874087735638, -31.668512994250808 ], [ -60.363874087735638, -31.830209005749193 ] ] ] } },
{ "type": "Feature", "properties": { "provincia": "Entre Ríos", "localidad": "Paraná", "tipo": "salud", "tiempo_medio_01": 11.26449667, "tiempo_medio_10": 8.567185684 }, "geometry": { "type": "Polygon", "coordinates": [ [ [ -60.596280246952254, -31.830209005749193 ], [ -60.406129753047743, -31.830209005749193 ], [ -60.406129753047743, -31.668512994250808 ], [ -60.596280246952254, -31.668512994250808 ], [ -60.596280246952254, -31.830209005749193 ] ] ] } },
{ "type": "Feature", "properties": { "provincia": "Formosa", "localidad": "Formosa", "tipo": "esp_verde", "tiempo_medio_01": 42.35286875, "tiempo_medio_10": 4.880884177 }, "geometry": { "type": "Polygon", "coordinates": [ [ [ -58.506266260611994, -26.115246005749192 ], [ -58.326310238321156, -26.115246005749192 ], [ -58.326310238321156, -25.953549994250807 ], [ -58.506266260611994, -25.953549994250807 ], [ -58.506266260611994, -26.115246005749192 ] ] ] } },
{ "type": "Feature", "properties": { "provincia": "Formosa", "localidad": "Formosa", "tipo": "jardin", "tiempo_medio_01": 240.0, "tiempo_medio_10": 61.25729083 }, "geometry": { "type": "Polygon", "coordinates": [ [ [ -58.066373761678847, -26.115246005749192 ], [ -57.886417739388008, -26.115246005749192 ], [ -57.886417739388008, -25.953549994250807 ], [ -58.066373761678847, -25.953549994250807 ], [ -58.066373761678847, -26.115246005749192 ] ] ] } },
{ "type": "Feature", "properties": { "provincia": "Formosa", "localidad": "Formosa", "tipo": "salud", "tiempo_medio_01": 44.76422263, "tiempo_medio_10": 9.522774649 }, "geometry": { "type": "Polygon", "coordinates": [ [ [ -58.28632001114542, -26.115246005749192 ], [ -58.106363988854582, -26.115246005749192 ], [ -58.106363988854582, -25.953549994250807 ], [ -58.28632001114542, -25.953549994250807 ], [ -58.28632001114542, -26.115246005749192 ] ] ] } },
{ "type": "Feature", "properties": { "provincia": "Jujuy", "localidad": "San Salvador de Jujuy", "tipo": "esp_verde", "tiempo_medio_01": 9.789808207, "tiempo_medio_10": 10.81134814 }, "geometry": { "type": "Polygon", "coordinates": [ [ [ -65.724153354425752, -24.275237005749194 ], [ -65.546886245404338, -24.275237005749194 ], [ -65.546886245404338, -24.113540994250808 ], [ -65.724153354425752, -24.113540994250808 ], [ -65.724153354425752, -24.275237005749194 ] ] ] } },
{ "type": "Feature", "properties": { "provincia": "Jujuy", "localidad": "San Salvador de Jujuy", "tipo": "jardin", "tiempo_medio_01": 187.9259613, "tiempo_medio_10": 14.15230438 }, "geometry": { "type": "Polygon", "coordinates": [ [ [ -65.290833754595653, -24.275237005749194 ], [ -65.113566645574238, -24.275237005749194 ], [ -65.113566645574238, -24.113540994250808 ], [ -65.290833754595653, -24.113540994250808 ], [ -65.290833754595653, -24.275237005749194 ] ] ] } },
{ "type": "Feature", "properties": { "provincia": "Jujuy", "localidad": "San Salvador de Jujuy", "tipo": "salud", "tiempo_medio_01": 12.32499287, "tiempo_medio_10": 18.59362386 }, "geometry": { "type": "Polygon", "coordinates": [ [ [ -65.507493554510702, -24.275237005749194 ], [ -65.330226445489288, -24.275237005749194 ], [ -65.330226445489288, -24.113540994250808 ], [ -65.507493554510702, -24.113540994250808 ], [ -65.507493554510702, -24.275237005749194 ] ] ] } },
{ "type": "Feature", "properties": { "provincia": "La Pampa", "localidad": "Santa Rosa", "tipo": "esp_verde", "tiempo_medio_01": 6.41294632, "tiempo_medio_10": 5.931447437 }, "geometry": { "type": "Polygon", "coordinates": [ [ [ -64.753851703339123, -36.611952005749188 ], [ -64.552620585271242, -36.611952005749188 ], [ -64.552620585271242, -36.45025599425081 ], [ -64.753851703339123, -36.45025599425081 ], [ -64.753851703339123, -36.611952005749188 ] ] ] } },
{ "type": "Feature", "properties": { "provincia": "La Pampa", "localidad": "Santa Rosa", "tipo": "jardin", "tiempo_medio_01": 240.0, "tiempo_medio_10": 24.01249523 }, "geometry": { "type": "Polygon", "coordinates": [ [ [ -64.261953414728751, -36.611952005749188 ], [ -64.06072229666087, -36.611952005749188 ], [ -64.06072229666087, -36.45025599425081 ], [ -64.261953414728751, -36.45025599425081 ], [ -64.261953414728751, -36.611952005749188 ] ] ] } },
{ "type": "Feature", "properties": { "provincia": "La Pampa", "localidad": "Santa Rosa", "tipo": "salud", "tiempo_medio_01": 11.54802295, "tiempo_medio_10": 17.71948529 }, "geometry": { "type": "Polygon", "coordinates": [ [ [ -64.507902559033937, -36.611952005749188 ], [ -64.306671440966056, -36.611952005749188 ], [ -64.306671440966056, -36.45025599425081 ], [ -64.507902559033937, -36.45025599425081 ], [ -64.507902559033937, -36.611952005749188 ] ] ] } },
{ "type": "Feature", "properties": { "provincia": "La Rioja", "localidad": "La Rioja", "tipo": "esp_verde", "tiempo_medio_01": 112.1001804, "tiempo_medio_10": 3.603487131 }, "geometry": { "type": "Polygon", "coordinates": [ [ [ -66.672801533006847, -29.541072005749193 ], [ -66.48709290093835, -29.541072005749193 ], [ -66.48709290093835, -29.379375994250807 ], [ -66.672801533006847, -29.379375994250807 ], [ -66.672801533006847, -29.541072005749193 ] ] ] } },
{ "type": "Feature", "properties": { "provincia": "La Rioja", "localidad": "La Rioja", "tipo": "jardin", "tiempo_medio_01": 240.0, "tiempo_medio_10": 20.79846993 }, "geometry": { "type": "Polygon", "coordinates": [ [ [ -66.218847099061648, -29.541072005749193 ], [ -66.033138466993151, -29.541072005749193 ], [ -66.033138466993151, -29.379375994250807 ], [ -66.218847099061648, -29.379375994250807 ], [ -66.218847099061648, -29.541072005749193 ] ] ] } },
{ "type": "Feature", "properties": { "provincia": "La Rioja", "localidad": "La Rioja", "tipo": "salud", "tiempo_medio_01": 240.0, "tiempo_medio_10": 17.23983157 }, "geometry": { "type": "Polygon", "coordinates": [ [ [ -66.445824316034248, -29.541072005749193 ], [ -66.260115683965751, -29.541072005749193 ], [ -66.260115683965751, -29.379375994250807 ], [ -66.445824316034248, -29.379375994250807 ], [ -66.445824316034248, -29.541072005749193 ] ] ] } },
{ "type": "Feature", "properties": { "provincia": "Mendoza", "localidad": "Guaymallén", "tipo": "esp_verde", "tiempo_medio_01": 12.76571803, "tiempo_medio_10": 5.159563986 }, "geometry": { "type": "Polygon", "coordinates": [ [ [ -69.063882426650764, -32.973031005749192 ], [ -68.871317017627746, -32.973031005749192 ], [ -68.871317017627746, -32.811334994250814 ], [ -69.063882426650764, -32.811334994250814 ], [ -69.063882426650764, -32.973031005749192 ] ] ] } },
{ "type": "Feature", "properties": { "provincia": "Mendoza", "localidad": "Guaymallén", "tipo": "jardin", "tiempo_medio_01": 240.0, "tiempo_medio_10": 17.81524174 }, "geometry": { "type": "Polygon", "coordinates": [ [ [ -68.593166982372253, -32.973031005749192 ], [ -68.400601573349235, -32.973031005749192 ], [ -68.400601573349235, -32.811334994250814 ], [ -68.593166982372253, -32.811334994250814 ], [ -68.593166982372253, -32.973031005749192 ] ] ] } },
{ "type": "Feature", "properties": { "provincia": "Mendoza", "localidad": "Guaymallén", "tipo": "salud", "tiempo_medio_01": 22.08733639, "tiempo_medio_10": 17.84489193 }, "geometry": { "type": "Polygon", "coordinates": [ [ [ -68.828524704511509, -32.973031005749192 ], [ -68.63595929548849, -32.973031005749192 ], [ -68.63595929548849, -32.811334994250814 ], [ -68.828524704511509, -32.811334994250814 ], [ -68.828524704511509, -32.973031005749192 ] ] ] } },
{ "type": "Feature", "properties": { "provincia": "Misiones", "localidad": "Posadas", "tipo": "esp_verde", "tiempo_medio_01": 14.66503826, "tiempo_medio_10": 2.836608415 }, "geometry": { "type": "Polygon", "coordinates": [ [ [ -56.272852251104808, -27.514444005749194 ], [ -56.090668879495567, -27.514444005749194 ], [ -56.090668879495567, -27.352747994250809 ], [ -56.272852251104808, -27.352747994250809 ], [ -56.272852251104808, -27.514444005749194 ] ] ] } },
{ "type": "Feature", "properties": { "provincia": "Misiones", "localidad": "Posadas", "tipo": "jardin", "tiempo_medio_01": 240.0, "tiempo_medio_10": 7.480388664 }, "geometry": { "type": "Polygon", "coordinates": [ [ [ -55.82751512050443, -27.514444005749194 ], [ -55.645331748895188, -27.514444005749194 ], [ -55.645331748895188, -27.352747994250809 ], [ -55.82751512050443, -27.352747994250809 ], [ -55.82751512050443, -27.514444005749194 ] ] ] } },
{ "type": "Feature", "properties": { "provincia": "Misiones", "localidad": "Posadas", "tipo": "salud", "tiempo_medio_01": 11.98316853, "tiempo_medio_10": 8.406526093 }, "geometry": { "type": "Polygon", "coordinates": [ [ [ -56.050183685804619, -27.514444005749194 ], [ -55.868000314195378, -27.514444005749194 ], [ -55.868000314195378, -27.352747994250809 ], [ -56.050183685804619, -27.352747994250809 ], [ -56.050183685804619, -27.514444005749194 ] ] ] } },
{ "type": "Feature", "properties": { "provincia": "Neuquén", "localidad": "Neuquén", "tipo": "esp_verde", "tiempo_medio_01": 43.41632164, "tiempo_medio_10": 5.840927176 }, "geometry": { "type": "Polygon", "coordinates": [ [ [ -68.527423464806219, -38.965641005749191 ], [ -68.319697388467119, -38.965641005749191 ], [ -68.319697388467119, -38.803944994250813 ], [ -68.527423464806219, -38.803944994250813 ], [ -68.527423464806219, -38.965641005749191 ] ] ] } },
{ "type": "Feature", "properties": { "provincia": "Neuquén", "localidad": "Neuquén", "tipo": "jardin", "tiempo_medio_01": 240.0, "tiempo_medio_10": 28.06964023 }, "geometry": { "type": "Polygon", "coordinates": [ [ [ -68.019648611532887, -38.965641005749191 ], [ -67.811922535193787, -38.965641005749191 ], [ -67.811922535193787, -38.803944994250813 ], [ -68.019648611532887, -38.803944994250813 ], [ -68.019648611532887, -38.965641005749191 ] ] ] } },
{ "type": "Feature", "properties": { "provincia": "Neuquén", "localidad": "Neuquén", "tipo": "salud", "tiempo_medio_01": 17.00374382, "tiempo_medio_10": 19.18506376 }, "geometry": { "type": "Polygon", "coordinates": [ [ [ -68.273536038169553, -38.965641005749191 ], [ -68.065809961830453, -38.965641005749191 ], [ -68.065809961830453, -38.803944994250813 ], [ -68.273536038169553, -38.803944994250813 ], [ -68.273536038169553, -38.965641005749191 ] ] ] } },
{ "type": "Feature", "properties": { "provincia": "Río Negro", "localidad": "San Carlos De Bariloche", "tipo": "esp_verde", "tiempo_medio_01": 12.83695596, "tiempo_medio_10": 12.86549188 }, "geometry": { "type": "Polygon", "coordinates": [ [ [ -71.992130779669267, -41.055439005749186 ], [ -71.777964004377438, -41.055439005749186 ], [ -71.777964004377438, -40.893742994250807 ], [ -71.992130779669267, -40.893742994250807 ], [ -71.992130779669267, -41.055439005749186 ] ] ] } },
{ "type": "Feature", "properties": { "provincia": "Río Negro", "localidad": "San Carlos De Bariloche", "tipo": "jardin", "tiempo_medio_01": 15.34588283, "tiempo_medio_10": 240.0 }, "geometry": { "type": "Polygon", "coordinates": [ [ [ -71.468611995622567, -41.055439005749186 ], [ -71.254445220330737, -41.055439005749186 ], [ -71.254445220330737, -40.893742994250807 ], [ -71.468611995622567, -40.893742994250807 ], [ -71.468611995622567, -41.055439005749186 ] ] ] } },
{ "type": "Feature", "properties": { "provincia": "Río Negro", "localidad": "San Carlos De Bariloche", "tipo": "salud", "tiempo_medio_01": 9.217106679, "tiempo_medio_10": 27.6187129 }, "geometry": { "type": "Polygon", "coordinates": [ [ [ -71.730371387645917, -41.055439005749186 ], [ -71.516204612354088, -41.055439005749186 ], [ -71.516204612354088, -40.893742994250807 ], [ -71.730371387645917, -40.893742994250807 ], [ -71.730371387645917, -41.055439005749186 ] ] ] } },
{ "type": "Feature", "properties": { "provincia": "Salta", "localidad": "Salta", "tipo": "esp_verde", "tiempo_medio_01": 9.972420205000001, "tiempo_medio_10": 5.839967399 }, "geometry": { "type": "Polygon", "coordinates": [ [ [ -65.542175504042063, -24.989740005749194 ], [ -65.363895662985385, -24.989740005749194 ], [ -65.363895662985385, -24.828043994250809 ], [ -65.542175504042063, -24.828043994250809 ], [ -65.542175504042063, -24.989740005749194 ] ] ] } },
{ "type": "Feature", "properties": { "provincia": "Salta", "localidad": "Salta", "tipo": "jardin", "tiempo_medio_01": 183.2084324, "tiempo_medio_10": 238.3945803 }, "geometry": { "type": "Polygon", "coordinates": [ [ [ -65.106380337014627, -24.989740005749194 ], [ -64.928100495957949, -24.989740005749194 ], [ -64.928100495957949, -24.828043994250809 ], [ -65.106380337014627, -24.828043994250809 ], [ -65.106380337014627, -24.989740005749194 ] ] ] } },
{ "type": "Feature", "properties": { "provincia": "Salta", "localidad": "Salta", "tipo": "salud", "tiempo_medio_01": 12.1527564, "tiempo_medio_10": 18.45652931 }, "geometry": { "type": "Polygon", "coordinates": [ [ [ -65.324277920528345, -24.989740005749194 ], [ -65.145998079471667, -24.989740005749194 ], [ -65.145998079471667, -24.828043994250809 ], [ -65.324277920528345, -24.828043994250809 ], [ -65.324277920528345, -24.989740005749194 ] ] ] } },
{ "type": "Feature", "properties": { "provincia": "San Juan", "localidad": "San Juan", "tipo": "esp_verde", "tiempo_medio_01": 6.452492236, "tiempo_medio_10": 4.614239445 }, "geometry": { "type": "Polygon", "coordinates": [ [ [ -68.860988527974854, -31.613919005749192 ], [ -68.671279834312031, -31.613919005749192 ], [ -68.671279834312031, -31.452222994250807 ], [ -68.860988527974854, -31.452222994250807 ], [ -68.860988527974854, -31.613919005749192 ] ] ] } },
{ "type": "Feature", "properties": { "provincia": "San Juan", "localidad": "San Juan", "tipo": "jardin", "tiempo_medio_01": 240.0, "tiempo_medio_10": 11.63365385 }, "geometry": { "type": "Polygon", "coordinates": [ [ [ -68.397256165687963, -31.613919005749192 ], [ -68.207547472025141, -31.613919005749192 ], [ -68.207547472025141, -31.452222994250807 ], [ -68.397256165687963, -31.452222994250807 ], [ -68.397256165687963, -31.613919005749192 ] ] ] } },
{ "type": "Feature", "properties": { "provincia": "San Juan", "localidad": "San Juan", "tipo": "salud", "tiempo_medio_01": 10.05092587, "tiempo_medio_10": 15.91592973 }, "geometry": { "type": "Polygon", "coordinates": [ [ [ -68.629122346831409, -31.613919005749192 ], [ -68.439413653168586, -31.613919005749192 ], [ -68.439413653168586, -31.452222994250807 ], [ -68.629122346831409, -31.452222994250807 ], [ -68.629122346831409, -31.613919005749192 ] ] ] } },
{ "type": "Feature", "properties": { "provincia": "San Luis", "localidad": "Villa Mercedes", "tipo": "esp_verde", "tiempo_medio_01": 12.58592044, "tiempo_medio_10": 6.846931541 }, "geometry": { "type": "Polygon", "coordinates": [ [ [ -65.808404696713197, -33.748470005749191 ], [ -65.614121001847465, -33.748470005749191 ], [ -65.614121001847465, -33.586773994250812 ], [ -65.808404696713197, -33.586773994250812 ], [ -65.808404696713197, -33.748470005749191 ] ] ] } },
{ "type": "Feature", "properties": { "provincia": "San Luis", "localidad": "Villa Mercedes", "tipo": "jardin", "tiempo_medio_01": 240.0, "tiempo_medio_10": 13.51800307 }, "geometry": { "type": "Polygon", "coordinates": [ [ [ -65.333488998152532, -33.748470005749191 ], [ -65.139205303286801, -33.748470005749191 ], [ -65.139205303286801, -33.586773994250812 ], [ -65.333488998152532, -33.586773994250812 ], [ -65.333488998152532, -33.748470005749191 ] ] ] } },
{ "type": "Feature", "properties": { "provincia": "San Luis", "localidad": "Villa Mercedes", "tipo": "salud", "tiempo_medio_01": 15.98066771, "tiempo_medio_10": 18.86886714 }, "geometry": { "type": "Polygon", "coordinates": [ [ [ -65.570946847432865, -33.748470005749191 ], [ -65.376663152567133, -33.748470005749191 ], [ -65.376663152567133, -33.586773994250812 ], [ -65.570946847432865, -33.586773994250812 ], [ -65.570946847432865, -33.748470005749191 ] ] ] } },
{ "type": "Feature", "properties": { "provincia": "Santa Cruz", "localidad": "Río Gallegos", "tipo": "esp_verde", "tiempo_medio_01": 16.48430061, "tiempo_medio_10": 9.52390331 }, "geometry": { "type": "Polygon", "coordinates": [ [ [ -69.722849164303085, -51.720463005749188 ], [ -69.462303714062585, -51.720463005749188 ], [ -69.462303714062585, -51.55876699425081 ], [ -69.722849164303085, -51.55876699425081 ], [ -69.722849164303085, -51.720463005749188 ] ] ] } },
{ "type": "Feature", "properties": { "provincia": "Santa Cruz", "localidad": "Río Gallegos", "tipo": "jardin", "tiempo_medio_01": 172.3102945, "tiempo_medio_10": 240.0 }, "geometry": { "type": "Polygon", "coordinates": [ [ [ -69.085960285937404, -51.720463005749188 ], [ -68.825414835696904, -51.720463005749188 ], [ -68.825414835696904, -51.55876699425081 ], [ -69.085960285937404, -51.55876699425081 ], [ -69.085960285937404, -51.720463005749188 ] ] ] } },
{ "type": "Feature", "properties": { "provincia": "Santa Cruz", "localidad": "Río Gallegos", "tipo": "salud", "tiempo_medio_01": 44.45004417, "tiempo_medio_10": 14.05983925 }, "geometry": { "type": "Polygon", "coordinates": [ [ [ -69.404404725120244, -51.720463005749188 ], [ -69.143859274879745, -51.720463005749188 ], [ -69.143859274879745, -51.55876699425081 ], [ -69.404404725120244, -51.55876699425081 ], [ -69.404404725120244, -51.720463005749188 ] ] ] } },
{ "type": "Feature", "properties": { "provincia": "Santa Fe", "localidad": "Rosario", "tipo": "esp_verde", "tiempo_medio_01": 5.519889425, "tiempo_medio_10": 5.015866114 }, "geometry": { "type": "Polygon", "coordinates": [ [ [ -61.030396179796362, -33.030051005749186 ], [ -60.837706656043643, -33.030051005749186 ], [ -60.837706656043643, -32.868354994250808 ], [ -61.030396179796362, -32.868354994250808 ], [ -61.030396179796362, -33.030051005749186 ] ] ] } },
{ "type": "Feature", "properties": { "provincia": "Santa Fe", "localidad": "Rosario", "tipo": "jardin", "tiempo_medio_01": 240.0, "tiempo_medio_10": 10.80767081 }, "geometry": { "type": "Polygon", "coordinates": [ [ [ -60.559377343956363, -33.030051005749186 ], [ -60.366687820203644, -33.030051005749186 ], [ -60.366687820203644, -32.868354994250808 ], [ -60.559377343956363, -32.868354994250808 ], [ -60.559377343956363, -33.030051005749186 ] ] ] } },
{ "type": "Feature", "properties": { "provincia": "Santa Fe", "localidad": "Rosario", "tipo": "salud", "tiempo_medio_01": 8.405829898, "tiempo_medio_10": 8.578963227 }, "geometry": { "type": "Polygon", "coordinates": [ [ [ -60.794886761876363, -33.030051005749186 ], [ -60.602197238123644, -33.030051005749186 ], [ -60.602197238123644, -32.868354994250808 ], [ -60.794886761876363, -32.868354994250808 ], [ -60.794886761876363, -33.030051005749186 ] ] ] } },
{ "type": "Feature", "properties": { "provincia": "Santiago del Estero", "localidad": "Santiago del Estero", "tipo": "esp_verde", "tiempo_medio_01": 16.03288315, "tiempo_medio_10": 2.634575487 }, "geometry": { "type": "Polygon", "coordinates": [ [ [ -64.586605886069123, -27.880903005749193 ], [ -64.403811887706411, -27.880903005749193 ], [ -64.403811887706411, -27.719206994250808 ], [ -64.586605886069123, -27.719206994250808 ], [ -64.586605886069123, -27.880903005749193 ] ] ] } },
{ "type": "Feature", "properties": { "provincia": "Santiago del Estero", "localidad": "Santiago del Estero", "tipo": "jardin", "tiempo_medio_01": 20.19252756, "tiempo_medio_10": 19.34405142 }, "geometry": { "type": "Polygon", "coordinates": [ [ [ -64.139776112293589, -27.880903005749193 ], [ -63.956982113930877, -27.880903005749193 ], [ -63.956982113930877, -27.719206994250808 ], [ -64.139776112293589, -27.719206994250808 ], [ -64.139776112293589, -27.880903005749193 ] ] ] } },
{ "type": "Feature", "properties": { "provincia": "Santiago del Estero", "localidad": "Santiago del Estero", "tipo": "salud", "tiempo_medio_01": 16.34439742, "tiempo_medio_10": 14.94528802 }, "geometry": { "type": "Polygon", "coordinates": [ [ [ -64.363190999181356, -27.880903005749193 ], [ -64.180397000818644, -27.880903005749193 ], [ -64.180397000818644, -27.719206994250808 ], [ -64.363190999181356, -27.719206994250808 ], [ -64.363190999181356, -27.880903005749193 ] ] ] } },
{ "type": "Feature", "properties": { "provincia": "Tierra del Fuego", "localidad": "Ushuaia", "tipo": "esp_verde", "tiempo_medio_01": 29.14634416, "tiempo_medio_10": 13.7925784 }, "geometry": { "type": "Polygon", "coordinates": [ [ [ -68.836401781875438, -54.884804005749189 ], [ -68.555862618205836, -54.884804005749189 ], [ -68.555862618205836, -54.72310799425081 ], [ -68.836401781875438, -54.72310799425081 ], [ -68.836401781875438, -54.884804005749189 ] ] ] } },
{ "type": "Feature", "properties": { "provincia": "Tierra del Fuego", "localidad": "Ushuaia", "tipo": "jardin", "tiempo_medio_01": 20.3071567, "tiempo_medio_10": 240.0 }, "geometry": { "type": "Polygon", "coordinates": [ [ [ -68.150639381794164, -54.884804005749189 ], [ -67.870100218124563, -54.884804005749189 ], [ -67.870100218124563, -54.72310799425081 ], [ -68.150639381794164, -54.72310799425081 ], [ -68.150639381794164, -54.884804005749189 ] ] ] } },
{ "type": "Feature", "properties": { "provincia": "Tierra del Fuego", "localidad": "Ushuaia", "tipo": "salud", "tiempo_medio_01": 16.25123419, "tiempo_medio_10": 16.67624913 }, "geometry": { "type": "Polygon", "coordinates": [ [ [ -68.493520581834801, -54.884804005749189 ], [ -68.212981418165199, -54.884804005749189 ], [ -68.212981418165199, -54.72310799425081 ], [ -68.493520581834801, -54.72310799425081 ], [ -68.493520581834801, -54.884804005749189 ] ] ] } },
{ "type": "Feature", "properties": { "provincia": "Tucumán", "localidad": "San Miguel de Tucumán", "tipo": "esp_verde", "tiempo_medio_01": 13.38356979, "tiempo_medio_10": 3.486744738 }, "geometry": { "type": "Polygon", "coordinates": [ [ [ -65.53086830207701, -26.915665005749194 ], [ -65.349658062161325, -26.915665005749194 ], [ -65.349658062161325, -26.753968994250808 ], [ -65.53086830207701, -26.753968994250808 ], [ -65.53086830207701, -26.915665005749194 ] ] ] } },
{ "type": "Feature", "properties": { "provincia": "Tucumán", "localidad": "San Miguel de Tucumán", "tipo": "jardin", "tiempo_medio_01": 240.0, "tiempo_medio_10": 8.481323219 }, "geometry": { "type": "Polygon", "coordinates": [ [ [ -65.087909937838674, -26.915665005749194 ], [ -64.906699697922988, -26.915665005749194 ], [ -64.906699697922988, -26.753968994250808 ], [ -65.087909937838674, -26.753968994250808 ], [ -65.087909937838674, -26.915665005749194 ] ] ] } },
{ "type": "Feature", "properties": { "provincia": "Tucumán", "localidad": "San Miguel de Tucumán", "tipo": "salud", "tiempo_medio_01": 10.10571904, "tiempo_medio_10": 7.045471496 }, "geometry": { "type": "Polygon", "coordinates": [ [ [ -65.309389119957842, -26.915665005749194 ], [ -65.128178880042157, -26.915665005749194 ], [ -65.128178880042157, -26.753968994250808 ], [ -65.309389119957842, -26.753968994250808 ], [ -65.309389119957842, -26.915665005749194 ] ] ] } }
]
}
