{
"type": "FeatureCollection",
"name": "tiempos-v2",
"crs": { "type": "name", "properties": { "name": "urn:ogc:def:crs:OGC:1.3:CRS84" } },
"features": [
{ "type": "Feature", "properties": { "provincia": "Buenos Aires", "localidad": "La Matanza", "tipo": "esp_verde", "tiempo_medio_01": 11.85344404, "tiempo_medio_10": 7.07824327 }, "geometry": { "type": "Polygon", "coordinates": [ [ [ -58.739572201806403, -34.806285608004977 ], [ -58.684893645405246, -34.806285608004977 ], [ -58.684893645405246, -34.761370049255426 ], [ -58.739572201806403, -34.761370049255426 ], [ -58.739572201806403, -34.806285608004977 ] ] ] } },
{ "type": "Feature", "properties": { "provincia": "Buenos Aires", "localidad": "La Matanza", "tipo": "jardin", "tiempo_medio_01": 73.68039029000001, "tiempo_medio_10": 10.50073855 }, "geometry": { "type": "Polygon", "coordinates": [ [ [ -58.629572201806404, -34.806285608004977 ], [ -58.574893645405247, -34.806285608004977 ], [ -58.574893645405247, -34.761370049255426 ], [ -58.629572201806404, -34.761370049255426 ], [ -58.629572201806404, -34.806285608004977 ] ] ] } },
{ "type": "Feature", "properties": { "provincia": "Buenos Aires", "localidad": "La Matanza", "tipo": "salud", "tiempo_medio_01": 23.63843034, "tiempo_medio_10": 12.90618417 }, "geometry": { "type": "Polygon", "coordinates": [ [ [ -58.684572201806404, -34.806285608004977 ], [ -58.629893645405247, -34.806285608004977 ], [ -58.629893645405247, -34.761370049255426 ], [ -58.684572201806404, -34.761370049255426 ], [ -58.684572201806404, -34.806285608004977 ] ] ] } },
{ "type": "Feature", "properties": { "provincia": "Buenos Aires", "localidad": "La Plata", "tipo": "esp_verde", "tiempo_medio_01": 19.998441, "tiempo_medio_10": 10.18375368 }, "geometry": { "type": "Polygon", "coordinates": [ [ [ -58.100427075568646, -35.026006779374775 ], [ -58.045592924431347, -35.026006779374775 ], [ -58.045592924431347, -34.981091220625224 ], [ -58.100427075568646, -34.981091220625224 ], [ -58.100427075568646, -35.026006779374775 ] ] ] } },
{ "type": "Feature", "properties": { "provincia": "Buenos Aires", "localidad": "La Plata", "tipo": "jardin", "tiempo_medio_01": 240.0, "tiempo_medio_10": 131.0924211 }, "geometry": { "type": "Polygon", "coordinates": [ [ [ -57.990427075568647, -35.026006779374775 ], [ -57.935592924431347, -35.026006779374775 ], [ -57.935592924431347, -34.981091220625224 ], [ -57.990427075568647, -34.981091220625224 ], [ -57.990427075568647, -35.026006779374775 ] ] ] } },
{ "type": "Feature", "properties": { "provincia": "Buenos Aires", "localidad": "La Plata", "tipo": "salud", "tiempo_medio_01": 17.66821178, "tiempo_medio_10": 13.07952467 }, "geometry": { "type": "Polygon", "coordinates": [ [ [ -58.045427075568647, -35.026006779374775 ], [ -57.990592924431347, -35.026006779374775 ], [ -57.990592924431347, -34.981091220625224 ], [ -58.045427075568647, -34.981091220625224 ], [ -58.045427075568647, -35.026006779374775 ] ] ] } },
{ "type": "Feature", "properties": { "provincia": "Buenos Aires", "localidad": "Lomas de Zamora", "tipo": "esp_verde", "tiempo_medio_01": 11.35202231, "tiempo_medio_10": 8.109556612 }, "geometry": { "type": "Polygon", "coordinates": [ [ [ -58.469428052785204, -34.790184548817102 ], [ -58.414759508124448, -34.790184548817102 ], [ -58.414759508124448, -34.745268990067551 ], [ -58.469428052785204, -34.745268990067551 ], [ -58.469428052785204, -34.790184548817102 ] ] ] } },
{ "type": "Feature", "properties": { "provincia": "Buenos Aires", "localidad": "Lomas de Zamora", "tipo": "jardin", "tiempo_medio_01": 11.21404454, "tiempo_medio_10": 10.37438917 }, "geometry": { "type": "Polygon", "coordinates": [ [ [ -58.359428052785205, -34.790184548817102 ], [ -58.304759508124448, -34.790184548817102 ], [ -58.304759508124448, -34.745268990067551 ], [ -58.359428052785205, -34.745268990067551 ], [ -58.359428052785205, -34.790184548817102 ] ] ] } },
{ "type": "Feature", "properties": { "provincia": "Buenos Aires", "localidad": "Lomas de Zamora", "tipo": "salud", "tiempo_medio_01": 9.677639193, "tiempo_medio_10": 9.530766469 }, "geometry": { "type": "Polygon", "coordinates": [ [ [ -58.414428052785205, -34.790184548817102 ], [ -58.359759508124448, -34.790184548817102 ], [ -58.359759508124448, -34.745268990067551 ], [ -58.414428052785205, -34.745268990067551 ], [ -58.414428052785205, -34.790184548817102 ] ] ] } },
{ "type": "Feature", "properties": { "provincia": "CABA", "localidad": "CABA", "tipo": "esp_verde", "tiempo_medio_01": 5.153725362, "tiempo_medio_10": 4.082639214 }, "geometry": { "type": "Polygon", "coordinates": [ [ [ -58.527248014796982, -34.600856299677986 ], [ -58.47267967962631, -34.600856299677986 ], [ -58.47267967962631, -34.555940740928435 ], [ -58.527248014796982, -34.555940740928435 ], [ -58.527248014796982, -34.600856299677986 ] ] ] } },
{ "type": "Feature", "properties": { "provincia": "CABA", "localidad": "CABA", "tipo": "jardin", "tiempo_medio_01": 8.494238572, "tiempo_medio_10": 8.611290472 }, "geometry": { "type": "Polygon", "coordinates": [ [ [ -58.417248014796982, -34.600856299677986 ], [ -58.362679679626311, -34.600856299677986 ], [ -58.362679679626311, -34.555940740928435 ], [ -58.417248014796982, -34.555940740928435 ], [ -58.417248014796982, -34.600856299677986 ] ] ] } },
{ "type": "Feature", "properties": { "provincia": "CABA", "localidad": "CABA", "tipo": "salud", "tiempo_medio_01": 6.288283028, "tiempo_medio_10": 10.93421414 }, "geometry": { "type": "Polygon", "coordinates": [ [ [ -58.472248014796982, -34.600856299677986 ], [ -58.41767967962631, -34.600856299677986 ], [ -58.41767967962631, -34.555940740928435 ], [ -58.472248014796982, -34.555940740928435 ], [ -58.472248014796982, -34.600856299677986 ] ] ] } },
{ "type": "Feature", "properties": { "provincia": "Catamarca", "localidad": "San Fernando del Valle de Catamarca", "tipo": "esp_verde", "tiempo_medio_01": 11.48609195, "tiempo_medio_10": 2.56135263 }, "geometry": { "type": "Polygon", "coordinates": [ [ [ -65.917078877020984, -28.432738779374777 ], [ -65.866013122979027, -28.432738779374777 ], [ -65.866013122979027, -28.387823220625226 ], [ -65.917078877020984, -28.387823220625226 ], [ -65.917078877020984, -28.432738779374777 ] ] ] } },
{ "type": "Feature", "properties": { "provincia": "Catamarca", "localidad": "San Fernando del Valle de Catamarca", "tipo": "jardin", "tiempo_medio_01": 119.8140339, "tiempo_medio_10": 17.77306964 }, "geometry": { "type": "Polygon", "coordinates": [ [ [ -65.80707887702097, -28.432738779374777 ], [ -65.756013122979013, -28.432738779374777 ], [ -65.756013122979013, -28.387823220625226 ], [ -65.80707887702097, -28.387823220625226 ], [ -65.80707887702097, -28.432738779374777 ] ] ] } },
{ "type": "Feature", "properties": { "provincia": "Catamarca", "localidad": "San Fernando del Valle de Catamarca", "tipo": "salud", "tiempo_medio_01": 10.83363671, "tiempo_medio_10": 8.084654941 }, "geometry": { "type": "Polygon", "coordinates": [ [ [ -65.862078877020977, -28.432738779374777 ], [ -65.81101312297902, -28.432738779374777 ], [ -65.81101312297902, -28.387823220625226 ], [ -65.862078877020977, -28.387823220625226 ], [ -65.862078877020977, -28.432738779374777 ] ] ] } },
{ "type": "Feature", "properties": { "provincia": "Catamarca", "localidad": "Santa María", "tipo": "esp_verde", "tiempo_medio_01": 240.0, "tiempo_medio_10": 1.049680639 }, "geometry": { "type": "Polygon", "coordinates": [ [ [ -66.229886732810471, -26.519716779374775 ], [ -66.179699267189548, -26.519716779374775 ], [ -66.179699267189548, -26.474801220625224 ], [ -66.229886732810471, -26.474801220625224 ], [ -66.229886732810471, -26.519716779374775 ] ] ] } },
{ "type": "Feature", "properties": { "provincia": "Catamarca", "localidad": "Santa María", "tipo": "jardin", "tiempo_medio_01": 240.0, "tiempo_medio_10": 95.48293413 }, "geometry": { "type": "Polygon", "coordinates": [ [ [ -66.119886732810457, -26.519716779374775 ], [ -66.069699267189534, -26.519716779374775 ], [ -66.069699267189534, -26.474801220625224 ], [ -66.119886732810457, -26.474801220625224 ], [ -66.119886732810457, -26.519716779374775 ] ] ] } },
{ "type": "Feature", "properties": { "provincia": "Catamarca", "localidad": "Santa María", "tipo": "salud", "tiempo_medio_01": 141.085057, "tiempo_medio_10": 8.353789088 }, "geometry": { "type": "Polygon", "coordinates": [ [ [ -66.174886732810464, -26.519716779374775 ], [ -66.124699267189541, -26.519716779374775 ], [ -66.124699267189541, -26.474801220625224 ], [ -66.174886732810464, -26.474801220625224 ], [ -66.174886732810464, -26.519716779374775 ] ] ] } },
{ "type": "Feature", "properties": { "provincia": "Catamarca", "localidad": "Valle Viejo", "tipo": "esp_verde", "tiempo_medio_01": 36.33830322, "tiempo_medio_10": 14.14674986 }, "geometry": { "type": "Polygon", "coordinates": [ [ [ -65.78812547947274, -28.621007779374775 ], [ -65.736968520527284, -28.621007779374775 ], [ -65.736968520527284, -28.576092220625224 ], [ -65.78812547947274, -28.576092220625224 ], [ -65.78812547947274, -28.621007779374775 ] ] ] } },
{ "type": "Feature", "properties": { "provincia": "Catamarca", "localidad": "Valle Viejo", "tipo": "jardin", "tiempo_medio_01": 240.0, "tiempo_medio_10": 22.39642857 }, "geometry": { "type": "Polygon", "coordinates": [ [ [ -65.678125479472726, -28.621007779374775 ], [ -65.626968520527271, -28.621007779374775 ], [ -65.626968520527271, -28.576092220625224 ], [ -65.678125479472726, -28.576092220625224 ], [ -65.678125479472726, -28.621007779374775 ] ] ] } },
{ "type": "Feature", "properties": { "provincia": "Catamarca", "localidad": "Valle Viejo", "tipo": "salud", "tiempo_medio_01": 53.53795223, "tiempo_medio_10": 9.196219162 }, "geometry": { "type": "Polygon", "coordinates": [ [ [ -65.733125479472733, -28.621007779374775 ], [ -65.681968520527278, -28.621007779374775 ], [ -65.681968520527278, -28.576092220625224 ], [ -65.733125479472733, -28.576092220625224 ], [ -65.733125479472733, -28.621007779374775 ] ] ] } },
{ "type": "Feature", "properties": { "provincia": "Chaco", "localidad": "Barranqueras", "tipo": "esp_verde", "tiempo_medio_01": 14.20039357, "tiempo_medio_10": 2.371014679 }, "geometry": { "type": "Polygon", "coordinates": [ [ [ -59.072242580554345, -27.467458891710351 ], [ -59.021610877855736, -27.467458891710351 ], [ -59.021610877855736, -27.422543332960799 ], [ -59.072242580554345, -27.422543332960799 ], [ -59.072242580554345, -27.467458891710351 ] ] ] } },
{ "type": "Feature", "properties": { "provincia": "Chaco", "localidad": "Barranqueras", "tipo": "jardin", "tiempo_medio_01": 240.0, "tiempo_medio_10": 7.32546789 }, "geometry": { "type": "Polygon", "coordinates": [ [ [ -58.962242580554346, -27.467458891710351 ], [ -58.911610877855736, -27.467458891710351 ], [ -58.911610877855736, -27.422543332960799 ], [ -58.962242580554346, -27.422543332960799 ], [ -58.962242580554346, -27.467458891710351 ] ] ] } },
{ "type": "Feature", "properties": { "provincia": "Chaco", "localidad": "Barranqueras", "tipo": "salud", "tiempo_medio_01": 18.24359343, "tiempo_medio_10": 8.728388991 }, "geometry": { "type": "Polygon", "coordinates": [ [ [ -59.017242580554345, -27.467458891710351 ], [ -58.966610877855736, -27.467458891710351 ], [ -58.966610877855736, -27.422543332960799 ], [ -59.017242580554345, -27.422543332960799 ], [ -59.017242580554345, -27.467458891710351 ] ] ] } },
{ "type": "Feature", "properties": { "provincia": "Chaco", "localidad": "Presidencia Roque Sáenz Peña", "tipo": "esp_verde", "tiempo_medio_01": 24.14551898, "tiempo_medio_10": 2.86544645 }, "geometry": { "type": "Polygon", "coordinates": [ [ [ -60.542102487765916, -26.809510779374776 ], [ -60.491787512234083, -26.809510779374776 ], [ -60.491787512234083, -26.764595220625225 ], [ -60.542102487765916, -26.764595220625225 ], [ -60.542102487765916, -26.809510779374776 ] ] ] } },
{ "type": "Feature", "properties": { "provincia": "Chaco", "localidad": "Presidencia Roque Sáenz Peña", "tipo": "jardin", "tiempo_medio_01": 240.0, "tiempo_medio_10": 9.719426394 }, "geometry": { "type": "Polygon", "coordinates": [ [ [ -60.432102487765917, -26.809510779374776 ], [ -60.381787512234084, -26.809510779374776 ], [ -60.381787512234084, -26.764595220625225 ], [ -60.432102487765917, -26.764595220625225 ], [ -60.432102487765917, -26.809510779374776 ] ] ] } },
{ "type": "Feature", "properties": { "provincia": "Chaco", "localidad": "Presidencia Roque Sáenz Peña", "tipo": "salud", "tiempo_medio_01": 26.1999393, "tiempo_medio_10": 8.041425993000001 }, "geometry": { "type": "Polygon", "coordinates": [ [ [ -60.487102487765917, -26.809510779374776 ], [ -60.436787512234083, -26.809510779374776 ], [ -60.436787512234083, -26.764595220625225 ], [ -60.487102487765917, -26.764595220625225 ], [ -60.487102487765917, -26.809510779374776 ] ] ] } },
{ "type": "Feature", "properties": { "provincia": "Chaco", "localidad": "Resistencia", "tipo": "esp_verde", "tiempo_medio_01": 13.76373086, "tiempo_medio_10": 4.697075606 }, "geometry": { "type": "Polygon", "coordinates": [ [ [ -59.22498306905505, -27.611690779374776 ], [ -59.174304930944949, -27.611690779374776 ], [ -59.174304930944949, -27.566775220625225 ], [ -59.22498306905505, -27.566775220625225 ], [ -59.22498306905505, -27.611690779374776 ] ] ] } },
{ "type": "Feature", "properties": { "provincia": "Chaco", "localidad": "Resistencia", "tipo": "jardin", "tiempo_medio_01": 240.0, "tiempo_medio_10": 9.252945212 }, "geometry": { "type": "Polygon", "coordinates": [ [ [ -59.11498306905505, -27.611690779374776 ], [ -59.064304930944949, -27.611690779374776 ], [ -59.064304930944949, -27.566775220625225 ], [ -59.11498306905505, -27.566775220625225 ], [ -59.11498306905505, -27.611690779374776 ] ] ] } },
{ "type": "Feature", "properties": { "provincia": "Chaco", "localidad": "Resistencia", "tipo": "salud", "tiempo_medio_01": 17.67768629, "tiempo_medio_10": 13.21084737 }, "geometry": { "type": "Polygon", "coordinates": [ [ [ -59.16998306905505, -27.611690779374776 ], [ -59.119304930944949, -27.611690779374776 ], [ -59.119304930944949, -27.566775220625225 ], [ -59.16998306905505, -27.566775220625225 ], [ -59.16998306905505, -27.611690779374776 ] ] ] } },
{ "type": "Feature", "properties": { "provincia": "Chubut", "localidad": "Comodoro Rivadavia", "tipo": "esp_verde", "tiempo_medio_01": 8.03509123, "tiempo_medio_10": 4.23591113 }, "geometry": { "type": "Polygon", "coordinates": [ [ [ -67.678666848945454, -45.861937779374777 ], [ -67.61419515105456, -45.861937779374777 ], [ -67.61419515105456, -45.817022220625226 ], [ -67.678666848945454, -45.817022220625226 ], [ -67.678666848945454, -45.861937779374777 ] ] ] } },
{ "type": "Feature", "properties": { "provincia": "Chubut", "localidad": "Comodoro Rivadavia", "tipo": "jardin", "tiempo_medio_01": 240.0, "tiempo_medio_10": 131.7483693 }, "geometry": { "type": "Polygon", "coordinates": [ [ [ -67.568666848945441, -45.861937779374777 ], [ -67.504195151054546, -45.861937779374777 ], [ -67.504195151054546, -45.817022220625226 ], [ -67.568666848945441, -45.817022220625226 ], [ -67.568666848945441, -45.861937779374777 ] ] ] } },
{ "type": "Feature", "properties": { "provincia": "Chubut", "localidad": "Comodoro Rivadavia", "tipo": "salud", "tiempo_medio_01": 13.53379723, "tiempo_medio_10": 20.83544884 }, "geometry": { "type": "Polygon", "coordinates": [ [ [ -67.623666848945447, -45.861937779374777 ], [ -67.559195151054553, -45.861937779374777 ], [ -67.559195151054553, -45.817022220625226 ], [ -67.623666848945447, -45.817022220625226 ], [ -67.623666848945447, -45.861937779374777 ] ] ] } },
{ "type": "Feature", "properties": { "provincia": "Chubut", "localidad": "Puerto Madryn", "tipo": "esp_verde", "tiempo_medio_01": 5.865421801, "tiempo_medio_10": 8.177161992 }, "geometry": { "type": "Polygon", "coordinates": [ [ [ -65.133911856714931, -42.753934779374774 ], [ -65.072764143285085, -42.753934779374774 ], [ -65.072764143285085, -42.709019220625223 ], [ -65.133911856714931, -42.709019220625223 ], [ -65.133911856714931, -42.753934779374774 ] ] ] } },
{ "type": "Feature", "properties": { "provincia": "Chubut", "localidad": "Puerto Madryn", "tipo": "jardin", "tiempo_medio_01": 164.4235144, "tiempo_medio_10": 29.59644435 }, "geometry": { "type": "Polygon", "coordinates": [ [ [ -65.023911856714918, -42.753934779374774 ], [ -64.962764143285071, -42.753934779374774 ], [ -64.962764143285071, -42.709019220625223 ], [ -65.023911856714918, -42.709019220625223 ], [ -65.023911856714918, -42.753934779374774 ] ] ] } },
{ "type": "Feature", "properties": { "provincia": "Chubut", "localidad": "Puerto Madryn", "tipo": "salud", "tiempo_medio_01": 8.584199781000001, "tiempo_medio_10": 21.44637645 }, "geometry": { "type": "Polygon", "coordinates": [ [ [ -65.078911856714925, -42.753934779374774 ], [ -65.017764143285078, -42.753934779374774 ], [ -65.017764143285078, -42.709019220625223 ], [ -65.078911856714925, -42.709019220625223 ], [ -65.078911856714925, -42.753934779374774 ] ] ] } },
{ "type": "Feature", "properties": { "provincia": "Chubut", "localidad": "Trelew", "tipo": "esp_verde", "tiempo_medio_01": 23.02115292, "tiempo_medio_10": 10.29768055 }, "geometry": { "type": "Polygon", "coordinates": [ [ [ -65.405020604946273, -43.271901779374772 ], [ -65.343355395053734, -43.271901779374772 ], [ -65.343355395053734, -43.226986220625221 ], [ -65.405020604946273, -43.226986220625221 ], [ -65.405020604946273, -43.271901779374772 ] ] ] } },
{ "type": "Feature", "properties": { "provincia": "Chubut", "localidad": "Trelew", "tipo": "jardin", "tiempo_medio_01": 240.0, "tiempo_medio_10": 240.0 }, "geometry": { "type": "Polygon", "coordinates": [ [ [ -65.295020604946259, -43.271901779374772 ], [ -65.233355395053721, -43.271901779374772 ], [ -65.233355395053721, -43.226986220625221 ], [ -65.295020604946259, -43.226986220625221 ], [ -65.295020604946259, -43.271901779374772 ] ] ] } },
{ "type": "Feature", "properties": { "provincia": "Chubut", "localidad": "Trelew", "tipo": "salud", "tiempo_medio_01": 11.72358495, "tiempo_medio_10": 14.5586337 }, "geometry": { "type": "Polygon", "coordinates": [ [ [ -65.350020604946266, -43.271901779374772 ], [ -65.288355395053728, -43.271901779374772 ], [ -65.288355395053728, -43.226986220625221 ], [ -65.350020604946266, -43.226986220625221 ], [ -65.350020604946266, -43.271901779374772 ] ] ] } },
{ "type": "Feature", "properties": { "provincia": "Corrientes", "localidad": "Corrientes", "tipo": "esp_verde", "tiempo_medio_01": 8.838266937, "tiempo_medio_10": 4.059273159 }, "geometry": { "type": "Polygon", "coordinates": [ [ [ -58.827678758620571, -27.506211030081779 ], [ -58.777044463222559, -27.506211030081779 ], [ -58.777044463222559, -27.461295471332228 ], [ -58.827678758620571, -27.461295471332228 ], [ -58.827678758620571, -27.506211030081779 ] ] ] } },
{ "type": "Feature", "properties": { "provincia": "Corrientes", "localidad": "Corrientes", "tipo": "jardin", "tiempo_medio_01": 161.8525347, "tiempo_medio_10": 8.272872282 }, "geometry": { "type": "Polygon", "coordinates": [ [ [ -58.717678758620572, -27.506211030081779 ], [ -58.66704446322256, -27.506211030081779 ], [ -58.66704446322256, -27.461295471332228 ], [ -58.717678758620572, -27.461295471332228 ], [ -58.717678758620572, -27.506211030081779 ] ] ] } },
{ "type": "Feature", "properties": { "provincia": "Corrientes", "localidad": "Corrientes", "tipo": "salud", "tiempo_medio_01": 20.4997716, "tiempo_medio_10": 5.684003289 }, "geometry": { "type": "Polygon", "coordinates": [ [ [ -58.772678758620572, -27.506211030081779 ], [ -58.722044463222559, -27.506211030081779 ], [ -58.722044463222559, -27.461295471332228 ], [ -58.772678758620572, -27.461295471332228 ], [ -58.772678758620572, -27.506211030081779 ] ] ] } },
{ "type": "Feature", "properties": { "provincia": "Corrientes", "localidad": "Goya", "tipo": "esp_verde", "tiempo_medio_01": 197.5701453, "tiempo_medio_10": 10.11554149 }, "geometry": { "type": "Polygon", "coordinates": [ [ [ -59.261062401806122, -29.362513779374776 ], [ -59.209537598193883, -29.362513779374776 ], [ -59.209537598193883, -29.317598220625225 ], [ -59.261062401806122, -29.317598220625225 ], [ -59.261062401806122, -29.362513779374776 ] ] ] } },
{ "type": "Feature", "properties": { "provincia": "Corrientes", "localidad": "Goya", "tipo": "jardin", "tiempo_medio_01": 240.0, "tiempo_medio_10": 34.85085897 }, "geometry": { "type": "Polygon", "coordinates": [ [ [ -59.151062401806122, -29.362513779374776 ], [ -59.099537598193884, -29.362513779374776 ], [ -59.099537598193884, -29.317598220625225 ], [ -59.151062401806122, -29.317598220625225 ], [ -59.151062401806122, -29.362513779374776 ] ] ] } },
{ "type": "Feature", "properties": { "provincia": "Corrientes", "localidad": "Goya", "tipo": "salud", "tiempo_medio_01": 141.973499, "tiempo_medio_10": 19.19340997 }, "geometry": { "type": "Polygon", "coordinates": [ [ [ -59.206062401806122, -29.362513779374776 ], [ -59.154537598193883, -29.362513779374776 ], [ -59.154537598193883, -29.317598220625225 ], [ -59.206062401806122, -29.317598220625225 ], [ -59.206062401806122, -29.362513779374776 ] ] ] } },
{ "type": "Feature", "properties": { "provincia": "Corrientes", "localidad": "Paso de los Libres", "tipo": "esp_verde", "tiempo_medio_01": 38.16363715, "tiempo_medio_10": 19.07404005 }, "geometry": { "type": "Polygon", "coordinates": [ [ [ -57.386227424956097, -29.532011779374777 ], [ -57.334616575043903, -29.532011779374777 ], [ -57.334616575043903, -29.487096220625226 ], [ -57.386227424956097, -29.487096220625226 ], [ -57.386227424956097, -29.532011779374777 ] ] ] } },
{ "type": "Feature", "properties": { "provincia": "Corrientes", "localidad": "Paso de los Libres", "tipo": "jardin", "tiempo_medio_01": 15.00584644, "tiempo_medio_10": 18.86055654 }, "geometry": { "type": "Polygon", "coordinates": [ [ [ -57.276227424956097, -29.532011779374777 ], [ -57.224616575043903, -29.532011779374777 ], [ -57.224616575043903, -29.487096220625226 ], [ -57.276227424956097, -29.487096220625226 ], [ -57.276227424956097, -29.532011779374777 ] ] ] } },
{ "type": "Feature", "properties": { "provincia": "Corrientes", "localidad": "Paso de los Libres", "tipo": "salud", "tiempo_medio_01": 55.09887524, "tiempo_medio_10": 24.23231743 }, "geometry": { "type": "Polygon", "coordinates": [ [ [ -57.331227424956097, -29.532011779374777 ], [ -57.279616575043903, -29.532011779374777 ], [ -57.279616575043903, -29.487096220625226 ], [ -57.331227424956097, -29.487096220625226 ], [ -57.331227424956097, -29.532011779374777 ] ] ] } },
{ "type": "Feature", "properties": { "provincia": "Córdoba", "localidad": "Córdoba", "tipo": "esp_verde", "tiempo_medio_01": 6.34671732, "tiempo_medio_10": 6.415219111 }, "geometry": { "type": "Polygon", "coordinates": [ [ [ -64.264901705815731, -31.439220779374775 ], [ -64.212270294184293, -31.439220779374775 ], [ -64.212270294184293, -31.394305220625224 ], [ -64.264901705815731, -31.394305220625224 ], [ -64.264901705815731, -31.439220779374775 ] ] ] } },
{ "type": "Feature", "properties": { "provincia": "Córdoba", "localidad": "Córdoba", "tipo": "jardin", "tiempo_medio_01": 240.0, "tiempo_medio_10": 109.8453485 }, "geometry": { "type": "Polygon", "coordinates": [ [ [ -64.154901705815718, -31.439220779374775 ], [ -64.102270294184279, -31.439220779374775 ], [ -64.102270294184279, -31.394305220625224 ], [ -64.154901705815718, -31.394305220625224 ], [ -64.154901705815718, -31.439220779374775 ] ] ] } },
{ "type": "Feature", "properties": { "provincia": "Córdoba", "localidad": "Córdoba", "tipo": "salud", "tiempo_medio_01": 13.56152748, "tiempo_medio_10": 17.70691103 }, "geometry": { "type": "Polygon", "coordinates": [ [ [ -64.209901705815724, -31.439220779374775 ], [ -64.157270294184286, -31.439220779374775 ], [ -64.157270294184286, -31.394305220625224 ], [ -64.209901705815724, -31.394305220625224 ], [ -64.209901705815724, -31.439220779374775 ] ] ] } },
{ "type": "Feature", "properties": { "provincia": "Córdoba", "localidad": "Río Cuarto", "tipo": "esp_verde", "tiempo_medio_01": 10.24030176, "tiempo_medio_10": 5.885490018 }, "geometry": { "type": "Polygon", "coordinates": [ [ [ -64.438802082045285, -33.138267779374779 ], [ -64.385175917954726, -33.138267779374779 ], [ -64.385175917954726, -33.093352220625228 ], [ -64.438802082045285, -33.093352220625228 ], [ -64.438802082045285, -33.138267779374779 ] ] ] } },
{ "type": "Feature", "properties": { "provincia": "Córdoba", "localidad": "Río Cuarto", "tipo": "jardin", "tiempo_medio_01": 205.388746, "tiempo_medio_10": 21.01017594 }, "geometry": { "type": "Polygon", "coordinates": [ [ [ -64.328802082045272, -33.138267779374779 ], [ -64.275175917954712, -33.138267779374779 ], [ -64.275175917954712, -33.093352220625228 ], [ -64.328802082045272, -33.093352220625228 ], [ -64.328802082045272, -33.138267779374779 ] ] ] } },
{ "type": "Feature", "properties": { "provincia": "Córdoba", "localidad": "Río Cuarto", "tipo": "salud", "tiempo_medio_01": 18.89033847, "tiempo_medio_10": 10.92317453 }, "geometry": { "type": "Polygon", "coordinates": [ [ [ -64.383802082045278, -33.138267779374779 ], [ -64.330175917954719, -33.138267779374779 ], [ -64.330175917954719, -33.093352220625228 ], [ -64.383802082045278, -33.093352220625228 ], [ -64.383802082045278, -33.138267779374779 ] ] ] } },
{ "type": "Feature", "properties": { "provincia": "Córdoba", "localidad": "Villa María", "tipo": "esp_verde", "tiempo_medio_01": 9.512455187, "tiempo_medio_10": 4.042130171 }, "geometry": { "type": "Polygon", "coordinates": [ [ [ -63.318287387927555, -32.425780779374776 ], [ -63.265088612072446, -32.425780779374776 ], [ -63.265088612072446, -32.380865220625225 ], [ -63.318287387927555, -32.380865220625225 ], [ -63.318287387927555, -32.425780779374776 ] ] ] } },
{ "type": "Feature", "properties": { "provincia": "Córdoba", "localidad": "Villa María", "tipo": "jardin", "tiempo_medio_01": 75.22986571, "tiempo_medio_10": 18.23366373 }, "geometry": { "type": "Polygon", "coordinates": [ [ [ -63.208287387927555, -32.425780779374776 ], [ -63.155088612072447, -32.425780779374776 ], [ -63.155088612072447, -32.380865220625225 ], [ -63.208287387927555, -32.380865220625225 ], [ -63.208287387927555, -32.425780779374776 ] ] ] } },
{ "type": "Feature", "properties": { "provincia": "Córdoba", "localidad": "Villa María", "tipo": "salud", "tiempo_medio_01": 10.56527209, "tiempo_medio_10": 13.28524235 }, "geometry": { "type": "Polygon", "coordinates": [ [ [ -63.263287387927555, -32.425780779374776 ], [ -63.210088612072447, -32.425780779374776 ], [ -63.210088612072447, -32.380865220625225 ], [ -63.263287387927555, -32.380865220625225 ], [ -63.263287387927555, -32.425780779374776 ] ] ] } },
{ "type": "Feature", "properties": { "provincia": "Entre Ríos", "localidad": "Concordia", "tipo": "esp_verde", "tiempo_medio_01": 7.617922448, "tiempo_medio_10": 4.917008689 }, "geometry": { "type": "Polygon", "coordinates": [ [ [ -58.115524329076699, -31.366454779374777 ], [ -58.062933670923307, -31.366454779374777 ], [ -58.062933670923307, -31.321539220625226 ], [ -58.115524329076699, -31.321539220625226 ], [ -58.115524329076699, -31.366454779374777 ] ] ] } },
{ "type": "Feature", "properties": { "provincia": "Entre Ríos", "localidad": "Concordia", "tipo": "jardin", "tiempo_medio_01": 240.0, "tiempo_medio_10": 8.610362359 }, "geometry": { "type": "Polygon", "coordinates": [ [ [ -58.0055243290767, -31.366454779374777 ], [ -57.952933670923308, -31.366454779374777 ], [ -57.952933670923308, -31.321539220625226 ], [ -58.0055243290767, -31.321539220625226 ], [ -58.0055243290767, -31.366454779374777 ] ] ] } },
{ "type": "Feature", "properties": { "provincia": "Entre Ríos", "localidad": "Concordia", "tipo": "salud", "tiempo_medio_01": 12.50753646, "tiempo_medio_10": 9.19275929 }, "geometry": { "type": "Polygon", "coordinates": [ [ [ -58.060524329076699, -31.366454779374777 ], [ -58.007933670923308, -31.366454779374777 ], [ -58.007933670923308, -31.321539220625226 ], [ -58.060524329076699, -31.321539220625226 ], [ -58.060524329076699, -31.366454779374777 ] ] ] } },
{ "type": "Feature", "properties": { "provincia": "Entre Ríos", "localidad": "Paraná", "tipo": "esp_verde", "tiempo_medio_01": 8.151694422, "tiempo_medio_10": 5.046604523 }, "geometry": { "type": "Polygon", "coordinates": [ [ [ -60.541378024852115, -31.781190771640222 ], [ -60.488558443211978, -31.781190771640222 ], [ -60.488558443211978, -31.736275212890671 ], [ -60.541378024852115, -31.736275212890671 ], [ -60.541378024852115, -31.781190771640222 ] ] ] } },
{ "type": "Feature", "properties": { "provincia": "Entre Ríos", "localidad": "Paraná", "tipo": "jardin", "tiempo_medio_01": 240.0, "tiempo_medio_10": 203.758072 }, "geometry": { "type": "Polygon", "coordinates": [ [ [ -60.431378024852116, -31.781190771640222 ], [ -60.378558443211979, -31.781190771640222 ], [ -60.378558443211979, -31.736275212890671 ], [ -60.431378024852116, -31.736275212890671 ], [ -60.431378024852116, -31.781190771640222 ] ] ] } },
{ "type": "Feature", "properties": { "provincia": "Entre Ríos", "localidad": "Paraná", "tipo": "salud", "tiempo_medio_01": 11.26449667, "tiempo_medio_10": 8.567185684 }, "geometry": { "type": "Polygon", "coordinates": [ [ [ -60.486378024852115, -31.781190771640222 ], [ -60.433558443211979, -31.781190771640222 ], [ -60.433558443211979, -31.736275212890671 ], [ -60.486378024852115, -31.736275212890671 ], [ -60.486378024852115, -31.781190771640222 ] ] ] } },
{ "type": "Feature", "properties": { "provincia": "Entre Ríos", "localidad": "San José de Gualeguaychú", "tipo": "esp_verde", "tiempo_medio_01": 8.456809804000001, "tiempo_medio_10": 3.803395627 }, "geometry": { "type": "Polygon", "coordinates": [ [ [ -58.502565229511767, -33.050107779374777 ], [ -58.448992770488239, -33.050107779374777 ], [ -58.448992770488239, -33.005192220625226 ], [ -58.502565229511767, -33.005192220625226 ], [ -58.502565229511767, -33.050107779374777 ] ] ] } },
{ "type": "Feature", "properties": { "provincia": "Entre Ríos", "localidad": "San José de Gualeguaychú", "tipo": "jardin", "tiempo_medio_01": 240.0, "tiempo_medio_10": 163.6042827 }, "geometry": { "type": "Polygon", "coordinates": [ [ [ -58.392565229511767, -33.050107779374777 ], [ -58.33899277048824, -33.050107779374777 ], [ -58.33899277048824, -33.005192220625226 ], [ -58.392565229511767, -33.005192220625226 ], [ -58.392565229511767, -33.050107779374777 ] ] ] } },
{ "type": "Feature", "properties": { "provincia": "Entre Ríos", "localidad": "San José de Gualeguaychú", "tipo": "salud", "tiempo_medio_01": 11.69075124, "tiempo_medio_10": 8.83750327 }, "geometry": { "type": "Polygon", "coordinates": [ [ [ -58.447565229511767, -33.050107779374777 ], [ -58.393992770488239, -33.050107779374777 ], [ -58.393992770488239, -33.005192220625226 ], [ -58.447565229511767, -33.005192220625226 ], [ -58.447565229511767, -33.050107779374777 ] ] ] } },
{ "type": "Feature", "properties": { "provincia": "Formosa", "localidad": "Clorinda", "tipo": "esp_verde", "tiempo_medio_01": 78.53065138, "tiempo_medio_10": 3.717941812 }, "geometry": { "type": "Polygon", "coordinates": [ [ [ -57.919819361148257, -25.468048779374776 ], [ -57.870078638851737, -25.468048779374776 ], [ -57.870078638851737, -25.423133220625225 ], [ -57.919819361148257, -25.423133220625225 ], [ -57.919819361148257, -25.468048779374776 ] ] ] } },
{ "type": "Feature", "properties": { "provincia": "Formosa", "localidad": "Clorinda", "tipo": "jardin", "tiempo_medio_01": 240.0, "tiempo_medio_10": 6.713524671 }, "geometry": { "type": "Polygon", "coordinates": [ [ [ -57.809819361148257, -25.468048779374776 ], [ -57.760078638851738, -25.468048779374776 ], [ -57.760078638851738, -25.423133220625225 ], [ -57.809819361148257, -25.423133220625225 ], [ -57.809819361148257, -25.468048779374776 ] ] ] } },
{ "type": "Feature", "properties": { "provincia": "Formosa", "localidad": "Clorinda", "tipo": "salud", "tiempo_medio_01": 92.91707631, "tiempo_medio_10": 20.77735797 }, "geometry": { "type": "Polygon", "coordinates": [ [ [ -57.864819361148257, -25.468048779374776 ], [ -57.815078638851737, -25.468048779374776 ], [ -57.815078638851737, -25.423133220625225 ], [ -57.864819361148257, -25.423133220625225 ], [ -57.864819361148257, -25.468048779374776 ] ] ] } },
{ "type": "Feature", "properties": { "provincia": "Formosa", "localidad": "Formosa", "tipo": "esp_verde", "tiempo_medio_01": 42.35286875, "tiempo_medio_10": 4.880884177 }, "geometry": { "type": "Polygon", "coordinates": [ [ [ -58.276335891984836, -26.056855779374775 ], [ -58.226348108015166, -26.056855779374775 ], [ -58.226348108015166, -26.011940220625224 ], [ -58.276335891984836, -26.011940220625224 ], [ -58.276335891984836, -26.056855779374775 ] ] ] } },
{ "type": "Feature", "properties": { "provincia": "Formosa", "localidad": "Formosa", "tipo": "jardin", "tiempo_medio_01": 240.0, "tiempo_medio_10": 61.25729083 }, "geometry": { "type": "Polygon", "coordinates": [ [ [ -58.166335891984836, -26.056855779374775 ], [ -58.116348108015167, -26.056855779374775 ], [ -58.116348108015167, -26.011940220625224 ], [ -58.166335891984836, -26.011940220625224 ], [ -58.166335891984836, -26.056855779374775 ] ] ] } },
{ "type": "Feature", "properties": { "provincia": "Formosa", "localidad": "Formosa", "tipo": "salud", "tiempo_medio_01": 44.76422263, "tiempo_medio_10": 9.522774649 }, "geometry": { "type": "Polygon", "coordinates": [ [ [ -58.221335891984836, -26.056855779374775 ], [ -58.171348108015167, -26.056855779374775 ], [ -58.171348108015167, -26.011940220625224 ], [ -58.221335891984836, -26.011940220625224 ], [ -58.221335891984836, -26.056855779374775 ] ] ] } },
{ "type": "Feature", "properties": { "provincia": "Formosa", "localidad": "Pirané", "tipo": "esp_verde", "tiempo_medio_01": 139.3879191, "tiempo_medio_10": 4.90312095 }, "geometry": { "type": "Polygon", "coordinates": [ [ [ -59.09720091571144, -25.668177779374776 ], [ -59.047377084288556, -25.668177779374776 ], [ -59.047377084288556, -25.623262220625225 ], [ -59.09720091571144, -25.623262220625225 ], [ -59.09720091571144, -25.668177779374776 ] ] ] } },
{ "type": "Feature", "properties": { "provincia": "Formosa", "localidad": "Pirané", "tipo": "jardin", "tiempo_medio_01": 240.0, "tiempo_medio_10": 9.924196064 }, "geometry": { "type": "Polygon", "coordinates": [ [ [ -58.987200915711441, -25.668177779374776 ], [ -58.937377084288556, -25.668177779374776 ], [ -58.937377084288556, -25.623262220625225 ], [ -58.987200915711441, -25.623262220625225 ], [ -58.987200915711441, -25.668177779374776 ] ] ] } },
{ "type": "Feature", "properties": { "provincia": "Formosa", "localidad": "Pirané", "tipo": "salud", "tiempo_medio_01": 94.09329857, "tiempo_medio_10": 10.14605472 }, "geometry": { "type": "Polygon", "coordinates": [ [ [ -59.04220091571144, -25.668177779374776 ], [ -58.992377084288556, -25.668177779374776 ], [ -58.992377084288556, -25.623262220625225 ], [ -59.04220091571144, -25.623262220625225 ], [ -59.04220091571144, -25.668177779374776 ] ] ] } },
{ "type": "Feature", "properties": { "provincia": "Jujuy", "localidad": "Palpala", "tipo": "esp_verde", "tiempo_medio_01": 13.37506496, "tiempo_medio_10": 8.296396602 }, "geometry": { "type": "Polygon", "coordinates": [ [ [ -65.206071535873548, -24.217385779374776 ], [ -65.156830464126472, -24.217385779374776 ], [ -65.156830464126472, -24.172470220625225 ], [ -65.206071535873548, -24.172470220625225 ], [ -65.206071535873548, -24.217385779374776 ] ] ] } },
{ "type": "Feature", "properties": { "provincia": "Jujuy", "localidad": "Palpala", "tipo": "jardin", "tiempo_medio_01": 240.0, "tiempo_medio_10": 15.66329258 }, "geometry": { "type": "Polygon", "coordinates": [ [ [ -65.096071535873534, -24.217385779374776 ], [ -65.046830464126458, -24.217385779374776 ], [ -65.046830464126458, -24.172470220625225 ], [ -65.096071535873534, -24.172470220625225 ], [ -65.096071535873534, -24.217385779374776 ] ] ] } },
{ "type": "Feature", "properties": { "provincia": "Jujuy", "localidad": "Palpala", "tipo": "salud", "tiempo_medio_01": 19.36965829, "tiempo_medio_10": 12.51943846 }, "geometry": { "type": "Polygon", "coordinates": [ [ [ -65.151071535873541, -24.217385779374776 ], [ -65.101830464126465, -24.217385779374776 ], [ -65.101830464126465, -24.172470220625225 ], [ -65.151071535873541, -24.172470220625225 ], [ -65.151071535873541, -24.217385779374776 ] ] ] } },
{ "type": "Feature", "properties": { "provincia": "Jujuy", "localidad": "San Pedro de Jujuy", "tipo": "esp_verde", "tiempo_medio_01": 41.28005069, "tiempo_medio_10": 2.190960985 }, "geometry": { "type": "Polygon", "coordinates": [ [ [ -64.867783826835321, -24.337623779374777 ], [ -64.818496173164689, -24.337623779374777 ], [ -64.818496173164689, -24.292708220625226 ], [ -64.867783826835321, -24.292708220625226 ], [ -64.867783826835321, -24.337623779374777 ] ] ] } },
{ "type": "Feature", "properties": { "provincia": "Jujuy", "localidad": "San Pedro de Jujuy", "tipo": "jardin", "tiempo_medio_01": 240.0, "tiempo_medio_10": 6.033645134 }, "geometry": { "type": "Polygon", "coordinates": [ [ [ -64.757783826835308, -24.337623779374777 ], [ -64.708496173164676, -24.337623779374777 ], [ -64.708496173164676, -24.292708220625226 ], [ -64.757783826835308, -24.292708220625226 ], [ -64.757783826835308, -24.337623779374777 ] ] ] } },
{ "type": "Feature", "properties": { "provincia": "Jujuy", "localidad": "San Pedro de Jujuy", "tipo": "salud", "tiempo_medio_01": 25.24680384, "tiempo_medio_10": 8.077775823 }, "geometry": { "type": "Polygon", "coordinates": [ [ [ -64.812783826835314, -24.337623779374777 ], [ -64.763496173164683, -24.337623779374777 ], [ -64.763496173164683, -24.292708220625226 ], [ -64.812783826835314, -24.292708220625226 ], [ -64.812783826835314, -24.337623779374777 ] ] ] } },
{ "type": "Feature", "properties": { "provincia": "Jujuy", "localidad": "San Salvador de Jujuy", "tipo": "esp_verde", "tiempo_medio_01": 9.789808207, "tiempo_medio_10": 10.81134814 }, "geometry": { "type": "Polygon", "coordinates": [ [ [ -65.498480431808531, -24.216846779374777 ], [ -65.449239568191473, -24.216846779374777 ], [ -65.449239568191473, -24.171931220625225 ], [ -65.498480431808531, -24.171931220625225 ], [ -65.498480431808531, -24.216846779374777 ] ] ] } },
{ "type": "Feature", "properties": { "provincia": "Jujuy", "localidad": "San Salvador de Jujuy", "tipo": "jardin", "tiempo_medio_01": 187.9259613, "tiempo_medio_10": 14.15230438 }, "geometry": { "type": "Polygon", "coordinates": [ [ [ -65.388480431808517, -24.216846779374777 ], [ -65.339239568191459, -24.216846779374777 ], [ -65.339239568191459, -24.171931220625225 ], [ -65.388480431808517, -24.171931220625225 ], [ -65.388480431808517, -24.216846779374777 ] ] ] } },
{ "type": "Feature", "properties": { "provincia": "Jujuy", "localidad": "San Salvador de Jujuy", "tipo": "salud", "tiempo_medio_01": 12.32499287, "tiempo_medio_10": 18.59362386 }, "geometry": { "type": "Polygon", "coordinates": [ [ [ -65.443480431808524, -24.216846779374777 ], [ -65.394239568191466, -24.216846779374777 ], [ -65.394239568191466, -24.171931220625225 ], [ -65.443480431808524, -24.171931220625225 ], [ -65.443480431808524, -24.216846779374777 ] ] ] } },
{ "type": "Feature", "properties": { "provincia": "La Pampa", "localidad": "General Pico", "tipo": "esp_verde", "tiempo_medio_01": 51.17954186, "tiempo_medio_10": 9.373243941 }, "geometry": { "type": "Polygon", "coordinates": [ [ [ -63.697904413532129, -35.600690779374773 ], [ -63.642679586467864, -35.600690779374773 ], [ -63.642679586467864, -35.555775220625222 ], [ -63.697904413532129, -35.555775220625222 ], [ -63.697904413532129, -35.600690779374773 ] ] ] } },
{ "type": "Feature", "properties": { "provincia": "La Pampa", "localidad": "General Pico", "tipo": "jardin", "tiempo_medio_01": 139.1516937, "tiempo_medio_10": 19.62947292 }, "geometry": { "type": "Polygon", "coordinates": [ [ [ -63.587904413532129, -35.600690779374773 ], [ -63.532679586467864, -35.600690779374773 ], [ -63.532679586467864, -35.555775220625222 ], [ -63.587904413532129, -35.555775220625222 ], [ -63.587904413532129, -35.600690779374773 ] ] ] } },
{ "type": "Feature", "properties": { "provincia": "La Pampa", "localidad": "General Pico", "tipo": "salud", "tiempo_medio_01": 61.48542894, "tiempo_medio_10": 15.29688915 }, "geometry": { "type": "Polygon", "coordinates": [ [ [ -63.642904413532129, -35.600690779374773 ], [ -63.587679586467864, -35.600690779374773 ], [ -63.587679586467864, -35.555775220625222 ], [ -63.642904413532129, -35.555775220625222 ], [ -63.642904413532129, -35.600690779374773 ] ] ] } },
{ "type": "Feature", "properties": { "provincia": "La Pampa", "localidad": "Santa Rosa", "tipo": "esp_verde", "tiempo_medio_01": 6.41294632, "tiempo_medio_10": 5.931447437 }, "geometry": { "type": "Polygon", "coordinates": [ [ [ -64.490235766398314, -36.553561779374775 ], [ -64.434338233601693, -36.553561779374775 ], [ -64.434338233601693, -36.508646220625224 ], [ -64.490235766398314, -36.508646220625224 ], [ -64.490235766398314, -36.553561779374775 ] ] ] } },
{ "type": "Feature", "properties": { "provincia": "La Pampa", "localidad": "Santa Rosa", "tipo": "jardin", "tiempo_medio_01": 240.0, "tiempo_medio_10": 24.01249523 }, "geometry": { "type": "Polygon", "coordinates": [ [ [ -64.3802357663983, -36.553561779374775 ], [ -64.324338233601679, -36.553561779374775 ], [ -64.324338233601679, -36.508646220625224 ], [ -64.3802357663983, -36.508646220625224 ], [ -64.3802357663983, -36.553561779374775 ] ] ] } },
{ "type": "Feature", "properties": { "provincia": "La Pampa", "localidad": "Santa Rosa", "tipo": "salud", "tiempo_medio_01": 11.54802295, "tiempo_medio_10": 17.71948529 }, "geometry": { "type": "Polygon", "coordinates": [ [ [ -64.435235766398307, -36.553561779374775 ], [ -64.379338233601686, -36.553561779374775 ], [ -64.379338233601686, -36.508646220625224 ], [ -64.435235766398307, -36.508646220625224 ], [ -64.435235766398307, -36.553561779374775 ] ] ] } },
{ "type": "Feature", "properties": { "provincia": "La Pampa", "localidad": "Toay", "tipo": "esp_verde", "tiempo_medio_01": 9.827036847, "tiempo_medio_10": 79.85422877000001 }, "geometry": { "type": "Polygon", "coordinates": [ [ [ -64.805519385013952, -36.704146779374774 ], [ -64.74951261498606, -36.704146779374774 ], [ -64.74951261498606, -36.659231220625223 ], [ -64.805519385013952, -36.659231220625223 ], [ -64.805519385013952, -36.704146779374774 ] ] ] } },
{ "type": "Feature", "properties": { "provincia": "La Pampa", "localidad": "Toay", "tipo": "jardin", "tiempo_medio_01": 240.0, "tiempo_medio_10": 240.0 }, "geometry": { "type": "Polygon", "coordinates": [ [ [ -64.695519385013938, -36.704146779374774 ], [ -64.639512614986046, -36.704146779374774 ], [ -64.639512614986046, -36.659231220625223 ], [ -64.695519385013938, -36.659231220625223 ], [ -64.695519385013938, -36.704146779374774 ] ] ] } },
{ "type": "Feature", "properties": { "provincia": "La Pampa", "localidad": "Toay", "tipo": "salud", "tiempo_medio_01": 12.15741044, "tiempo_medio_10": 108.9975563 }, "geometry": { "type": "Polygon", "coordinates": [ [ [ -64.750519385013945, -36.704146779374774 ], [ -64.694512614986053, -36.704146779374774 ], [ -64.694512614986053, -36.659231220625223 ], [ -64.750519385013945, -36.659231220625223 ], [ -64.750519385013945, -36.704146779374774 ] ] ] } },
{ "type": "Feature", "properties": { "provincia": "La Rioja", "localidad": "Arauco", "tipo": "esp_verde", "tiempo_medio_01": 108.5220486, "tiempo_medio_10": 6.953407407 }, "geometry": { "type": "Polygon", "coordinates": [ [ [ -66.800256457331542, -28.555066779374776 ], [ -66.749131542668479, -28.555066779374776 ], [ -66.749131542668479, -28.510151220625225 ], [ -66.800256457331542, -28.510151220625225 ], [ -66.800256457331542, -28.555066779374776 ] ] ] } },
{ "type": "Feature", "properties": { "provincia": "La Rioja", "localidad": "Arauco", "tipo": "jardin", "tiempo_medio_01": 240.0, "tiempo_medio_10": 26.95740741 }, "geometry": { "type": "Polygon", "coordinates": [ [ [ -66.690256457331529, -28.555066779374776 ], [ -66.639131542668466, -28.555066779374776 ], [ -66.639131542668466, -28.510151220625225 ], [ -66.690256457331529, -28.510151220625225 ], [ -66.690256457331529, -28.555066779374776 ] ] ] } },
{ "type": "Feature", "properties": { "provincia": "La Rioja", "localidad": "Arauco", "tipo": "salud", "tiempo_medio_01": 87.35776929, "tiempo_medio_10": 19.51118519 }, "geometry": { "type": "Polygon", "coordinates": [ [ [ -66.745256457331536, -28.555066779374776 ], [ -66.694131542668472, -28.555066779374776 ], [ -66.694131542668472, -28.510151220625225 ], [ -66.745256457331536, -28.510151220625225 ], [ -66.745256457331536, -28.555066779374776 ] ] ] } },
{ "type": "Feature", "properties": { "provincia": "La Rioja", "localidad": "La Rioja", "tipo": "esp_verde", "tiempo_medio_01": 112.1001804, "tiempo_medio_10": 3.603487131 }, "geometry": { "type": "Polygon", "coordinates": [ [ [ -66.433762865565072, -29.482681779374776 ], [ -66.38217713443494, -29.482681779374776 ], [ -66.38217713443494, -29.437766220625225 ], [ -66.433762865565072, -29.437766220625225 ], [ -66.433762865565072, -29.482681779374776 ] ] ] } },
{ "type": "Feature", "properties": { "provincia": "La Rioja", "localidad": "La Rioja", "tipo": "jardin", "tiempo_medio_01": 240.0, "tiempo_medio_10": 20.79846993 }, "geometry": { "type": "Polygon", "coordinates": [ [ [ -66.323762865565058, -29.482681779374776 ], [ -66.272177134434926, -29.482681779374776 ], [ -66.272177134434926, -29.437766220625225 ], [ -66.323762865565058, -29.437766220625225 ], [ -66.323762865565058, -29.482681779374776 ] ] ] } },
{ "type": "Feature", "properties": { "provincia": "La Rioja", "localidad": "La Rioja", "tipo": "salud", "tiempo_medio_01": 240.0, "tiempo_medio_10": 17.23983157 }, "geometry": { "type": "Polygon", "coordinates": [ [ [ -66.378762865565065, -29.482681779374776 ], [ -66.327177134434933, -29.482681779374776 ], [ -66.327177134434933, -29.437766220625225 ], [ -66.378762865565065, -29.437766220625225 ], [ -66.378762865565065, -29.482681779374776 ] ] ] } },
{ "type": "Feature", "properties": { "provincia": "La Rioja", "localidad": "Chilecito", "tipo": "esp_verde", "tiempo_medio_01": 15.96142864, "tiempo_medio_10": 4.041148365 }, "geometry": { "type": "Polygon", "coordinates": [ [ [ -67.50941652358101, -29.418309779374777 ], [ -67.457863476419007, -29.418309779374777 ], [ -67.457863476419007, -29.373394220625226 ], [ -67.50941652358101, -29.373394220625226 ], [ -67.50941652358101, -29.418309779374777 ] ] ] } },
{ "type": "Feature", "properties": { "provincia": "La Rioja", "localidad": "Chilecito", "tipo": "jardin", "tiempo_medio_01": 240.0, "tiempo_medio_10": 21.04673442 }, "geometry": { "type": "Polygon", "coordinates": [ [ [ -67.399416523580996, -29.418309779374777 ], [ -67.347863476418993, -29.418309779374777 ], [ -67.347863476418993, -29.373394220625226 ], [ -67.399416523580996, -29.373394220625226 ], [ -67.399416523580996, -29.418309779374777 ] ] ] } },
{ "type": "Feature", "properties": { "provincia": "La Rioja", "localidad": "Chilecito", "tipo": "salud", "tiempo_medio_01": 27.90580618, "tiempo_medio_10": 8.928874686 }, "geometry": { "type": "Polygon", "coordinates": [ [ [ -67.454416523581003, -29.418309779374777 ], [ -67.402863476419, -29.418309779374777 ], [ -67.402863476419, -29.373394220625226 ], [ -67.454416523581003, -29.373394220625226 ], [ -67.454416523581003, -29.418309779374777 ] ] ] } },
{ "type": "Feature", "properties": { "provincia": "Mendoza", "localidad": "Guaymallén", "tipo": "esp_verde", "tiempo_medio_01": 12.76571803, "tiempo_medio_10": 5.159563986 }, "geometry": { "type": "Polygon", "coordinates": [ [ [ -68.936010534993798, -32.889055240490102 ], [ -68.882520143598512, -32.889055240490102 ], [ -68.882520143598512, -32.84413968174055 ], [ -68.936010534993798, -32.84413968174055 ], [ -68.936010534993798, -32.889055240490102 ] ] ] } },
{ "type": "Feature", "properties": { "provincia": "Mendoza", "localidad": "Guaymallén", "tipo": "jardin", "tiempo_medio_01": 240.0, "tiempo_medio_10": 17.81524174 }, "geometry": { "type": "Polygon", "coordinates": [ [ [ -68.826010534993785, -32.889055240490102 ], [ -68.772520143598499, -32.889055240490102 ], [ -68.772520143598499, -32.84413968174055 ], [ -68.826010534993785, -32.84413968174055 ], [ -68.826010534993785, -32.889055240490102 ] ] ] } },
{ "type": "Feature", "properties": { "provincia": "Mendoza", "localidad": "Guaymallén", "tipo": "salud", "tiempo_medio_01": 22.08733639, "tiempo_medio_10": 17.84489193 }, "geometry": { "type": "Polygon", "coordinates": [ [ [ -68.881010534993791, -32.889055240490102 ], [ -68.827520143598505, -32.889055240490102 ], [ -68.827520143598505, -32.84413968174055 ], [ -68.881010534993791, -32.84413968174055 ], [ -68.881010534993791, -32.889055240490102 ] ] ] } },
{ "type": "Feature", "properties": { "provincia": "Mendoza", "localidad": "Las Heras", "tipo": "esp_verde", "tiempo_medio_01": 42.63302618, "tiempo_medio_10": 6.591596759 }, "geometry": { "type": "Polygon", "coordinates": [ [ [ -69.356762285737418, -32.540494779374775 ], [ -69.30349571426261, -32.540494779374775 ], [ -69.30349571426261, -32.495579220625224 ], [ -69.356762285737418, -32.495579220625224 ], [ -69.356762285737418, -32.540494779374775 ] ] ] } },
{ "type": "Feature", "properties": { "provincia": "Mendoza", "localidad": "Las Heras", "tipo": "jardin", "tiempo_medio_01": 240.0, "tiempo_medio_10": 25.07849073 }, "geometry": { "type": "Polygon", "coordinates": [ [ [ -69.246762285737404, -32.540494779374775 ], [ -69.193495714262596, -32.540494779374775 ], [ -69.193495714262596, -32.495579220625224 ], [ -69.246762285737404, -32.495579220625224 ], [ -69.246762285737404, -32.540494779374775 ] ] ] } },
{ "type": "Feature", "properties": { "provincia": "Mendoza", "localidad": "Las Heras", "tipo": "salud", "tiempo_medio_01": 21.18610273, "tiempo_medio_10": 20.73773406 }, "geometry": { "type": "Polygon", "coordinates": [ [ [ -69.301762285737411, -32.540494779374775 ], [ -69.248495714262603, -32.540494779374775 ], [ -69.248495714262603, -32.495579220625224 ], [ -69.301762285737411, -32.495579220625224 ], [ -69.301762285737411, -32.540494779374775 ] ] ] } },
{ "type": "Feature", "properties": { "provincia": "Mendoza", "localidad": "Maipú", "tipo": "esp_verde", "tiempo_medio_01": 46.69720167, "tiempo_medio_10": 3.452478462 }, "geometry": { "type": "Polygon", "coordinates": [ [ [ -68.817930365520553, -33.01839713450201 ], [ -68.764380749411785, -33.01839713450201 ], [ -68.764380749411785, -32.973481575752459 ], [ -68.817930365520553, -32.973481575752459 ], [ -68.817930365520553, -33.01839713450201 ] ] ] } },
{ "type": "Feature", "properties": { "provincia": "Mendoza", "localidad": "Maipú", "tipo": "jardin", "tiempo_medio_01": 240.0, "tiempo_medio_10": 16.84702839 }, "geometry": { "type": "Polygon", "coordinates": [ [ [ -68.707930365520539, -33.01839713450201 ], [ -68.654380749411771, -33.01839713450201 ], [ -68.654380749411771, -32.973481575752459 ], [ -68.707930365520539, -32.973481575752459 ], [ -68.707930365520539, -33.01839713450201 ] ] ] } },
{ "type": "Feature", "properties": { "provincia": "Mendoza", "localidad": "Maipú", "tipo": "salud", "tiempo_medio_01": 46.94073447, "tiempo_medio_10": 16.15817539 }, "geometry": { "type": "Polygon", "coordinates": [ [ [ -68.762930365520546, -33.01839713450201 ], [ -68.709380749411778, -33.01839713450201 ], [ -68.709380749411778, -32.973481575752459 ], [ -68.762930365520546, -32.973481575752459 ], [ -68.762930365520546, -33.01839713450201 ] ] ] } },
{ "type": "Feature", "properties": { "provincia": "Misiones", "localidad": "Eldorado", "tipo": "esp_verde", "tiempo_medio_01": 18.56714237, "tiempo_medio_10": 2.93070959 }, "geometry": { "type": "Polygon", "coordinates": [ [ [ -54.69511042298236, -26.444869779374777 ], [ -54.644955577017633, -26.444869779374777 ], [ -54.644955577017633, -26.399954220625226 ], [ -54.69511042298236, -26.399954220625226 ], [ -54.69511042298236, -26.444869779374777 ] ] ] } },
{ "type": "Feature", "properties": { "provincia": "Misiones", "localidad": "Eldorado", "tipo": "jardin", "tiempo_medio_01": 240.0, "tiempo_medio_10": 177.2599897 }, "geometry": { "type": "Polygon", "coordinates": [ [ [ -54.58511042298236, -26.444869779374777 ], [ -54.534955577017634, -26.444869779374777 ], [ -54.534955577017634, -26.399954220625226 ], [ -54.58511042298236, -26.399954220625226 ], [ -54.58511042298236, -26.444869779374777 ] ] ] } },
{ "type": "Feature", "properties": { "provincia": "Misiones", "localidad": "Eldorado", "tipo": "salud", "tiempo_medio_01": 30.76322749, "tiempo_medio_10": 14.19879737 }, "geometry": { "type": "Polygon", "coordinates": [ [ [ -54.64011042298236, -26.444869779374777 ], [ -54.589955577017633, -26.444869779374777 ], [ -54.589955577017633, -26.399954220625226 ], [ -54.64011042298236, -26.399954220625226 ], [ -54.64011042298236, -26.444869779374777 ] ] ] } },
{ "type": "Feature", "properties": { "provincia": "Misiones", "localidad": "Oberá", "tipo": "esp_verde", "tiempo_medio_01": 13.23908485, "tiempo_medio_10": 4.216223095 }, "geometry": { "type": "Polygon", "coordinates": [ [ [ -55.198620589860695, -27.474992779374777 ], [ -55.148005410139305, -27.474992779374777 ], [ -55.148005410139305, -27.430077220625225 ], [ -55.198620589860695, -27.430077220625225 ], [ -55.198620589860695, -27.474992779374777 ] ] ] } },
{ "type": "Feature", "properties": { "provincia": "Misiones", "localidad": "Oberá", "tipo": "jardin", "tiempo_medio_01": 240.0, "tiempo_medio_10": 8.665468056 }, "geometry": { "type": "Polygon", "coordinates": [ [ [ -55.088620589860696, -27.474992779374777 ], [ -55.038005410139306, -27.474992779374777 ], [ -55.038005410139306, -27.430077220625225 ], [ -55.088620589860696, -27.430077220625225 ], [ -55.088620589860696, -27.474992779374777 ] ] ] } },
{ "type": "Feature", "properties": { "provincia": "Misiones", "localidad": "Oberá", "tipo": "salud", "tiempo_medio_01": 16.50527567, "tiempo_medio_10": 12.03099761 }, "geometry": { "type": "Polygon", "coordinates": [ [ [ -55.143620589860696, -27.474992779374777 ], [ -55.093005410139305, -27.474992779374777 ], [ -55.093005410139305, -27.430077220625225 ], [ -55.143620589860696, -27.430077220625225 ], [ -55.143620589860696, -27.474992779374777 ] ] ] } },
{ "type": "Feature", "properties": { "provincia": "Misiones", "localidad": "Posadas", "tipo": "esp_verde", "tiempo_medio_01": 14.66503826, "tiempo_medio_10": 2.836608415 }, "geometry": { "type": "Polygon", "coordinates": [ [ [ -56.039395246056834, -27.456053779374777 ], [ -55.988788753943162, -27.456053779374777 ], [ -55.988788753943162, -27.411138220625226 ], [ -56.039395246056834, -27.411138220625226 ], [ -56.039395246056834, -27.456053779374777 ] ] ] } },
{ "type": "Feature", "properties": { "provincia": "Misiones", "localidad": "Posadas", "tipo": "jardin", "tiempo_medio_01": 240.0, "tiempo_medio_10": 7.480388664 }, "geometry": { "type": "Polygon", "coordinates": [ [ [ -55.929395246056835, -27.456053779374777 ], [ -55.878788753943162, -27.456053779374777 ], [ -55.878788753943162, -27.411138220625226 ], [ -55.929395246056835, -27.411138220625226 ], [ -55.929395246056835, -27.456053779374777 ] ] ] } },
{ "type": "Feature", "properties": { "provincia": "Misiones", "localidad": "Posadas", "tipo": "salud", "tiempo_medio_01": 11.98316853, "tiempo_medio_10": 8.406526093 }, "geometry": { "type": "Polygon", "coordinates": [ [ [ -55.984395246056835, -27.456053779374777 ], [ -55.933788753943162, -27.456053779374777 ], [ -55.933788753943162, -27.411138220625226 ], [ -55.984395246056835, -27.411138220625226 ], [ -55.984395246056835, -27.456053779374777 ] ] ] } },
{ "type": "Feature", "properties": { "provincia": "Neuquén", "localidad": "Centenario", "tipo": "esp_verde", "tiempo_medio_01": 38.85956074, "tiempo_medio_10": 17.27517218 }, "geometry": { "type": "Polygon", "coordinates": [ [ [ -68.211020584652445, -38.852462732574558 ], [ -68.153389614936131, -38.852462732574558 ], [ -68.153389614936131, -38.807547173825007 ], [ -68.211020584652445, -38.807547173825007 ], [ -68.211020584652445, -38.852462732574558 ] ] ] } },
{ "type": "Feature", "properties": { "provincia": "Neuquén", "localidad": "Centenario", "tipo": "jardin", "tiempo_medio_01": 240.0, "tiempo_medio_10": 16.81438232 }, "geometry": { "type": "Polygon", "coordinates": [ [ [ -68.101020584652431, -38.852462732574558 ], [ -68.043389614936117, -38.852462732574558 ], [ -68.043389614936117, -38.807547173825007 ], [ -68.101020584652431, -38.807547173825007 ], [ -68.101020584652431, -38.852462732574558 ] ] ] } },
{ "type": "Feature", "properties": { "provincia": "Neuquén", "localidad": "Centenario", "tipo": "salud", "tiempo_medio_01": 14.32850067, "tiempo_medio_10": 17.87803273 }, "geometry": { "type": "Polygon", "coordinates": [ [ [ -68.156020584652438, -38.852462732574558 ], [ -68.098389614936124, -38.852462732574558 ], [ -68.098389614936124, -38.807547173825007 ], [ -68.156020584652438, -38.807547173825007 ], [ -68.156020584652438, -38.852462732574558 ] ] ] } },
{ "type": "Feature", "properties": { "provincia": "Neuquén", "localidad": "Neuquén", "tipo": "esp_verde", "tiempo_medio_01": 43.41632164, "tiempo_medio_10": 5.840927176 }, "geometry": { "type": "Polygon", "coordinates": [ [ [ -68.126580208700474, -38.981055218465194 ], [ -68.068878520828505, -38.981055218465194 ], [ -68.068878520828505, -38.936139659715643 ], [ -68.126580208700474, -38.936139659715643 ], [ -68.126580208700474, -38.981055218465194 ] ] ] } },
{ "type": "Feature", "properties": { "provincia": "Neuquén", "localidad": "Neuquén", "tipo": "jardin", "tiempo_medio_01": 240.0, "tiempo_medio_10": 28.06964023 }, "geometry": { "type": "Polygon", "coordinates": [ [ [ -68.016580208700461, -38.981055218465194 ], [ -67.958878520828492, -38.981055218465194 ], [ -67.958878520828492, -38.936139659715643 ], [ -68.016580208700461, -38.936139659715643 ], [ -68.016580208700461, -38.981055218465194 ] ] ] } },
{ "type": "Feature", "properties": { "provincia": "Neuquén", "localidad": "Neuquén", "tipo": "salud", "tiempo_medio_01": 17.00374382, "tiempo_medio_10": 19.18506376 }, "geometry": { "type": "Polygon", "coordinates": [ [ [ -68.071580208700468, -38.981055218465194 ], [ -68.013878520828499, -38.981055218465194 ], [ -68.013878520828499, -38.936139659715643 ], [ -68.071580208700468, -38.936139659715643 ], [ -68.071580208700468, -38.981055218465194 ] ] ] } },
{ "type": "Feature", "properties": { "provincia": "Neuquén", "localidad": "Plottier", "tipo": "esp_verde", "tiempo_medio_01": 11.8929319, "tiempo_medio_10": 24.1215141 }, "geometry": { "type": "Polygon", "coordinates": [ [ [ -68.362260830251941, -38.980836371253496 ], [ -68.304507288123844, -38.980836371253496 ], [ -68.304507288123844, -38.935920812503944 ], [ -68.362260830251941, -38.935920812503944 ], [ -68.362260830251941, -38.980836371253496 ] ] ] } },
{ "type": "Feature", "properties": { "provincia": "Neuquén", "localidad": "Plottier", "tipo": "jardin", "tiempo_medio_01": 181.5092998, "tiempo_medio_10": 240.0 }, "geometry": { "type": "Polygon", "coordinates": [ [ [ -68.252260830251927, -38.980836371253496 ], [ -68.19450728812383, -38.980836371253496 ], [ -68.19450728812383, -38.935920812503944 ], [ -68.252260830251927, -38.935920812503944 ], [ -68.252260830251927, -38.980836371253496 ] ] ] } },
{ "type": "Feature", "properties": { "provincia": "Neuquén", "localidad": "Plottier", "tipo": "salud", "tiempo_medio_01": 17.81375394, "tiempo_medio_10": 39.15815363 }, "geometry": { "type": "Polygon", "coordinates": [ [ [ -68.307260830251934, -38.980836371253496 ], [ -68.249507288123837, -38.980836371253496 ], [ -68.249507288123837, -38.935920812503944 ], [ -68.307260830251934, -38.935920812503944 ], [ -68.307260830251934, -38.980836371253496 ] ] ] } },
{ "type": "Feature", "properties": { "provincia": "Río Negro", "localidad": "Cipolletti", "tipo": "esp_verde", "tiempo_medio_01": 92.68535185, "tiempo_medio_10": 3.247859554 }, "geometry": { "type": "Polygon", "coordinates": [ [ [ -68.78286246940452, -39.479253779374773 ], [ -68.724689530595484, -39.479253779374773 ], [ -68.724689530595484, -39.434338220625222 ], [ -68.78286246940452, -39.434338220625222 ], [ -68.78286246940452, -39.479253779374773 ] ] ] } },
{ "type": "Feature", "properties": { "provincia": "Río Negro", "localidad": "Cipolletti", "tipo": "jardin", "tiempo_medio_01": 240.0, "tiempo_medio_10": 13.7962461 }, "geometry": { "type": "Polygon", "coordinates": [ [ [ -68.672862469404507, -39.479253779374773 ], [ -68.61468953059547, -39.479253779374773 ], [ -68.61468953059547, -39.434338220625222 ], [ -68.672862469404507, -39.434338220625222 ], [ -68.672862469404507, -39.479253779374773 ] ] ] } },
{ "type": "Feature", "properties": { "provincia": "Río Negro", "localidad": "Cipolletti", "tipo": "salud", "tiempo_medio_01": 98.58244297, "tiempo_medio_10": 16.74581267 }, "geometry": { "type": "Polygon", "coordinates": [ [ [ -68.727862469404513, -39.479253779374773 ], [ -68.669689530595477, -39.479253779374773 ], [ -68.669689530595477, -39.434338220625222 ], [ -68.727862469404513, -39.434338220625222 ], [ -68.727862469404513, -39.479253779374773 ] ] ] } },
{ "type": "Feature", "properties": { "provincia": "Río Negro", "localidad": "General Roca", "tipo": "esp_verde", "tiempo_medio_01": 14.74165012, "tiempo_medio_10": 3.761467403 }, "geometry": { "type": "Polygon", "coordinates": [ [ [ -67.702291107583392, -39.033093779374774 ], [ -67.644486892416609, -39.033093779374774 ], [ -67.644486892416609, -38.988178220625223 ], [ -67.702291107583392, -38.988178220625223 ], [ -67.702291107583392, -39.033093779374774 ] ] ] } },
{ "type": "Feature", "properties": { "provincia": "Río Negro", "localidad": "General Roca", "tipo": "jardin", "tiempo_medio_01": 11.94866467, "tiempo_medio_10": 240.0 }, "geometry": { "type": "Polygon", "coordinates": [ [ [ -67.592291107583378, -39.033093779374774 ], [ -67.534486892416595, -39.033093779374774 ], [ -67.534486892416595, -38.988178220625223 ], [ -67.592291107583378, -38.988178220625223 ], [ -67.592291107583378, -39.033093779374774 ] ] ] } },
{ "type": "Feature", "properties": { "provincia": "Río Negro", "localidad": "General Roca", "tipo": "salud", "tiempo_medio_01": 10.84606096, "tiempo_medio_10": 19.84900854 }, "geometry": { "type": "Polygon", "coordinates": [ [ [ -67.647291107583385, -39.033093779374774 ], [ -67.589486892416602, -39.033093779374774 ], [ -67.589486892416602, -38.988178220625223 ], [ -67.647291107583385, -38.988178220625223 ], [ -67.647291107583385, -39.033093779374774 ] ] ] } },
{ "type": "Feature", "properties": { "provincia": "Río Negro", "localidad": "San Carlos De Bariloche", "tipo": "esp_verde", "tiempo_medio_01": 12.83695596, "tiempo_medio_10": 12.86549188 }, "geometry": { "type": "Polygon", "coordinates": [ [ [ -71.708033385457213, -40.997048779374772 ], [ -71.648542614542805, -40.997048779374772 ], [ -71.648542614542805, -40.952133220625221 ], [ -71.708033385457213, -40.952133220625221 ], [ -71.708033385457213, -40.997048779374772 ] ] ] } },
{ "type": "Feature", "properties": { "provincia": "Río Negro", "localidad": "San Carlos De Bariloche", "tipo": "jardin", "tiempo_medio_01": 15.34588283, "tiempo_medio_10": 240.0 }, "geometry": { "type": "Polygon", "coordinates": [ [ [ -71.5980333854572, -40.997048779374772 ], [ -71.538542614542791, -40.997048779374772 ], [ -71.538542614542791, -40.952133220625221 ], [ -71.5980333854572, -40.952133220625221 ], [ -71.5980333854572, -40.997048779374772 ] ] ] } },
{ "type": "Feature", "properties": { "provincia": "Río Negro", "localidad": "San Carlos De Bariloche", "tipo": "salud", "tiempo_medio_01": 9.217106679, "tiempo_medio_10": 27.6187129 }, "geometry": { "type": "Polygon", "coordinates": [ [ [ -71.653033385457206, -40.997048779374772 ], [ -71.593542614542798, -40.997048779374772 ], [ -71.593542614542798, -40.952133220625221 ], [ -71.653033385457206, -40.952133220625221 ], [ -71.653033385457206, -40.997048779374772 ] ] ] } },
{ "type": "Feature", "properties": { "provincia": "Salta", "localidad": "Salta", "tipo": "esp_verde", "tiempo_medio_01": 9.972420205000001, "tiempo_medio_10": 5.839967399 }, "geometry": { "type": "Polygon", "coordinates": [ [ [ -65.314899089035663, -24.931349779374777 ], [ -65.265376910964363, -24.931349779374777 ], [ -65.265376910964363, -24.886434220625226 ], [ -65.314899089035663, -24.886434220625226 ], [ -65.314899089035663, -24.931349779374777 ] ] ] } },
{ "type": "Feature", "properties": { "provincia": "Salta", "localidad": "Salta", "tipo": "jardin", "tiempo_medio_01": 183.2084324, "tiempo_medio_10": 238.3945803 }, "geometry": { "type": "Polygon", "coordinates": [ [ [ -65.204899089035649, -24.931349779374777 ], [ -65.15537691096435, -24.931349779374777 ], [ -65.15537691096435, -24.886434220625226 ], [ -65.204899089035649, -24.886434220625226 ], [ -65.204899089035649, -24.931349779374777 ] ] ] } },
{ "type": "Feature", "properties": { "provincia": "Salta", "localidad": "Salta", "tipo": "salud", "tiempo_medio_01": 12.1527564, "tiempo_medio_10": 18.45652931 }, "geometry": { "type": "Polygon", "coordinates": [ [ [ -65.259899089035656, -24.931349779374777 ], [ -65.210376910964357, -24.931349779374777 ], [ -65.210376910964357, -24.886434220625226 ], [ -65.259899089035656, -24.886434220625226 ], [ -65.259899089035656, -24.931349779374777 ] ] ] } },
{ "type": "Feature", "properties": { "provincia": "Salta", "localidad": "San Ramón De La Nueva Orán", "tipo": "esp_verde", "tiempo_medio_01": 121.9273816, "tiempo_medio_10": 6.835084612 }, "geometry": { "type": "Polygon", "coordinates": [ [ [ -64.686555065802153, -23.115297779374774 ], [ -64.637726934197858, -23.115297779374774 ], [ -64.637726934197858, -23.070382220625223 ], [ -64.686555065802153, -23.070382220625223 ], [ -64.686555065802153, -23.115297779374774 ] ] ] } },
{ "type": "Feature", "properties": { "provincia": "Salta", "localidad": "San Ramón De La Nueva Orán", "tipo": "jardin", "tiempo_medio_01": 77.7346668, "tiempo_medio_10": 20.10672413 }, "geometry": { "type": "Polygon", "coordinates": [ [ [ -64.57655506580214, -23.115297779374774 ], [ -64.527726934197844, -23.115297779374774 ], [ -64.527726934197844, -23.070382220625223 ], [ -64.57655506580214, -23.070382220625223 ], [ -64.57655506580214, -23.115297779374774 ] ] ] } },
{ "type": "Feature", "properties": { "provincia": "Salta", "localidad": "San Ramón De La Nueva Orán", "tipo": "salud", "tiempo_medio_01": 62.99359534, "tiempo_medio_10": 11.20609046 }, "geometry": { "type": "Polygon", "coordinates": [ [ [ -64.631555065802146, -23.115297779374774 ], [ -64.582726934197851, -23.115297779374774 ], [ -64.582726934197851, -23.070382220625223 ], [ -64.631555065802146, -23.070382220625223 ], [ -64.631555065802146, -23.115297779374774 ] ] ] } },
{ "type": "Feature", "properties": { "provincia": "Salta", "localidad": "Tartagal", "tipo": "esp_verde", "tiempo_medio_01": 240.0, "tiempo_medio_10": 6.355603416 }, "geometry": { "type": "Polygon", "coordinates": [ [ [ -63.531268661583702, -22.542569779374777 ], [ -63.482645338416297, -22.542569779374777 ], [ -63.482645338416297, -22.497654220625225 ], [ -63.531268661583702, -22.497654220625225 ], [ -63.531268661583702, -22.542569779374777 ] ] ] } },
{ "type": "Feature", "properties": { "provincia": "Salta", "localidad": "Tartagal", "tipo": "jardin", "tiempo_medio_01": 240.0, "tiempo_medio_10": 240.0 }, "geometry": { "type": "Polygon", "coordinates": [ [ [ -63.421268661583703, -22.542569779374777 ], [ -63.372645338416298, -22.542569779374777 ], [ -63.372645338416298, -22.497654220625225 ], [ -63.421268661583703, -22.497654220625225 ], [ -63.421268661583703, -22.542569779374777 ] ] ] } },
{ "type": "Feature", "properties": { "provincia": "Salta", "localidad": "Tartagal", "tipo": "salud", "tiempo_medio_01": 240.0, "tiempo_medio_10": 14.82739658 }, "geometry": { "type": "Polygon", "coordinates": [ [ [ -63.476268661583703, -22.542569779374777 ], [ -63.427645338416298, -22.542569779374777 ], [ -63.427645338416298, -22.497654220625225 ], [ -63.476268661583703, -22.497654220625225 ], [ -63.476268661583703, -22.542569779374777 ] ] ] } },
{ "type": "Feature", "properties": { "provincia": "San Juan", "localidad": "San Juan", "tipo": "esp_verde", "tiempo_medio_01": 6.452492236, "tiempo_medio_10": 4.614239445 }, "geometry": { "type": "Polygon", "coordinates": [ [ [ -68.557510077629658, -31.580833158491473 ], [ -68.504813218278869, -31.580833158491473 ], [ -68.504813218278869, -31.535917599741921 ], [ -68.557510077629658, -31.535917599741921 ], [ -68.557510077629658, -31.580833158491473 ] ] ] } },
{ "type": "Feature", "properties": { "provincia": "San Juan", "localidad": "San Juan", "tipo": "jardin", "tiempo_medio_01": 240.0, "tiempo_medio_10": 11.63365385 }, "geometry": { "type": "Polygon", "coordinates": [ [ [ -68.447510077629644, -31.580833158491473 ], [ -68.394813218278856, -31.580833158491473 ], [ -68.394813218278856, -31.535917599741921 ], [ -68.447510077629644, -31.535917599741921 ], [ -68.447510077629644, -31.580833158491473 ] ] ] } },
{ "type": "Feature", "properties": { "provincia": "San Juan", "localidad": "San Juan", "tipo": "salud", "tiempo_medio_01": 10.05092587, "tiempo_medio_10": 15.91592973 }, "geometry": { "type": "Polygon", "coordinates": [ [ [ -68.502510077629651, -31.580833158491473 ], [ -68.449813218278862, -31.580833158491473 ], [ -68.449813218278862, -31.535917599741921 ], [ -68.502510077629651, -31.535917599741921 ], [ -68.502510077629651, -31.580833158491473 ] ] ] } },
{ "type": "Feature", "properties": { "provincia": "San Juan", "localidad": "Chimbas", "tipo": "esp_verde", "tiempo_medio_01": 14.9312429, "tiempo_medio_10": 2.822932686 }, "geometry": { "type": "Polygon", "coordinates": [ [ [ -68.681819443474865, -31.496336790976606 ], [ -68.62914802658463, -31.496336790976606 ], [ -68.62914802658463, -31.451421232227055 ], [ -68.681819443474865, -31.451421232227055 ], [ -68.681819443474865, -31.496336790976606 ] ] ] } },
{ "type": "Feature", "properties": { "provincia": "San Juan", "localidad": "Chimbas", "tipo": "jardin", "tiempo_medio_01": 240.0, "tiempo_medio_10": 13.3197895 }, "geometry": { "type": "Polygon", "coordinates": [ [ [ -68.571819443474851, -31.496336790976606 ], [ -68.519148026584617, -31.496336790976606 ], [ -68.519148026584617, -31.451421232227055 ], [ -68.571819443474851, -31.451421232227055 ], [ -68.571819443474851, -31.496336790976606 ] ] ] } },
{ "type": "Feature", "properties": { "provincia": "San Juan", "localidad": "Chimbas", "tipo": "salud", "tiempo_medio_01": 20.95028071, "tiempo_medio_10": 15.54667453 }, "geometry": { "type": "Polygon", "coordinates": [ [ [ -68.626819443474858, -31.496336790976606 ], [ -68.574148026584623, -31.496336790976606 ], [ -68.574148026584623, -31.451421232227055 ], [ -68.626819443474858, -31.451421232227055 ], [ -68.626819443474858, -31.496336790976606 ] ] ] } },
{ "type": "Feature", "properties": { "provincia": "San Juan", "localidad": "Rawson", "tipo": "esp_verde", "tiempo_medio_01": 13.70009284, "tiempo_medio_10": 2.751254774 }, "geometry": { "type": "Polygon", "coordinates": [ [ [ -68.533917726992868, -31.724980166226029 ], [ -68.481133897757715, -31.724980166226029 ], [ -68.481133897757715, -31.680064607476478 ], [ -68.533917726992868, -31.680064607476478 ], [ -68.533917726992868, -31.724980166226029 ] ] ] } },
{ "type": "Feature", "properties": { "provincia": "San Juan", "localidad": "Rawson", "tipo": "jardin", "tiempo_medio_01": 240.0, "tiempo_medio_10": 33.14735572 }, "geometry": { "type": "Polygon", "coordinates": [ [ [ -68.423917726992855, -31.724980166226029 ], [ -68.371133897757701, -31.724980166226029 ], [ -68.371133897757701, -31.680064607476478 ], [ -68.423917726992855, -31.680064607476478 ], [ -68.423917726992855, -31.724980166226029 ] ] ] } },
{ "type": "Feature", "properties": { "provincia": "San Juan", "localidad": "Rawson", "tipo": "salud", "tiempo_medio_01": 19.12126717, "tiempo_medio_10": 22.96185948 }, "geometry": { "type": "Polygon", "coordinates": [ [ [ -68.478917726992862, -31.724980166226029 ], [ -68.426133897757708, -31.724980166226029 ], [ -68.426133897757708, -31.680064607476478 ], [ -68.478917726992862, -31.680064607476478 ], [ -68.478917726992862, -31.724980166226029 ] ] ] } },
{ "type": "Feature", "properties": { "provincia": "San Luis", "localidad": "San Luis", "tipo": "esp_verde", "tiempo_medio_01": 24.8434137, "tiempo_medio_10": 6.769911028 }, "geometry": { "type": "Polygon", "coordinates": [ [ [ -66.425354646260416, -33.325970779374778 ], [ -66.371613353739605, -33.325970779374778 ], [ -66.371613353739605, -33.281055220625227 ], [ -66.425354646260416, -33.281055220625227 ], [ -66.425354646260416, -33.325970779374778 ] ] ] } },
{ "type": "Feature", "properties": { "provincia": "San Luis", "localidad": "San Luis", "tipo": "jardin", "tiempo_medio_01": 36.55673059, "tiempo_medio_10": 9.829059338 }, "geometry": { "type": "Polygon", "coordinates": [ [ [ -66.315354646260403, -33.325970779374778 ], [ -66.261613353739591, -33.325970779374778 ], [ -66.261613353739591, -33.281055220625227 ], [ -66.315354646260403, -33.281055220625227 ], [ -66.315354646260403, -33.325970779374778 ] ] ] } },
{ "type": "Feature", "properties": { "provincia": "San Luis", "localidad": "San Luis", "tipo": "salud", "tiempo_medio_01": 36.99357161, "tiempo_medio_10": 15.90652364 }, "geometry": { "type": "Polygon", "coordinates": [ [ [ -66.370354646260409, -33.325970779374778 ], [ -66.316613353739598, -33.325970779374778 ], [ -66.316613353739598, -33.281055220625227 ], [ -66.370354646260409, -33.281055220625227 ], [ -66.370354646260409, -33.325970779374778 ] ] ] } },
{ "type": "Feature", "properties": { "provincia": "San Luis", "localidad": "Villa Mercedes", "tipo": "esp_verde", "tiempo_medio_01": 12.58592044, "tiempo_medio_10": 6.846931541 }, "geometry": { "type": "Polygon", "coordinates": [ [ [ -65.555788846509131, -33.690079779374777 ], [ -65.50182115349088, -33.690079779374777 ], [ -65.50182115349088, -33.645164220625226 ], [ -65.555788846509131, -33.645164220625226 ], [ -65.555788846509131, -33.690079779374777 ] ] ] } },
{ "type": "Feature", "properties": { "provincia": "San Luis", "localidad": "Villa Mercedes", "tipo": "jardin", "tiempo_medio_01": 240.0, "tiempo_medio_10": 13.51800307 }, "geometry": { "type": "Polygon", "coordinates": [ [ [ -65.445788846509117, -33.690079779374777 ], [ -65.391821153490866, -33.690079779374777 ], [ -65.391821153490866, -33.645164220625226 ], [ -65.445788846509117, -33.645164220625226 ], [ -65.445788846509117, -33.690079779374777 ] ] ] } },
{ "type": "Feature", "properties": { "provincia": "San Luis", "localidad": "Villa Mercedes", "tipo": "salud", "tiempo_medio_01": 15.98066771, "tiempo_medio_10": 18.86886714 }, "geometry": { "type": "Polygon", "coordinates": [ [ [ -65.500788846509124, -33.690079779374777 ], [ -65.446821153490873, -33.690079779374777 ], [ -65.446821153490873, -33.645164220625226 ], [ -65.500788846509124, -33.645164220625226 ], [ -65.500788846509124, -33.690079779374777 ] ] ] } },
{ "type": "Feature", "properties": { "provincia": "San Luis", "localidad": "Villa de Merlo", "tipo": "esp_verde", "tiempo_medio_01": 14.97189897, "tiempo_medio_10": 4.228043478 }, "geometry": { "type": "Polygon", "coordinates": [ [ [ -65.088765284752853, -32.374458779374777 ], [ -65.035596715247166, -32.374458779374777 ], [ -65.035596715247166, -32.329543220625226 ], [ -65.088765284752853, -32.329543220625226 ], [ -65.088765284752853, -32.374458779374777 ] ] ] } },
{ "type": "Feature", "properties": { "provincia": "San Luis", "localidad": "Villa de Merlo", "tipo": "jardin", "tiempo_medio_01": 240.0, "tiempo_medio_10": 22.02183794 }, "geometry": { "type": "Polygon", "coordinates": [ [ [ -64.978765284752839, -32.374458779374777 ], [ -64.925596715247153, -32.374458779374777 ], [ -64.925596715247153, -32.329543220625226 ], [ -64.978765284752839, -32.329543220625226 ], [ -64.978765284752839, -32.374458779374777 ] ] ] } },
{ "type": "Feature", "properties": { "provincia": "San Luis", "localidad": "Villa de Merlo", "tipo": "salud", "tiempo_medio_01": 21.04835992, "tiempo_medio_10": 15.47776186 }, "geometry": { "type": "Polygon", "coordinates": [ [ [ -65.033765284752846, -32.374458779374777 ], [ -64.98059671524716, -32.374458779374777 ], [ -64.98059671524716, -32.329543220625226 ], [ -65.033765284752846, -32.329543220625226 ], [ -65.033765284752846, -32.374458779374777 ] ] ] } },
{ "type": "Feature", "properties": { "provincia": "Santa Cruz", "localidad": "Caleta Olivia", "tipo": "esp_verde", "tiempo_medio_01": 6.286196239, "tiempo_medio_10": 2.882063674 }, "geometry": { "type": "Polygon", "coordinates": [ [ [ -67.62462891717513, -46.481766779374773 ], [ -67.559427082824897, -46.481766779374773 ], [ -67.559427082824897, -46.436851220625222 ], [ -67.62462891717513, -46.436851220625222 ], [ -67.62462891717513, -46.481766779374773 ] ] ] } },
{ "type": "Feature", "properties": { "provincia": "Santa Cruz", "localidad": "Caleta Olivia", "tipo": "jardin", "tiempo_medio_01": 12.8851023, "tiempo_medio_10": 10.57047259 }, "geometry": { "type": "Polygon", "coordinates": [ [ [ -67.514628917175116, -46.481766779374773 ], [ -67.449427082824883, -46.481766779374773 ], [ -67.449427082824883, -46.436851220625222 ], [ -67.514628917175116, -46.436851220625222 ], [ -67.514628917175116, -46.481766779374773 ] ] ] } },
{ "type": "Feature", "properties": { "provincia": "Santa Cruz", "localidad": "Caleta Olivia", "tipo": "salud", "tiempo_medio_01": 15.00974632, "tiempo_medio_10": 18.50371049 }, "geometry": { "type": "Polygon", "coordinates": [ [ [ -67.569628917175123, -46.481766779374773 ], [ -67.50442708282489, -46.481766779374773 ], [ -67.50442708282489, -46.436851220625222 ], [ -67.569628917175123, -46.436851220625222 ], [ -67.569628917175123, -46.481766779374773 ] ] ] } },
{ "type": "Feature", "properties": { "provincia": "Santa Cruz", "localidad": "Pico Truncado", "tipo": "esp_verde", "tiempo_medio_01": 14.72919892, "tiempo_medio_10": 6.558060606 }, "geometry": { "type": "Polygon", "coordinates": [ [ [ -68.045734726205097, -46.819105779374773 ], [ -67.980125273794926, -46.819105779374773 ], [ -67.980125273794926, -46.774190220625222 ], [ -68.045734726205097, -46.774190220625222 ], [ -68.045734726205097, -46.819105779374773 ] ] ] } },
{ "type": "Feature", "properties": { "provincia": "Santa Cruz", "localidad": "Pico Truncado", "tipo": "jardin", "tiempo_medio_01": 16.81631325, "tiempo_medio_10": 12.99949495 }, "geometry": { "type": "Polygon", "coordinates": [ [ [ -67.935734726205084, -46.819105779374773 ], [ -67.870125273794912, -46.819105779374773 ], [ -67.870125273794912, -46.774190220625222 ], [ -67.935734726205084, -46.774190220625222 ], [ -67.935734726205084, -46.819105779374773 ] ] ] } },
{ "type": "Feature", "properties": { "provincia": "Santa Cruz", "localidad": "Pico Truncado", "tipo": "salud", "tiempo_medio_01": 22.61110064, "tiempo_medio_10": 15.57630303 }, "geometry": { "type": "Polygon", "coordinates": [ [ [ -67.990734726205091, -46.819105779374773 ], [ -67.925125273794919, -46.819105779374773 ], [ -67.925125273794919, -46.774190220625222 ], [ -67.990734726205091, -46.774190220625222 ], [ -67.990734726205091, -46.819105779374773 ] ] ] } },
{ "type": "Feature", "properties": { "provincia": "Santa Cruz", "localidad": "Río Gallegos", "tipo": "esp_verde", "tiempo_medio_01": 16.48430061, "tiempo_medio_10": 9.52390331 }, "geometry": { "type": "Polygon", "coordinates": [ [ [ -69.365318868088963, -51.662072779374775 ], [ -69.29294513191104, -51.662072779374775 ], [ -69.29294513191104, -51.617157220625224 ], [ -69.365318868088963, -51.617157220625224 ], [ -69.365318868088963, -51.662072779374775 ] ] ] } },
{ "type": "Feature", "properties": { "provincia": "Santa Cruz", "localidad": "Río Gallegos", "tipo": "jardin", "tiempo_medio_01": 172.3102945, "tiempo_medio_10": 240.0 }, "geometry": { "type": "Polygon", "coordinates": [ [ [ -69.255318868088949, -51.662072779374775 ], [ -69.182945131911026, -51.662072779374775 ], [ -69.182945131911026, -51.617157220625224 ], [ -69.255318868088949, -51.617157220625224 ], [ -69.255318868088949, -51.662072779374775 ] ] ] } },
{ "type": "Feature", "properties": { "provincia": "Santa Cruz", "localidad": "Río Gallegos", "tipo": "salud", "tiempo_medio_01": 44.45004417, "tiempo_medio_10": 14.05983925 }, "geometry": { "type": "Polygon", "coordinates": [ [ [ -69.310318868088956, -51.662072779374775 ], [ -69.237945131911033, -51.662072779374775 ], [ -69.237945131911033, -51.617157220625224 ], [ -69.310318868088956, -51.617157220625224 ], [ -69.310318868088956, -51.662072779374775 ] ] ] } },
{ "type": "Feature", "properties": { "provincia": "Santa Fe", "localidad": "Rafaela", "tipo": "esp_verde", "tiempo_medio_01": 4.688434334, "tiempo_medio_10": 4.205182732 }, "geometry": { "type": "Polygon", "coordinates": [ [ [ -61.568827982549607, -31.264786779374777 ], [ -61.516294017450392, -31.264786779374777 ], [ -61.516294017450392, -31.219871220625226 ], [ -61.568827982549607, -31.219871220625226 ], [ -61.568827982549607, -31.264786779374777 ] ] ] } },
{ "type": "Feature", "properties": { "provincia": "Santa Fe", "localidad": "Rafaela", "tipo": "jardin", "tiempo_medio_01": 8.337242381, "tiempo_medio_10": 18.6188987 }, "geometry": { "type": "Polygon", "coordinates": [ [ [ -61.458827982549607, -31.264786779374777 ], [ -61.406294017450392, -31.264786779374777 ], [ -61.406294017450392, -31.219871220625226 ], [ -61.458827982549607, -31.219871220625226 ], [ -61.458827982549607, -31.264786779374777 ] ] ] } },
{ "type": "Feature", "properties": { "provincia": "Santa Fe", "localidad": "Rafaela", "tipo": "salud", "tiempo_medio_01": 5.26607724, "tiempo_medio_10": 14.79830635 }, "geometry": { "type": "Polygon", "coordinates": [ [ [ -61.513827982549607, -31.264786779374777 ], [ -61.461294017450392, -31.264786779374777 ], [ -61.461294017450392, -31.219871220625226 ], [ -61.513827982549607, -31.219871220625226 ], [ -61.513827982549607, -31.264786779374777 ] ] ] } },
{ "type": "Feature", "properties": { "provincia": "Santa Fe", "localidad": "Rosario", "tipo": "esp_verde", "tiempo_medio_01": 5.519889425, "tiempo_medio_10": 5.015866114 }, "geometry": { "type": "Polygon", "coordinates": [ [ [ -60.780304433854546, -32.971660779374773 ], [ -60.72677956614546, -32.971660779374773 ], [ -60.72677956614546, -32.926745220625222 ], [ -60.780304433854546, -32.926745220625222 ], [ -60.780304433854546, -32.971660779374773 ] ] ] } },
{ "type": "Feature", "properties": { "provincia": "Santa Fe", "localidad": "Rosario", "tipo": "jardin", "tiempo_medio_01": 240.0, "tiempo_medio_10": 10.80767081 }, "geometry": { "type": "Polygon", "coordinates": [ [ [ -60.670304433854547, -32.971660779374773 ], [ -60.61677956614546, -32.971660779374773 ], [ -60.61677956614546, -32.926745220625222 ], [ -60.670304433854547, -32.926745220625222 ], [ -60.670304433854547, -32.971660779374773 ] ] ] } },
{ "type": "Feature", "properties": { "provincia": "Santa Fe", "localidad": "Rosario", "tipo": "salud", "tiempo_medio_01": 8.405829898, "tiempo_medio_10": 8.578963227 }, "geometry": { "type": "Polygon", "coordinates": [ [ [ -60.725304433854546, -32.971660779374773 ], [ -60.67177956614546, -32.971660779374773 ], [ -60.67177956614546, -32.926745220625222 ], [ -60.725304433854546, -32.926745220625222 ], [ -60.725304433854546, -32.971660779374773 ] ] ] } },
{ "type": "Feature", "properties": { "provincia": "Santa Fe", "localidad": "Santa Fe", "tipo": "esp_verde", "tiempo_medio_01": 11.08498835, "tiempo_medio_10": 3.496567243 }, "geometry": { "type": "Polygon", "coordinates": [ [ [ -60.849246218675717, -31.636169013406825 ], [ -60.796480369397443, -31.636169013406825 ], [ -60.796480369397443, -31.591253454657274 ], [ -60.849246218675717, -31.591253454657274 ], [ -60.849246218675717, -31.636169013406825 ] ] ] } },
{ "type": "Feature", "properties": { "provincia": "Santa Fe", "localidad": "Santa Fe", "tipo": "jardin", "tiempo_medio_01": 240.0, "tiempo_medio_10": 8.620410951 }, "geometry": { "type": "Polygon", "coordinates": [ [ [ -60.739246218675717, -31.636169013406825 ], [ -60.686480369397444, -31.636169013406825 ], [ -60.686480369397444, -31.591253454657274 ], [ -60.739246218675717, -31.591253454657274 ], [ -60.739246218675717, -31.636169013406825 ] ] ] } },
{ "type": "Feature", "properties": { "provincia": "Santa Fe", "localidad": "Santa Fe", "tipo": "salud", "tiempo_medio_01": 12.86291676, "tiempo_medio_10": 7.747250629 }, "geometry": { "type": "Polygon", "coordinates": [ [ [ -60.794246218675717, -31.636169013406825 ], [ -60.741480369397443, -31.636169013406825 ], [ -60.741480369397443, -31.591253454657274 ], [ -60.794246218675717, -31.591253454657274 ], [ -60.794246218675717, -31.636169013406825 ] ] ] } },
{ "type": "Feature", "properties": { "provincia": "Santiago del Estero", "localidad": "La Banda", "tipo": "esp_verde", "tiempo_medio_01": 14.7934762, "tiempo_medio_10": 7.692702236 }, "geometry": { "type": "Polygon", "coordinates": [ [ [ -64.264955471166914, -27.750045249096907 ], [ -64.214206505625256, -27.750045249096907 ], [ -64.214206505625256, -27.705129690347356 ], [ -64.264955471166914, -27.705129690347356 ], [ -64.264955471166914, -27.750045249096907 ] ] ] } },
{ "type": "Feature", "properties": { "provincia": "Santiago del Estero", "localidad": "La Banda", "tipo": "jardin", "tiempo_medio_01": 26.67366604, "tiempo_medio_10": 17.02615113 }, "geometry": { "type": "Polygon", "coordinates": [ [ [ -64.1549554711669, -27.750045249096907 ], [ -64.104206505625243, -27.750045249096907 ], [ -64.104206505625243, -27.705129690347356 ], [ -64.1549554711669, -27.705129690347356 ], [ -64.1549554711669, -27.750045249096907 ] ] ] } },
{ "type": "Feature", "properties": { "provincia": "Santiago del Estero", "localidad": "La Banda", "tipo": "salud", "tiempo_medio_01": 11.15043075, "tiempo_medio_10": 13.15691219 }, "geometry": { "type": "Polygon", "coordinates": [ [ [ -64.209955471166907, -27.750045249096907 ], [ -64.159206505625249, -27.750045249096907 ], [ -64.159206505625249, -27.705129690347356 ], [ -64.209955471166907, -27.705129690347356 ], [ -64.209955471166907, -27.750045249096907 ] ] ] } },
{ "type": "Feature", "properties": { "provincia": "Santiago del Estero", "localidad": "Santiago del Estero", "tipo": "esp_verde", "tiempo_medio_01": 16.03288315, "tiempo_medio_10": 2.634575487 }, "geometry": { "type": "Polygon", "coordinates": [ [ [ -64.412566660593711, -27.854977620915392 ], [ -64.36179054993741, -27.854977620915392 ], [ -64.36179054993741, -27.810062062165841 ], [ -64.412566660593711, -27.810062062165841 ], [ -64.412566660593711, -27.854977620915392 ] ] ] } },
{ "type": "Feature", "properties": { "provincia": "Santiago del Estero", "localidad": "Santiago del Estero", "tipo": "jardin", "tiempo_medio_01": 20.19252756, "tiempo_medio_10": 19.34405142 }, "geometry": { "type": "Polygon", "coordinates": [ [ [ -64.302566660593698, -27.854977620915392 ], [ -64.251790549937397, -27.854977620915392 ], [ -64.251790549937397, -27.810062062165841 ], [ -64.302566660593698, -27.810062062165841 ], [ -64.302566660593698, -27.854977620915392 ] ] ] } },
{ "type": "Feature", "properties": { "provincia": "Santiago del Estero", "localidad": "Santiago del Estero", "tipo": "salud", "tiempo_medio_01": 16.34439742, "tiempo_medio_10": 14.94528802 }, "geometry": { "type": "Polygon", "coordinates": [ [ [ -64.357566660593704, -27.854977620915392 ], [ -64.306790549937404, -27.854977620915392 ], [ -64.306790549937404, -27.810062062165841 ], [ -64.357566660593704, -27.810062062165841 ], [ -64.357566660593704, -27.854977620915392 ] ] ] } },
{ "type": "Feature", "properties": { "provincia": "Santiago del Estero", "localidad": "Termas de Río Hondo", "tipo": "esp_verde", "tiempo_medio_01": 17.09712309, "tiempo_medio_10": 3.981747397 }, "geometry": { "type": "Polygon", "coordinates": [ [ [ -64.947526023223119, -27.524753779374777 ], [ -64.896887976776881, -27.524753779374777 ], [ -64.896887976776881, -27.479838220625226 ], [ -64.947526023223119, -27.479838220625226 ], [ -64.947526023223119, -27.524753779374777 ] ] ] } },
{ "type": "Feature", "properties": { "provincia": "Santiago del Estero", "localidad": "Termas de Río Hondo", "tipo": "jardin", "tiempo_medio_01": 40.55973211, "tiempo_medio_10": 12.75294251 }, "geometry": { "type": "Polygon", "coordinates": [ [ [ -64.837526023223106, -27.524753779374777 ], [ -64.786887976776868, -27.524753779374777 ], [ -64.786887976776868, -27.479838220625226 ], [ -64.837526023223106, -27.479838220625226 ], [ -64.837526023223106, -27.524753779374777 ] ] ] } },
{ "type": "Feature", "properties": { "provincia": "Santiago del Estero", "localidad": "Termas de Río Hondo", "tipo": "salud", "tiempo_medio_01": 16.27762564, "tiempo_medio_10": 5.233807153 }, "geometry": { "type": "Polygon", "coordinates": [ [ [ -64.892526023223112, -27.524753779374777 ], [ -64.841887976776874, -27.524753779374777 ], [ -64.841887976776874, -27.479838220625226 ], [ -64.892526023223112, -27.479838220625226 ], [ -64.892526023223112, -27.524753779374777 ] ] ] } },
{ "type": "Feature", "properties": { "provincia": "Tierra del Fuego", "localidad": "Río Grande", "tipo": "esp_verde", "tiempo_medio_01": 11.88820844, "tiempo_medio_10": 4.675289994 }, "geometry": { "type": "Polygon", "coordinates": [ [ [ -67.891512504401945, -53.881359779374776 ], [ -67.81535549559807, -53.881359779374776 ], [ -67.81535549559807, -53.836444220625225 ], [ -67.891512504401945, -53.836444220625225 ], [ -67.891512504401945, -53.881359779374776 ] ] ] } },
{ "type": "Feature", "properties": { "provincia": "Tierra del Fuego", "localidad": "Río Grande", "tipo": "jardin", "tiempo_medio_01": 240.0, "tiempo_medio_10": 17.88582696 }, "geometry": { "type": "Polygon", "coordinates": [ [ [ -67.781512504401931, -53.881359779374776 ], [ -67.705355495598056, -53.881359779374776 ], [ -67.705355495598056, -53.836444220625225 ], [ -67.781512504401931, -53.836444220625225 ], [ -67.781512504401931, -53.881359779374776 ] ] ] } },
{ "type": "Feature", "properties": { "provincia": "Tierra del Fuego", "localidad": "Río Grande", "tipo": "salud", "tiempo_medio_01": 13.27205275, "tiempo_medio_10": 10.5565631 }, "geometry": { "type": "Polygon", "coordinates": [ [ [ -67.836512504401938, -53.881359779374776 ], [ -67.760355495598063, -53.881359779374776 ], [ -67.760355495598063, -53.836444220625225 ], [ -67.836512504401938, -53.836444220625225 ], [ -67.836512504401938, -53.881359779374776 ] ] ] } },
{ "type": "Feature", "properties": { "provincia": "Tierra del Fuego", "localidad": "Tolhuin", "tipo": "esp_verde", "tiempo_medio_01": 11.06530837, "tiempo_medio_10": 21.17 }, "geometry": { "type": "Polygon", "coordinates": [ [ [ -67.289545216239702, -54.599186779374776 ], [ -67.212052783760299, -54.599186779374776 ], [ -67.212052783760299, -54.554271220625225 ], [ -67.289545216239702, -54.554271220625225 ], [ -67.289545216239702, -54.599186779374776 ] ] ] } },
{ "type": "Feature", "properties": { "provincia": "Tierra del Fuego", "localidad": "Tolhuin", "tipo": "jardin", "tiempo_medio_01": 240.0, "tiempo_medio_10": 32.95 }, "geometry": { "type": "Polygon", "coordinates": [ [ [ -67.179545216239688, -54.599186779374776 ], [ -67.102052783760286, -54.599186779374776 ], [ -67.102052783760286, -54.554271220625225 ], [ -67.179545216239688, -54.554271220625225 ], [ -67.179545216239688, -54.599186779374776 ] ] ] } },
{ "type": "Feature", "properties": { "provincia": "Tierra del Fuego", "localidad": "Tolhuin", "tipo": "salud", "tiempo_medio_01": 240.0, "tiempo_medio_10": 240.0 }, "geometry": { "type": "Polygon", "coordinates": [ [ [ -67.234545216239695, -54.599186779374776 ], [ -67.157052783760292, -54.599186779374776 ], [ -67.157052783760292, -54.554271220625225 ], [ -67.234545216239695, -54.554271220625225 ], [ -67.234545216239695, -54.599186779374776 ] ] ] } },
{ "type": "Feature", "properties": { "provincia": "Tierra del Fuego", "localidad": "Ushuaia", "tipo": "esp_verde", "tiempo_medio_01": 29.14634416, "tiempo_medio_10": 13.7925784 }, "geometry": { "type": "Polygon", "coordinates": [ [ [ -68.447214772731897, -54.826413779374775 ], [ -68.369287227268117, -54.826413779374775 ], [ -68.369287227268117, -54.781498220625224 ], [ -68.447214772731897, -54.781498220625224 ], [ -68.447214772731897, -54.826413779374775 ] ] ] } },
{ "type": "Feature", "properties": { "provincia": "Tierra del Fuego", "localidad": "Ushuaia", "tipo": "jardin", "tiempo_medio_01": 20.3071567, "tiempo_medio_10": 240.0 }, "geometry": { "type": "Polygon", "coordinates": [ [ [ -68.337214772731883, -54.826413779374775 ], [ -68.259287227268103, -54.826413779374775 ], [ -68.259287227268103, -54.781498220625224 ], [ -68.337214772731883, -54.781498220625224 ], [ -68.337214772731883, -54.826413779374775 ] ] ] } },
{ "type": "Feature", "properties": { "provincia": "Tierra del Fuego", "localidad": "Ushuaia", "tipo": "salud", "tiempo_medio_01": 16.25123419, "tiempo_medio_10": 16.67624913 }, "geometry": { "type": "Polygon", "coordinates": [ [ [ -68.39221477273189, -54.826413779374775 ], [ -68.31428722726811, -54.826413779374775 ], [ -68.31428722726811, -54.781498220625224 ], [ -68.39221477273189, -54.781498220625224 ], [ -68.39221477273189, -54.826413779374775 ] ] ] } },
{ "type": "Feature", "properties": { "provincia": "Tucumán", "localidad": "San Miguel de Tucumán", "tipo": "esp_verde", "tiempo_medio_01": 13.38356979, "tiempo_medio_10": 3.486744738 }, "geometry": { "type": "Polygon", "coordinates": [ [ [ -65.249390641772507, -26.851348954177478 ], [ -65.199054464018147, -26.851348954177478 ], [ -65.199054464018147, -26.806433395427927 ], [ -65.249390641772507, -26.806433395427927 ], [ -65.249390641772507, -26.851348954177478 ] ] ] } },
{ "type": "Feature", "properties": { "provincia": "Tucumán", "localidad": "San Miguel de Tucumán", "tipo": "jardin", "tiempo_medio_01": 240.0, "tiempo_medio_10": 8.481323219 }, "geometry": { "type": "Polygon", "coordinates": [ [ [ -65.139390641772493, -26.851348954177478 ], [ -65.089054464018133, -26.851348954177478 ], [ -65.089054464018133, -26.806433395427927 ], [ -65.139390641772493, -26.806433395427927 ], [ -65.139390641772493, -26.851348954177478 ] ] ] } },
{ "type": "Feature", "properties": { "provincia": "Tucumán", "localidad": "San Miguel de Tucumán", "tipo": "salud", "tiempo_medio_01": 10.10571904, "tiempo_medio_10": 7.045471496 }, "geometry": { "type": "Polygon", "coordinates": [ [ [ -65.1943906417725, -26.851348954177478 ], [ -65.14405446401814, -26.851348954177478 ], [ -65.14405446401814, -26.806433395427927 ], [ -65.1943906417725, -26.806433395427927 ], [ -65.1943906417725, -26.851348954177478 ] ] ] } },
{ "type": "Feature", "properties": { "provincia": "Tucumán", "localidad": "Tafí Viejo", "tipo": "esp_verde", "tiempo_medio_01": 8.426550269, "tiempo_medio_10": 3.451388962 }, "geometry": { "type": "Polygon", "coordinates": [ [ [ -65.332006283649065, -26.725010137138405 ], [ -65.281711074114554, -26.725010137138405 ], [ -65.281711074114554, -26.680094578388854 ], [ -65.332006283649065, -26.680094578388854 ], [ -65.332006283649065, -26.725010137138405 ] ] ] } },
{ "type": "Feature", "properties": { "provincia": "Tucumán", "localidad": "Tafí Viejo", "tipo": "jardin", "tiempo_medio_01": 240.0, "tiempo_medio_10": 19.54729557 }, "geometry": { "type": "Polygon", "coordinates": [ [ [ -65.222006283649051, -26.725010137138405 ], [ -65.17171107411454, -26.725010137138405 ], [ -65.17171107411454, -26.680094578388854 ], [ -65.222006283649051, -26.680094578388854 ], [ -65.222006283649051, -26.725010137138405 ] ] ] } },
{ "type": "Feature", "properties": { "provincia": "Tucumán", "localidad": "Tafí Viejo", "tipo": "salud", "tiempo_medio_01": 9.694658647000001, "tiempo_medio_10": 18.00917085 }, "geometry": { "type": "Polygon", "coordinates": [ [ [ -65.277006283649058, -26.725010137138405 ], [ -65.226711074114547, -26.725010137138405 ], [ -65.226711074114547, -26.680094578388854 ], [ -65.277006283649058, -26.680094578388854 ], [ -65.277006283649058, -26.725010137138405 ] ] ] } },
{ "type": "Feature", "properties": { "provincia": "Tucumán", "localidad": "Yerba Buena", "tipo": "esp_verde", "tiempo_medio_10": 14.51594977 }, "geometry": { "type": "Polygon", "coordinates": [ [ [ -65.44256750281788, -26.827596222466916 ], [ -65.3922433100755, -26.827596222466916 ], [ -65.3922433100755, -26.782680663717365 ], [ -65.44256750281788, -26.782680663717365 ], [ -65.44256750281788, -26.827596222466916 ] ] ] } },
{ "type": "Feature", "properties": { "provincia": "Tucumán", "localidad": "Yerba Buena", "tipo": "jardin", "tiempo_medio_10": 39.44557173 }, "geometry": { "type": "Polygon", "coordinates": [ [ [ -65.332567502817867, -26.827596222466916 ], [ -65.282243310075486, -26.827596222466916 ], [ -65.282243310075486, -26.782680663717365 ], [ -65.332567502817867, -26.782680663717365 ], [ -65.332567502817867, -26.827596222466916 ] ] ] } },
{ "type": "Feature", "properties": { "provincia": "Tucumán", "localidad": "Yerba Buena", "tipo": "salud", "tiempo_medio_10": 20.06739247 }, "geometry": { "type": "Polygon", "coordinates": [ [ [ -65.387567502817873, -26.827596222466916 ], [ -65.337243310075493, -26.827596222466916 ], [ -65.337243310075493, -26.782680663717365 ], [ -65.387567502817873, -26.782680663717365 ], [ -65.387567502817873, -26.827596222466916 ] ] ] } }
]
}
