{"type": "FeatureCollection", "features": [{"type": "Feature", "geometry": {"type": "Polygon", "coordinates": [[[-58.75259027820058, -34.79250877937478], [-58.69791172179942, -34.79250877937478], [-58.69791172179942, -34.74759322062523], [-58.75259027820058, -34.74759322062523], [-58.75259027820058, -34.79250877937478]]]}, "properties": {"provincia": "Buenos Aires", "localidad": "La Matanza", "tipo": "esp_verde", "tiempo_medio_01": 11.85344404, "tiempo_medio_10": 7.07824327}}, {"type": "Feature", "geometry": {"type": "Polygon", "coordinates": [[[-58.552590278200576, -34.79250877937478], [-58.49791172179942, -34.79250877937478], [-58.49791172179942, -34.74759322062523], [-58.552590278200576, -34.74759322062523], [-58.552590278200576, -34.79250877937478]]]}, "properties": {"provincia": "Buenos Aires", "localidad": "La Matanza", "tipo": "jardin", "tiempo_medio_01": 73.68039029, "tiempo_medio_10": 10.50073855}}, {"type": "Feature", "geometry": {"type": "Polygon", "coordinates": [[[-58.65259027820058, -34.79250877937478], [-58.59791172179942, -34.79250877937478], [-58.59791172179942, -34.74759322062523], [-58.65259027820058, -34.74759322062523], [-58.65259027820058, -34.79250877937478]]]}, "properties": {"provincia": "Buenos Aires", "localidad": "La Matanza", "tipo": "salud", "tiempo_medio_01": 23.63843034, "tiempo_medio_10": 12.90618417}}, {"type": "Feature", "geometry": {"type": "Polygon", "coordinates": [[[-58.14542707556865, -35.026006779374775], [-58.09059292443135, -35.026006779374775], [-58.09059292443135, -34.981091220625224], [-58.14542707556865, -34.981091220625224], [-58.14542707556865, -35.026006779374775]]]}, "properties": {"provincia": "Buenos Aires", "localidad": "La Plata", "tipo": "esp_verde", "tiempo_medio_01": 19.998441, "tiempo_medio_10": 10.18375368}}, {"type": "Feature", "geometry": {"type": "Polygon", "coordinates": [[[-57.945427075568645, -35.026006779374775], [-57.890592924431346, -35.026006779374775], [-57.890592924431346, -34.981091220625224], [-57.945427075568645, -34.981091220625224], [-57.945427075568645, -35.026006779374775]]]}, "properties": {"provincia": "Buenos Aires", "localidad": "La Plata", "tipo": "jardin", "tiempo_medio_01": 240.0, "tiempo_medio_10": 131.0924211}}, {"type": "Feature", "geometry": {"type": "Polygon", "coordinates": [[[-58.04542707556865, -35.026006779374775], [-57.99059292443135, -35.026006779374775], [-57.99059292443135, -34.981091220625224], [-58.04542707556865, -34.981091220625224], [-58.04542707556865, -35.026006779374775]]]}, "properties": {"provincia": "Buenos Aires", "localidad": "La Plata", "tipo": "salud", "tiempo_medio_01": 17.66821178, "tiempo_medio_10": 13.07952467}}, {"type": "Feature", "geometry": {"type": "Polygon", "coordinates": [[[-58.55133027233038, -34.777391779374774], [-58.496661727669625, -34.777391779374774], [-58.496661727669625, -34.73247622062522], [-58.55133027233038, -34.73247622062522], [-58.55133027233038, -34.777391779374774]]]}, "properties": {"provincia": "Buenos Aires", "localidad": "Lomas de Zamora", "tipo": "esp_verde", "tiempo_medio_01": 11.35202231, "tiempo_medio_10": 8.109556612}}, {"type": "Feature", "geometry": {"type": "Polygon", "coordinates": [[[-58.35133027233038, -34.777391779374774], [-58.29666172766962, -34.777391779374774], [-58.29666172766962, -34.73247622062522], [-58.35133027233038, -34.73247622062522], [-58.35133027233038, -34.777391779374774]]]}, "properties": {"provincia": "Buenos Aires", "localidad": "Lomas de Zamora", "tipo": "jardin", "tiempo_medio_01": 11.21404454, "tiempo_medio_10": 10.37438917}}, {"type": "Feature", "geometry": {"type": "Polygon", "coordinates": [[[-58.45133027233038, -34.777391779374774], [-58.396661727669624, -34.777391779374774], [-58.396661727669624, -34.73247622062522], [-58.45133027233038, -34.73247622062522], [-58.45133027233038, -34.777391779374774]]]}, "properties": {"provincia": "Buenos Aires", "localidad": "Lomas de Zamora", "tipo": "salud", "tiempo_medio_01": 9.677639193, "tiempo_medio_10": 9.530766469}}, {"type": "Feature", "geometry": {"type": "Polygon", "coordinates": [[[-58.50828416758534, -34.62545777937478], [-58.453715832414666, -34.62545777937478], [-58.453715832414666, -34.580542220625226], [-58.50828416758534, -34.580542220625226], [-58.50828416758534, -34.62545777937478]]]}, "properties": {"provincia": "CABA", "localidad": "CABA", "tipo": "esp_verde", "tiempo_medio_01": 5.153725362, "tiempo_medio_10": 4.082639214}}, {"type": "Feature", "geometry": {"type": "Polygon", "coordinates": [[[-58.308284167585335, -34.62545777937478], [-58.25371583241466, -34.62545777937478], [-58.25371583241466, -34.580542220625226], [-58.308284167585335, -34.580542220625226], [-58.308284167585335, -34.62545777937478]]]}, "properties": {"provincia": "CABA", "localidad": "CABA", "tipo": "jardin", "tiempo_medio_01": 8.494238572, "tiempo_medio_10": 8.611290472}}, {"type": "Feature", "geometry": {"type": "Polygon", "coordinates": [[[-58.408284167585336, -34.62545777937478], [-58.353715832414665, -34.62545777937478], [-58.353715832414665, -34.580542220625226], [-58.408284167585336, -34.580542220625226], [-58.408284167585336, -34.62545777937478]]]}, "properties": {"provincia": "CABA", "localidad": "CABA", "tipo": "salud", "tiempo_medio_01": 6.288283028, "tiempo_medio_10": 10.93421414}}, {"type": "Feature", "geometry": {"type": "Polygon", "coordinates": [[[-65.96207887702097, -28.432738779374777], [-65.91101312297901, -28.432738779374777], [-65.91101312297901, -28.387823220625226], [-65.96207887702097, -28.387823220625226], [-65.96207887702097, -28.432738779374777]]]}, "properties": {"provincia": "Catamarca", "localidad": "San Fernando del Valle de Catamarca", "tipo": "esp_verde", "tiempo_medio_01": 11.48609195, "tiempo_medio_10": 2.56135263}}, {"type": "Feature", "geometry": {"type": "Polygon", "coordinates": [[[-65.76207887702098, -28.432738779374777], [-65.71101312297903, -28.432738779374777], [-65.71101312297903, -28.387823220625226], [-65.76207887702098, -28.387823220625226], [-65.76207887702098, -28.432738779374777]]]}, "properties": {"provincia": "Catamarca", "localidad": "San Fernando del Valle de Catamarca", "tipo": "jardin", "tiempo_medio_01": 119.8140339, "tiempo_medio_10": 17.77306964}}, {"type": "Feature", "geometry": {"type": "Polygon", "coordinates": [[[-65.86207887702098, -28.432738779374777], [-65.81101312297902, -28.432738779374777], [-65.81101312297902, -28.387823220625226], [-65.86207887702098, -28.387823220625226], [-65.86207887702098, -28.432738779374777]]]}, "properties": {"provincia": "Catamarca", "localidad": "San Fernando del Valle de Catamarca", "tipo": "salud", "tiempo_medio_01": 10.83363671, "tiempo_medio_10": 8.084654941}}, {"type": "Feature", "geometry": {"type": "Polygon", "coordinates": [[[-66.27488673281046, -26.519716779374775], [-66.22469926718954, -26.519716779374775], [-66.22469926718954, -26.474801220625224], [-66.27488673281046, -26.474801220625224], [-66.27488673281046, -26.519716779374775]]]}, "properties": {"provincia": "Catamarca", "localidad": "Santa Mar\u00eda", "tipo": "esp_verde", "tiempo_medio_01": 240.0, "tiempo_medio_10": 1.049680639}}, {"type": "Feature", "geometry": {"type": "Polygon", "coordinates": [[[-66.07488673281047, -26.519716779374775], [-66.02469926718955, -26.519716779374775], [-66.02469926718955, -26.474801220625224], [-66.07488673281047, -26.474801220625224], [-66.07488673281047, -26.519716779374775]]]}, "properties": {"provincia": "Catamarca", "localidad": "Santa Mar\u00eda", "tipo": "jardin", "tiempo_medio_01": 240.0, "tiempo_medio_10": 95.48293413}}, {"type": "Feature", "geometry": {"type": "Polygon", "coordinates": [[[-66.17488673281046, -26.519716779374775], [-66.12469926718954, -26.519716779374775], [-66.12469926718954, -26.474801220625224], [-66.17488673281046, -26.474801220625224], [-66.17488673281046, -26.519716779374775]]]}, "properties": {"provincia": "Catamarca", "localidad": "Santa Mar\u00eda", "tipo": "salud", "tiempo_medio_01": 141.085057, "tiempo_medio_10": 8.353789088}}, {"type": "Feature", "geometry": {"type": "Polygon", "coordinates": [[[-65.83312547947273, -28.621007779374775], [-65.78196852052727, -28.621007779374775], [-65.78196852052727, -28.576092220625224], [-65.83312547947273, -28.576092220625224], [-65.83312547947273, -28.621007779374775]]]}, "properties": {"provincia": "Catamarca", "localidad": "Valle Viejo", "tipo": "esp_verde", "tiempo_medio_01": 36.33830322, "tiempo_medio_10": 14.14674986}}, {"type": "Feature", "geometry": {"type": "Polygon", "coordinates": [[[-65.63312547947274, -28.621007779374775], [-65.58196852052728, -28.621007779374775], [-65.58196852052728, -28.576092220625224], [-65.63312547947274, -28.576092220625224], [-65.63312547947274, -28.621007779374775]]]}, "properties": {"provincia": "Catamarca", "localidad": "Valle Viejo", "tipo": "jardin", "tiempo_medio_01": 240.0, "tiempo_medio_10": 22.39642857}}, {"type": "Feature", "geometry": {"type": "Polygon", "coordinates": [[[-65.73312547947273, -28.621007779374775], [-65.68196852052728, -28.621007779374775], [-65.68196852052728, -28.576092220625224], [-65.73312547947273, -28.576092220625224], [-65.73312547947273, -28.621007779374775]]]}, "properties": {"provincia": "Catamarca", "localidad": "Valle Viejo", "tipo": "salud", "tiempo_medio_01": 53.53795223, "tiempo_medio_10": 9.196219162}}, {"type": "Feature", "geometry": {"type": "Polygon", "coordinates": [[[-59.04127485134931, -27.510961779374774], [-58.9906431486507, -27.510961779374774], [-58.9906431486507, -27.466046220625223], [-59.04127485134931, -27.466046220625223], [-59.04127485134931, -27.510961779374774]]]}, "properties": {"provincia": "Chaco", "localidad": "Barranqueras", "tipo": "esp_verde", "tiempo_medio_01": 14.20039357, "tiempo_medio_10": 2.371014679}}, {"type": "Feature", "geometry": {"type": "Polygon", "coordinates": [[[-58.841274851349304, -27.510961779374774], [-58.790643148650695, -27.510961779374774], [-58.790643148650695, -27.466046220625223], [-58.841274851349304, -27.466046220625223], [-58.841274851349304, -27.510961779374774]]]}, "properties": {"provincia": "Chaco", "localidad": "Barranqueras", "tipo": "jardin", "tiempo_medio_01": 240.0, "tiempo_medio_10": 7.32546789}}, {"type": "Feature", "geometry": {"type": "Polygon", "coordinates": [[[-58.941274851349306, -27.510961779374774], [-58.890643148650696, -27.510961779374774], [-58.890643148650696, -27.466046220625223], [-58.941274851349306, -27.466046220625223], [-58.941274851349306, -27.510961779374774]]]}, "properties": {"provincia": "Chaco", "localidad": "Barranqueras", "tipo": "salud", "tiempo_medio_01": 18.24359343, "tiempo_medio_10": 8.728388991}}, {"type": "Feature", "geometry": {"type": "Polygon", "coordinates": [[[-60.58710248776592, -26.809510779374776], [-60.536787512234085, -26.809510779374776], [-60.536787512234085, -26.764595220625225], [-60.58710248776592, -26.764595220625225], [-60.58710248776592, -26.809510779374776]]]}, "properties": {"provincia": "Chaco", "localidad": "Presidencia Roque S\u00e1enz Pe\u00f1a", "tipo": "esp_verde", "tiempo_medio_01": 24.14551898, "tiempo_medio_10": 2.86544645}}, {"type": "Feature", "geometry": {"type": "Polygon", "coordinates": [[[-60.387102487765915, -26.809510779374776], [-60.33678751223408, -26.809510779374776], [-60.33678751223408, -26.764595220625225], [-60.387102487765915, -26.764595220625225], [-60.387102487765915, -26.809510779374776]]]}, "properties": {"provincia": "Chaco", "localidad": "Presidencia Roque S\u00e1enz Pe\u00f1a", "tipo": "jardin", "tiempo_medio_01": 240.0, "tiempo_medio_10": 9.719426394}}, {"type": "Feature", "geometry": {"type": "Polygon", "coordinates": [[[-60.48710248776592, -26.809510779374776], [-60.43678751223408, -26.809510779374776], [-60.43678751223408, -26.764595220625225], [-60.48710248776592, -26.764595220625225], [-60.48710248776592, -26.809510779374776]]]}, "properties": {"provincia": "Chaco", "localidad": "Presidencia Roque S\u00e1enz Pe\u00f1a", "tipo": "salud", "tiempo_medio_01": 26.1999393, "tiempo_medio_10": 8.041425993}}, {"type": "Feature", "geometry": {"type": "Polygon", "coordinates": [[[-59.26998306905505, -27.611690779374776], [-59.21930493094495, -27.611690779374776], [-59.21930493094495, -27.566775220625225], [-59.26998306905505, -27.566775220625225], [-59.26998306905505, -27.611690779374776]]]}, "properties": {"provincia": "Chaco", "localidad": "Resistencia", "tipo": "esp_verde", "tiempo_medio_01": 13.76373086, "tiempo_medio_10": 4.697075606}}, {"type": "Feature", "geometry": {"type": "Polygon", "coordinates": [[[-59.06998306905505, -27.611690779374776], [-59.01930493094495, -27.611690779374776], [-59.01930493094495, -27.566775220625225], [-59.06998306905505, -27.566775220625225], [-59.06998306905505, -27.611690779374776]]]}, "properties": {"provincia": "Chaco", "localidad": "Resistencia", "tipo": "jardin", "tiempo_medio_01": 240.0, "tiempo_medio_10": 9.252945212}}, {"type": "Feature", "geometry": {"type": "Polygon", "coordinates": [[[-59.16998306905505, -27.611690779374776], [-59.11930493094495, -27.611690779374776], [-59.11930493094495, -27.566775220625225], [-59.16998306905505, -27.566775220625225], [-59.16998306905505, -27.611690779374776]]]}, "properties": {"provincia": "Chaco", "localidad": "Resistencia", "tipo": "salud", "tiempo_medio_01": 17.67768629, "tiempo_medio_10": 13.21084737}}, {"type": "Feature", "geometry": {"type": "Polygon", "coordinates": [[[-67.72366684894544, -45.86193777937478], [-67.65919515105455, -45.86193777937478], [-67.65919515105455, -45.817022220625226], [-67.72366684894544, -45.817022220625226], [-67.72366684894544, -45.86193777937478]]]}, "properties": {"provincia": "Chubut", "localidad": "Comodoro Rivadavia", "tipo": "esp_verde", "tiempo_medio_01": 8.03509123, "tiempo_medio_10": 4.23591113}}, {"type": "Feature", "geometry": {"type": "Polygon", "coordinates": [[[-67.52366684894545, -45.86193777937478], [-67.45919515105456, -45.86193777937478], [-67.45919515105456, -45.817022220625226], [-67.52366684894545, -45.817022220625226], [-67.52366684894545, -45.86193777937478]]]}, "properties": {"provincia": "Chubut", "localidad": "Comodoro Rivadavia", "tipo": "jardin", "tiempo_medio_01": 240.0, "tiempo_medio_10": 131.7483693}}, {"type": "Feature", "geometry": {"type": "Polygon", "coordinates": [[[-67.62366684894545, -45.86193777937478], [-67.55919515105455, -45.86193777937478], [-67.55919515105455, -45.817022220625226], [-67.62366684894545, -45.817022220625226], [-67.62366684894545, -45.86193777937478]]]}, "properties": {"provincia": "Chubut", "localidad": "Comodoro Rivadavia", "tipo": "salud", "tiempo_medio_01": 13.53379723, "tiempo_medio_10": 20.83544884}}, {"type": "Feature", "geometry": {"type": "Polygon", "coordinates": [[[-65.17891185671492, -42.753934779374774], [-65.11776414328507, -42.753934779374774], [-65.11776414328507, -42.70901922062522], [-65.17891185671492, -42.70901922062522], [-65.17891185671492, -42.753934779374774]]]}, "properties": {"provincia": "Chubut", "localidad": "Puerto Madryn", "tipo": "esp_verde", "tiempo_medio_01": 5.865421801, "tiempo_medio_10": 8.177161992}}, {"type": "Feature", "geometry": {"type": "Polygon", "coordinates": [[[-64.97891185671493, -42.753934779374774], [-64.91776414328508, -42.753934779374774], [-64.91776414328508, -42.70901922062522], [-64.97891185671493, -42.70901922062522], [-64.97891185671493, -42.753934779374774]]]}, "properties": {"provincia": "Chubut", "localidad": "Puerto Madryn", "tipo": "jardin", "tiempo_medio_01": 164.4235144, "tiempo_medio_10": 29.59644435}}, {"type": "Feature", "geometry": {"type": "Polygon", "coordinates": [[[-65.07891185671492, -42.753934779374774], [-65.01776414328508, -42.753934779374774], [-65.01776414328508, -42.70901922062522], [-65.07891185671492, -42.70901922062522], [-65.07891185671492, -42.753934779374774]]]}, "properties": {"provincia": "Chubut", "localidad": "Puerto Madryn", "tipo": "salud", "tiempo_medio_01": 8.584199781, "tiempo_medio_10": 21.44637645}}, {"type": "Feature", "geometry": {"type": "Polygon", "coordinates": [[[-65.45002060494626, -43.27190177937477], [-65.38835539505372, -43.27190177937477], [-65.38835539505372, -43.22698622062522], [-65.45002060494626, -43.22698622062522], [-65.45002060494626, -43.27190177937477]]]}, "properties": {"provincia": "Chubut", "localidad": "Trelew", "tipo": "esp_verde", "tiempo_medio_01": 23.02115292, "tiempo_medio_10": 10.29768055}}, {"type": "Feature", "geometry": {"type": "Polygon", "coordinates": [[[-65.25002060494627, -43.27190177937477], [-65.18835539505373, -43.27190177937477], [-65.18835539505373, -43.22698622062522], [-65.25002060494627, -43.22698622062522], [-65.25002060494627, -43.27190177937477]]]}, "properties": {"provincia": "Chubut", "localidad": "Trelew", "tipo": "jardin", "tiempo_medio_01": 240.0, "tiempo_medio_10": 240.0}}, {"type": "Feature", "geometry": {"type": "Polygon", "coordinates": [[[-65.35002060494627, -43.27190177937477], [-65.28835539505373, -43.27190177937477], [-65.28835539505373, -43.22698622062522], [-65.35002060494627, -43.22698622062522], [-65.35002060494627, -43.27190177937477]]]}, "properties": {"provincia": "Chubut", "localidad": "Trelew", "tipo": "salud", "tiempo_medio_01": 11.72358495, "tiempo_medio_10": 14.5586337}}, {"type": "Feature", "geometry": {"type": "Polygon", "coordinates": [[[-58.895404147699004, -27.516599779374776], [-58.84476985230099, -27.516599779374776], [-58.84476985230099, -27.471684220625225], [-58.895404147699004, -27.471684220625225], [-58.895404147699004, -27.516599779374776]]]}, "properties": {"provincia": "Corrientes", "localidad": "Corrientes", "tipo": "esp_verde", "tiempo_medio_01": 8.838266937, "tiempo_medio_10": 4.059273159}}, {"type": "Feature", "geometry": {"type": "Polygon", "coordinates": [[[-58.695404147699, -27.516599779374776], [-58.64476985230099, -27.516599779374776], [-58.64476985230099, -27.471684220625225], [-58.695404147699, -27.471684220625225], [-58.695404147699, -27.516599779374776]]]}, "properties": {"provincia": "Corrientes", "localidad": "Corrientes", "tipo": "jardin", "tiempo_medio_01": 161.8525347, "tiempo_medio_10": 8.272872282}}, {"type": "Feature", "geometry": {"type": "Polygon", "coordinates": [[[-58.795404147699, -27.516599779374776], [-58.74476985230099, -27.516599779374776], [-58.74476985230099, -27.471684220625225], [-58.795404147699, -27.471684220625225], [-58.795404147699, -27.516599779374776]]]}, "properties": {"provincia": "Corrientes", "localidad": "Corrientes", "tipo": "salud", "tiempo_medio_01": 20.4997716, "tiempo_medio_10": 5.684003289}}, {"type": "Feature", "geometry": {"type": "Polygon", "coordinates": [[[-59.30606240180612, -29.362513779374776], [-59.254537598193885, -29.362513779374776], [-59.254537598193885, -29.317598220625225], [-59.30606240180612, -29.317598220625225], [-59.30606240180612, -29.362513779374776]]]}, "properties": {"provincia": "Corrientes", "localidad": "Goya", "tipo": "esp_verde", "tiempo_medio_01": 197.5701453, "tiempo_medio_10": 10.11554149}}, {"type": "Feature", "geometry": {"type": "Polygon", "coordinates": [[[-59.10606240180612, -29.362513779374776], [-59.05453759819388, -29.362513779374776], [-59.05453759819388, -29.317598220625225], [-59.10606240180612, -29.317598220625225], [-59.10606240180612, -29.362513779374776]]]}, "properties": {"provincia": "Corrientes", "localidad": "Goya", "tipo": "jardin", "tiempo_medio_01": 240.0, "tiempo_medio_10": 34.85085897}}, {"type": "Feature", "geometry": {"type": "Polygon", "coordinates": [[[-59.20606240180612, -29.362513779374776], [-59.15453759819388, -29.362513779374776], [-59.15453759819388, -29.317598220625225], [-59.20606240180612, -29.317598220625225], [-59.20606240180612, -29.362513779374776]]]}, "properties": {"provincia": "Corrientes", "localidad": "Goya", "tipo": "salud", "tiempo_medio_01": 141.973499, "tiempo_medio_10": 19.19340997}}, {"type": "Feature", "geometry": {"type": "Polygon", "coordinates": [[[-57.4312274249561, -29.532011779374777], [-57.379616575043904, -29.532011779374777], [-57.379616575043904, -29.487096220625226], [-57.4312274249561, -29.487096220625226], [-57.4312274249561, -29.532011779374777]]]}, "properties": {"provincia": "Corrientes", "localidad": "Paso de los Libres", "tipo": "esp_verde", "tiempo_medio_01": 38.16363715, "tiempo_medio_10": 19.07404005}}, {"type": "Feature", "geometry": {"type": "Polygon", "coordinates": [[[-57.231227424956096, -29.532011779374777], [-57.1796165750439, -29.532011779374777], [-57.1796165750439, -29.487096220625226], [-57.231227424956096, -29.487096220625226], [-57.231227424956096, -29.532011779374777]]]}, "properties": {"provincia": "Corrientes", "localidad": "Paso de los Libres", "tipo": "jardin", "tiempo_medio_01": 15.00584644, "tiempo_medio_10": 18.86055654}}, {"type": "Feature", "geometry": {"type": "Polygon", "coordinates": [[[-57.3312274249561, -29.532011779374777], [-57.2796165750439, -29.532011779374777], [-57.2796165750439, -29.487096220625226], [-57.3312274249561, -29.487096220625226], [-57.3312274249561, -29.532011779374777]]]}, "properties": {"provincia": "Corrientes", "localidad": "Paso de los Libres", "tipo": "salud", "tiempo_medio_01": 55.09887524, "tiempo_medio_10": 24.23231743}}, {"type": "Feature", "geometry": {"type": "Polygon", "coordinates": [[[-64.30990170581572, -31.439220779374775], [-64.25727029418428, -31.439220779374775], [-64.25727029418428, -31.394305220625224], [-64.30990170581572, -31.394305220625224], [-64.30990170581572, -31.439220779374775]]]}, "properties": {"provincia": "C\u00f3rdoba", "localidad": "C\u00f3rdoba", "tipo": "esp_verde", "tiempo_medio_01": 6.34671732, "tiempo_medio_10": 6.415219111}}, {"type": "Feature", "geometry": {"type": "Polygon", "coordinates": [[[-64.10990170581573, -31.439220779374775], [-64.05727029418429, -31.439220779374775], [-64.05727029418429, -31.394305220625224], [-64.10990170581573, -31.394305220625224], [-64.10990170581573, -31.439220779374775]]]}, "properties": {"provincia": "C\u00f3rdoba", "localidad": "C\u00f3rdoba", "tipo": "jardin", "tiempo_medio_01": 240.0, "tiempo_medio_10": 109.8453485}}, {"type": "Feature", "geometry": {"type": "Polygon", "coordinates": [[[-64.20990170581572, -31.439220779374775], [-64.15727029418429, -31.439220779374775], [-64.15727029418429, -31.394305220625224], [-64.20990170581572, -31.394305220625224], [-64.20990170581572, -31.439220779374775]]]}, "properties": {"provincia": "C\u00f3rdoba", "localidad": "C\u00f3rdoba", "tipo": "salud", "tiempo_medio_01": 13.56152748, "tiempo_medio_10": 17.70691103}}, {"type": "Feature", "geometry": {"type": "Polygon", "coordinates": [[[-64.48380208204527, -33.13826777937478], [-64.43017591795471, -33.13826777937478], [-64.43017591795471, -33.09335222062523], [-64.48380208204527, -33.09335222062523], [-64.48380208204527, -33.13826777937478]]]}, "properties": {"provincia": "C\u00f3rdoba", "localidad": "R\u00edo Cuarto", "tipo": "esp_verde", "tiempo_medio_01": 10.24030176, "tiempo_medio_10": 5.885490018}}, {"type": "Feature", "geometry": {"type": "Polygon", "coordinates": [[[-64.28380208204528, -33.13826777937478], [-64.23017591795472, -33.13826777937478], [-64.23017591795472, -33.09335222062523], [-64.28380208204528, -33.09335222062523], [-64.28380208204528, -33.13826777937478]]]}, "properties": {"provincia": "C\u00f3rdoba", "localidad": "R\u00edo Cuarto", "tipo": "jardin", "tiempo_medio_01": 205.388746, "tiempo_medio_10": 21.01017594}}, {"type": "Feature", "geometry": {"type": "Polygon", "coordinates": [[[-64.38380208204528, -33.13826777937478], [-64.33017591795472, -33.13826777937478], [-64.33017591795472, -33.09335222062523], [-64.38380208204528, -33.09335222062523], [-64.38380208204528, -33.13826777937478]]]}, "properties": {"provincia": "C\u00f3rdoba", "localidad": "R\u00edo Cuarto", "tipo": "salud", "tiempo_medio_01": 18.89033847, "tiempo_medio_10": 10.92317453}}, {"type": "Feature", "geometry": {"type": "Polygon", "coordinates": [[[-63.363287387927556, -32.425780779374776], [-63.31008861207245, -32.425780779374776], [-63.31008861207245, -32.380865220625225], [-63.363287387927556, -32.380865220625225], [-63.363287387927556, -32.425780779374776]]]}, "properties": {"provincia": "C\u00f3rdoba", "localidad": "Villa Mar\u00eda", "tipo": "esp_verde", "tiempo_medio_01": 9.512455187, "tiempo_medio_10": 4.042130171}}, {"type": "Feature", "geometry": {"type": "Polygon", "coordinates": [[[-63.163287387927554, -32.425780779374776], [-63.110088612072445, -32.425780779374776], [-63.110088612072445, -32.380865220625225], [-63.163287387927554, -32.380865220625225], [-63.163287387927554, -32.425780779374776]]]}, "properties": {"provincia": "C\u00f3rdoba", "localidad": "Villa Mar\u00eda", "tipo": "jardin", "tiempo_medio_01": 75.22986571, "tiempo_medio_10": 18.23366373}}, {"type": "Feature", "geometry": {"type": "Polygon", "coordinates": [[[-63.263287387927555, -32.425780779374776], [-63.21008861207245, -32.425780779374776], [-63.21008861207245, -32.380865220625225], [-63.263287387927555, -32.380865220625225], [-63.263287387927555, -32.425780779374776]]]}, "properties": {"provincia": "C\u00f3rdoba", "localidad": "Villa Mar\u00eda", "tipo": "salud", "tiempo_medio_01": 10.56527209, "tiempo_medio_10": 13.28524235}}, {"type": "Feature", "geometry": {"type": "Polygon", "coordinates": [[[-58.1605243290767, -31.366454779374777], [-58.10793367092331, -31.366454779374777], [-58.10793367092331, -31.321539220625226], [-58.1605243290767, -31.321539220625226], [-58.1605243290767, -31.366454779374777]]]}, "properties": {"provincia": "Entre R\u00edos", "localidad": "Concordia", "tipo": "esp_verde", "tiempo_medio_01": 7.617922448, "tiempo_medio_10": 4.917008689}}, {"type": "Feature", "geometry": {"type": "Polygon", "coordinates": [[[-57.9605243290767, -31.366454779374777], [-57.907933670923306, -31.366454779374777], [-57.907933670923306, -31.321539220625226], [-57.9605243290767, -31.321539220625226], [-57.9605243290767, -31.366454779374777]]]}, "properties": {"provincia": "Entre R\u00edos", "localidad": "Concordia", "tipo": "jardin", "tiempo_medio_01": 240.0, "tiempo_medio_10": 8.610362359}}, {"type": "Feature", "geometry": {"type": "Polygon", "coordinates": [[[-58.0605243290767, -31.366454779374777], [-58.00793367092331, -31.366454779374777], [-58.00793367092331, -31.321539220625226], [-58.0605243290767, -31.321539220625226], [-58.0605243290767, -31.366454779374777]]]}, "properties": {"provincia": "Entre R\u00edos", "localidad": "Concordia", "tipo": "salud", "tiempo_medio_01": 12.50753646, "tiempo_medio_10": 9.19275929}}, {"type": "Feature", "geometry": {"type": "Polygon", "coordinates": [[[-60.62761479082007, -31.771818779374776], [-60.57479520917993, -31.771818779374776], [-60.57479520917993, -31.726903220625225], [-60.62761479082007, -31.726903220625225], [-60.62761479082007, -31.771818779374776]]]}, "properties": {"provincia": "Entre R\u00edos", "localidad": "Paran\u00e1", "tipo": "esp_verde", "tiempo_medio_01": 8.151694422, "tiempo_medio_10": 5.046604523}}, {"type": "Feature", "geometry": {"type": "Polygon", "coordinates": [[[-60.427614790820066, -31.771818779374776], [-60.37479520917993, -31.771818779374776], [-60.37479520917993, -31.726903220625225], [-60.427614790820066, -31.726903220625225], [-60.427614790820066, -31.771818779374776]]]}, "properties": {"provincia": "Entre R\u00edos", "localidad": "Paran\u00e1", "tipo": "jardin", "tiempo_medio_01": 240.0, "tiempo_medio_10": 203.758072}}, {"type": "Feature", "geometry": {"type": "Polygon", "coordinates": [[[-60.52761479082007, -31.771818779374776], [-60.47479520917993, -31.771818779374776], [-60.47479520917993, -31.726903220625225], [-60.52761479082007, -31.726903220625225], [-60.52761479082007, -31.771818779374776]]]}, "properties": {"provincia": "Entre R\u00edos", "localidad": "Paran\u00e1", "tipo": "salud", "tiempo_medio_01": 11.26449667, "tiempo_medio_10": 8.567185684}}, {"type": "Feature", "geometry": {"type": "Polygon", "coordinates": [[[-58.54756522951177, -33.05010777937478], [-58.49399277048824, -33.05010777937478], [-58.49399277048824, -33.005192220625226], [-58.54756522951177, -33.005192220625226], [-58.54756522951177, -33.05010777937478]]]}, "properties": {"provincia": "Entre R\u00edos", "localidad": "San Jos\u00e9 de Gualeguaych\u00fa", "tipo": "esp_verde", "tiempo_medio_01": 8.456809804, "tiempo_medio_10": 3.803395627}}, {"type": "Feature", "geometry": {"type": "Polygon", "coordinates": [[[-58.347565229511765, -33.05010777937478], [-58.29399277048824, -33.05010777937478], [-58.29399277048824, -33.005192220625226], [-58.347565229511765, -33.005192220625226], [-58.347565229511765, -33.05010777937478]]]}, "properties": {"provincia": "Entre R\u00edos", "localidad": "San Jos\u00e9 de Gualeguaych\u00fa", "tipo": "jardin", "tiempo_medio_01": 240.0, "tiempo_medio_10": 163.6042827}}, {"type": "Feature", "geometry": {"type": "Polygon", "coordinates": [[[-58.44756522951177, -33.05010777937478], [-58.39399277048824, -33.05010777937478], [-58.39399277048824, -33.005192220625226], [-58.44756522951177, -33.005192220625226], [-58.44756522951177, -33.05010777937478]]]}, "properties": {"provincia": "Entre R\u00edos", "localidad": "San Jos\u00e9 de Gualeguaych\u00fa", "tipo": "salud", "tiempo_medio_01": 11.69075124, "tiempo_medio_10": 8.83750327}}, {"type": "Feature", "geometry": {"type": "Polygon", "coordinates": [[[-57.96481936114826, -25.468048779374776], [-57.91507863885174, -25.468048779374776], [-57.91507863885174, -25.423133220625225], [-57.96481936114826, -25.423133220625225], [-57.96481936114826, -25.468048779374776]]]}, "properties": {"provincia": "Formosa", "localidad": "Clorinda", "tipo": "esp_verde", "tiempo_medio_01": 78.53065138, "tiempo_medio_10": 3.717941812}}, {"type": "Feature", "geometry": {"type": "Polygon", "coordinates": [[[-57.764819361148255, -25.468048779374776], [-57.715078638851736, -25.468048779374776], [-57.715078638851736, -25.423133220625225], [-57.764819361148255, -25.423133220625225], [-57.764819361148255, -25.468048779374776]]]}, "properties": {"provincia": "Formosa", "localidad": "Clorinda", "tipo": "jardin", "tiempo_medio_01": 240.0, "tiempo_medio_10": 6.713524671}}, {"type": "Feature", "geometry": {"type": "Polygon", "coordinates": [[[-57.86481936114826, -25.468048779374776], [-57.81507863885174, -25.468048779374776], [-57.81507863885174, -25.423133220625225], [-57.86481936114826, -25.423133220625225], [-57.86481936114826, -25.468048779374776]]]}, "properties": {"provincia": "Formosa", "localidad": "Clorinda", "tipo": "salud", "tiempo_medio_01": 92.91707631, "tiempo_medio_10": 20.77735797}}, {"type": "Feature", "geometry": {"type": "Polygon", "coordinates": [[[-58.32133589198484, -26.056855779374775], [-58.27134810801517, -26.056855779374775], [-58.27134810801517, -26.011940220625224], [-58.32133589198484, -26.011940220625224], [-58.32133589198484, -26.056855779374775]]]}, "properties": {"provincia": "Formosa", "localidad": "Formosa", "tipo": "esp_verde", "tiempo_medio_01": 42.35286875, "tiempo_medio_10": 4.880884177}}, {"type": "Feature", "geometry": {"type": "Polygon", "coordinates": [[[-58.121335891984835, -26.056855779374775], [-58.071348108015165, -26.056855779374775], [-58.071348108015165, -26.011940220625224], [-58.121335891984835, -26.011940220625224], [-58.121335891984835, -26.056855779374775]]]}, "properties": {"provincia": "Formosa", "localidad": "Formosa", "tipo": "jardin", "tiempo_medio_01": 240.0, "tiempo_medio_10": 61.25729083}}, {"type": "Feature", "geometry": {"type": "Polygon", "coordinates": [[[-58.221335891984836, -26.056855779374775], [-58.17134810801517, -26.056855779374775], [-58.17134810801517, -26.011940220625224], [-58.221335891984836, -26.011940220625224], [-58.221335891984836, -26.056855779374775]]]}, "properties": {"provincia": "Formosa", "localidad": "Formosa", "tipo": "salud", "tiempo_medio_01": 44.76422263, "tiempo_medio_10": 9.522774649}}, {"type": "Feature", "geometry": {"type": "Polygon", "coordinates": [[[-59.14220091571144, -25.668177779374776], [-59.09237708428856, -25.668177779374776], [-59.09237708428856, -25.623262220625225], [-59.14220091571144, -25.623262220625225], [-59.14220091571144, -25.668177779374776]]]}, "properties": {"provincia": "Formosa", "localidad": "Piran\u00e9", "tipo": "esp_verde", "tiempo_medio_01": 139.3879191, "tiempo_medio_10": 4.90312095}}, {"type": "Feature", "geometry": {"type": "Polygon", "coordinates": [[[-58.94220091571144, -25.668177779374776], [-58.892377084288555, -25.668177779374776], [-58.892377084288555, -25.623262220625225], [-58.94220091571144, -25.623262220625225], [-58.94220091571144, -25.668177779374776]]]}, "properties": {"provincia": "Formosa", "localidad": "Piran\u00e9", "tipo": "jardin", "tiempo_medio_01": 240.0, "tiempo_medio_10": 9.924196064}}, {"type": "Feature", "geometry": {"type": "Polygon", "coordinates": [[[-59.04220091571144, -25.668177779374776], [-58.992377084288556, -25.668177779374776], [-58.992377084288556, -25.623262220625225], [-59.04220091571144, -25.623262220625225], [-59.04220091571144, -25.668177779374776]]]}, "properties": {"provincia": "Formosa", "localidad": "Piran\u00e9", "tipo": "salud", "tiempo_medio_01": 94.09329857, "tiempo_medio_10": 10.14605472}}, {"type": "Feature", "geometry": {"type": "Polygon", "coordinates": [[[-65.25107153587354, -24.217385779374776], [-65.20183046412646, -24.217385779374776], [-65.20183046412646, -24.172470220625225], [-65.25107153587354, -24.172470220625225], [-65.25107153587354, -24.217385779374776]]]}, "properties": {"provincia": "Jujuy", "localidad": "Palpala", "tipo": "esp_verde", "tiempo_medio_01": 13.37506496, "tiempo_medio_10": 8.296396602}}, {"type": "Feature", "geometry": {"type": "Polygon", "coordinates": [[[-65.05107153587355, -24.217385779374776], [-65.00183046412647, -24.217385779374776], [-65.00183046412647, -24.172470220625225], [-65.05107153587355, -24.172470220625225], [-65.05107153587355, -24.217385779374776]]]}, "properties": {"provincia": "Jujuy", "localidad": "Palpala", "tipo": "jardin", "tiempo_medio_01": 240.0, "tiempo_medio_10": 15.66329258}}, {"type": "Feature", "geometry": {"type": "Polygon", "coordinates": [[[-65.15107153587354, -24.217385779374776], [-65.10183046412646, -24.217385779374776], [-65.10183046412646, -24.172470220625225], [-65.15107153587354, -24.172470220625225], [-65.15107153587354, -24.217385779374776]]]}, "properties": {"provincia": "Jujuy", "localidad": "Palpala", "tipo": "salud", "tiempo_medio_01": 19.36965829, "tiempo_medio_10": 12.51943846}}, {"type": "Feature", "geometry": {"type": "Polygon", "coordinates": [[[-64.91278382683531, -24.337623779374777], [-64.86349617316468, -24.337623779374777], [-64.86349617316468, -24.292708220625226], [-64.91278382683531, -24.292708220625226], [-64.91278382683531, -24.337623779374777]]]}, "properties": {"provincia": "Jujuy", "localidad": "San Pedro de Jujuy", "tipo": "esp_verde", "tiempo_medio_01": 41.28005069, "tiempo_medio_10": 2.190960985}}, {"type": "Feature", "geometry": {"type": "Polygon", "coordinates": [[[-64.71278382683532, -24.337623779374777], [-64.66349617316469, -24.337623779374777], [-64.66349617316469, -24.292708220625226], [-64.71278382683532, -24.292708220625226], [-64.71278382683532, -24.337623779374777]]]}, "properties": {"provincia": "Jujuy", "localidad": "San Pedro de Jujuy", "tipo": "jardin", "tiempo_medio_01": 240.0, "tiempo_medio_10": 6.033645134}}, {"type": "Feature", "geometry": {"type": "Polygon", "coordinates": [[[-64.81278382683531, -24.337623779374777], [-64.76349617316468, -24.337623779374777], [-64.76349617316468, -24.292708220625226], [-64.81278382683531, -24.292708220625226], [-64.81278382683531, -24.337623779374777]]]}, "properties": {"provincia": "Jujuy", "localidad": "San Pedro de Jujuy", "tipo": "salud", "tiempo_medio_01": 25.24680384, "tiempo_medio_10": 8.077775823}}, {"type": "Feature", "geometry": {"type": "Polygon", "coordinates": [[[-65.54348043180852, -24.216846779374777], [-65.49423956819146, -24.216846779374777], [-65.49423956819146, -24.171931220625225], [-65.54348043180852, -24.171931220625225], [-65.54348043180852, -24.216846779374777]]]}, "properties": {"provincia": "Jujuy", "localidad": "San Salvador de Jujuy", "tipo": "esp_verde", "tiempo_medio_01": 9.789808207, "tiempo_medio_10": 10.81134814}}, {"type": "Feature", "geometry": {"type": "Polygon", "coordinates": [[[-65.34348043180853, -24.216846779374777], [-65.29423956819147, -24.216846779374777], [-65.29423956819147, -24.171931220625225], [-65.34348043180853, -24.171931220625225], [-65.34348043180853, -24.216846779374777]]]}, "properties": {"provincia": "Jujuy", "localidad": "San Salvador de Jujuy", "tipo": "jardin", "tiempo_medio_01": 187.9259613, "tiempo_medio_10": 14.15230438}}, {"type": "Feature", "geometry": {"type": "Polygon", "coordinates": [[[-65.44348043180852, -24.216846779374777], [-65.39423956819147, -24.216846779374777], [-65.39423956819147, -24.171931220625225], [-65.44348043180852, -24.171931220625225], [-65.44348043180852, -24.216846779374777]]]}, "properties": {"provincia": "Jujuy", "localidad": "San Salvador de Jujuy", "tipo": "salud", "tiempo_medio_01": 12.32499287, "tiempo_medio_10": 18.59362386}}, {"type": "Feature", "geometry": {"type": "Polygon", "coordinates": [[[-63.74290441353213, -35.60069077937477], [-63.687679586467866, -35.60069077937477], [-63.687679586467866, -35.55577522062522], [-63.74290441353213, -35.55577522062522], [-63.74290441353213, -35.60069077937477]]]}, "properties": {"provincia": "La Pampa", "localidad": "General Pico", "tipo": "esp_verde", "tiempo_medio_01": 51.17954186, "tiempo_medio_10": 9.373243941}}, {"type": "Feature", "geometry": {"type": "Polygon", "coordinates": [[[-63.54290441353213, -35.60069077937477], [-63.48767958646786, -35.60069077937477], [-63.48767958646786, -35.55577522062522], [-63.54290441353213, -35.55577522062522], [-63.54290441353213, -35.60069077937477]]]}, "properties": {"provincia": "La Pampa", "localidad": "General Pico", "tipo": "jardin", "tiempo_medio_01": 139.1516937, "tiempo_medio_10": 19.62947292}}, {"type": "Feature", "geometry": {"type": "Polygon", "coordinates": [[[-63.64290441353213, -35.60069077937477], [-63.587679586467864, -35.60069077937477], [-63.587679586467864, -35.55577522062522], [-63.64290441353213, -35.55577522062522], [-63.64290441353213, -35.60069077937477]]]}, "properties": {"provincia": "La Pampa", "localidad": "General Pico", "tipo": "salud", "tiempo_medio_01": 61.48542894, "tiempo_medio_10": 15.29688915}}, {"type": "Feature", "geometry": {"type": "Polygon", "coordinates": [[[-64.5352357663983, -36.553561779374775], [-64.47933823360168, -36.553561779374775], [-64.47933823360168, -36.508646220625224], [-64.5352357663983, -36.508646220625224], [-64.5352357663983, -36.553561779374775]]]}, "properties": {"provincia": "La Pampa", "localidad": "Santa Rosa", "tipo": "esp_verde", "tiempo_medio_01": 6.41294632, "tiempo_medio_10": 5.931447437}}, {"type": "Feature", "geometry": {"type": "Polygon", "coordinates": [[[-64.33523576639831, -36.553561779374775], [-64.27933823360169, -36.553561779374775], [-64.27933823360169, -36.508646220625224], [-64.33523576639831, -36.508646220625224], [-64.33523576639831, -36.553561779374775]]]}, "properties": {"provincia": "La Pampa", "localidad": "Santa Rosa", "tipo": "jardin", "tiempo_medio_01": 240.0, "tiempo_medio_10": 24.01249523}}, {"type": "Feature", "geometry": {"type": "Polygon", "coordinates": [[[-64.4352357663983, -36.553561779374775], [-64.37933823360169, -36.553561779374775], [-64.37933823360169, -36.508646220625224], [-64.4352357663983, -36.508646220625224], [-64.4352357663983, -36.553561779374775]]]}, "properties": {"provincia": "La Pampa", "localidad": "Santa Rosa", "tipo": "salud", "tiempo_medio_01": 11.54802295, "tiempo_medio_10": 17.71948529}}, {"type": "Feature", "geometry": {"type": "Polygon", "coordinates": [[[-64.85051938501394, -36.704146779374774], [-64.79451261498605, -36.704146779374774], [-64.79451261498605, -36.65923122062522], [-64.85051938501394, -36.65923122062522], [-64.85051938501394, -36.704146779374774]]]}, "properties": {"provincia": "La Pampa", "localidad": "Toay", "tipo": "esp_verde", "tiempo_medio_01": 9.827036847, "tiempo_medio_10": 79.85422877}}, {"type": "Feature", "geometry": {"type": "Polygon", "coordinates": [[[-64.65051938501395, -36.704146779374774], [-64.59451261498606, -36.704146779374774], [-64.59451261498606, -36.65923122062522], [-64.65051938501395, -36.65923122062522], [-64.65051938501395, -36.704146779374774]]]}, "properties": {"provincia": "La Pampa", "localidad": "Toay", "tipo": "jardin", "tiempo_medio_01": 240.0, "tiempo_medio_10": 240.0}}, {"type": "Feature", "geometry": {"type": "Polygon", "coordinates": [[[-64.75051938501394, -36.704146779374774], [-64.69451261498605, -36.704146779374774], [-64.69451261498605, -36.65923122062522], [-64.75051938501394, -36.65923122062522], [-64.75051938501394, -36.704146779374774]]]}, "properties": {"provincia": "La Pampa", "localidad": "Toay", "tipo": "salud", "tiempo_medio_01": 12.15741044, "tiempo_medio_10": 108.9975563}}, {"type": "Feature", "geometry": {"type": "Polygon", "coordinates": [[[-66.84525645733153, -28.555066779374776], [-66.79413154266847, -28.555066779374776], [-66.79413154266847, -28.510151220625225], [-66.84525645733153, -28.510151220625225], [-66.84525645733153, -28.555066779374776]]]}, "properties": {"provincia": "La Rioja", "localidad": "Arauco", "tipo": "esp_verde", "tiempo_medio_01": 108.5220486, "tiempo_medio_10": 6.953407407}}, {"type": "Feature", "geometry": {"type": "Polygon", "coordinates": [[[-66.64525645733154, -28.555066779374776], [-66.59413154266848, -28.555066779374776], [-66.59413154266848, -28.510151220625225], [-66.64525645733154, -28.510151220625225], [-66.64525645733154, -28.555066779374776]]]}, "properties": {"provincia": "La Rioja", "localidad": "Arauco", "tipo": "jardin", "tiempo_medio_01": 240.0, "tiempo_medio_10": 26.95740741}}, {"type": "Feature", "geometry": {"type": "Polygon", "coordinates": [[[-66.74525645733154, -28.555066779374776], [-66.69413154266847, -28.555066779374776], [-66.69413154266847, -28.510151220625225], [-66.74525645733154, -28.510151220625225], [-66.74525645733154, -28.555066779374776]]]}, "properties": {"provincia": "La Rioja", "localidad": "Arauco", "tipo": "salud", "tiempo_medio_01": 87.35776929, "tiempo_medio_10": 19.51118519}}, {"type": "Feature", "geometry": {"type": "Polygon", "coordinates": [[[-66.47876286556506, -29.482681779374776], [-66.42717713443493, -29.482681779374776], [-66.42717713443493, -29.437766220625225], [-66.47876286556506, -29.437766220625225], [-66.47876286556506, -29.482681779374776]]]}, "properties": {"provincia": "La Rioja", "localidad": "Capital", "tipo": "esp_verde", "tiempo_medio_01": 112.1001804, "tiempo_medio_10": 3.603487131}}, {"type": "Feature", "geometry": {"type": "Polygon", "coordinates": [[[-66.27876286556507, -29.482681779374776], [-66.22717713443494, -29.482681779374776], [-66.22717713443494, -29.437766220625225], [-66.27876286556507, -29.437766220625225], [-66.27876286556507, -29.482681779374776]]]}, "properties": {"provincia": "La Rioja", "localidad": "Capital", "tipo": "jardin", "tiempo_medio_01": 240.0, "tiempo_medio_10": 20.79846993}}, {"type": "Feature", "geometry": {"type": "Polygon", "coordinates": [[[-66.37876286556506, -29.482681779374776], [-66.32717713443493, -29.482681779374776], [-66.32717713443493, -29.437766220625225], [-66.37876286556506, -29.437766220625225], [-66.37876286556506, -29.482681779374776]]]}, "properties": {"provincia": "La Rioja", "localidad": "Capital", "tipo": "salud", "tiempo_medio_01": 240.0, "tiempo_medio_10": 17.23983157}}, {"type": "Feature", "geometry": {"type": "Polygon", "coordinates": [[[-67.554416523581, -29.418309779374777], [-67.502863476419, -29.418309779374777], [-67.502863476419, -29.373394220625226], [-67.554416523581, -29.373394220625226], [-67.554416523581, -29.418309779374777]]]}, "properties": {"provincia": "La Rioja", "localidad": "Chilecito", "tipo": "esp_verde", "tiempo_medio_01": 15.96142864, "tiempo_medio_10": 4.041148365}}, {"type": "Feature", "geometry": {"type": "Polygon", "coordinates": [[[-67.35441652358101, -29.418309779374777], [-67.302863476419, -29.418309779374777], [-67.302863476419, -29.373394220625226], [-67.35441652358101, -29.373394220625226], [-67.35441652358101, -29.418309779374777]]]}, "properties": {"provincia": "La Rioja", "localidad": "Chilecito", "tipo": "jardin", "tiempo_medio_01": 240.0, "tiempo_medio_10": 21.04673442}}, {"type": "Feature", "geometry": {"type": "Polygon", "coordinates": [[[-67.454416523581, -29.418309779374777], [-67.402863476419, -29.418309779374777], [-67.402863476419, -29.373394220625226], [-67.454416523581, -29.373394220625226], [-67.454416523581, -29.418309779374777]]]}, "properties": {"provincia": "La Rioja", "localidad": "Chilecito", "tipo": "salud", "tiempo_medio_01": 27.90580618, "tiempo_medio_10": 8.928874686}}, {"type": "Feature", "geometry": {"type": "Polygon", "coordinates": [[[-68.85898719569764, -32.91464077937478], [-68.80549680430235, -32.91464077937478], [-68.80549680430235, -32.86972522062523], [-68.85898719569764, -32.86972522062523], [-68.85898719569764, -32.91464077937478]]]}, "properties": {"provincia": "Mendoza", "localidad": "Guaymall\u00e9n", "tipo": "esp_verde", "tiempo_medio_01": 12.76571803, "tiempo_medio_10": 5.159563986}}, {"type": "Feature", "geometry": {"type": "Polygon", "coordinates": [[[-68.65898719569765, -32.91464077937478], [-68.60549680430236, -32.91464077937478], [-68.60549680430236, -32.86972522062523], [-68.65898719569765, -32.86972522062523], [-68.65898719569765, -32.91464077937478]]]}, "properties": {"provincia": "Mendoza", "localidad": "Guaymall\u00e9n", "tipo": "jardin", "tiempo_medio_01": 240.0, "tiempo_medio_10": 17.81524174}}, {"type": "Feature", "geometry": {"type": "Polygon", "coordinates": [[[-68.75898719569764, -32.91464077937478], [-68.70549680430236, -32.91464077937478], [-68.70549680430236, -32.86972522062523], [-68.75898719569764, -32.86972522062523], [-68.75898719569764, -32.91464077937478]]]}, "properties": {"provincia": "Mendoza", "localidad": "Guaymall\u00e9n", "tipo": "salud", "tiempo_medio_01": 22.08733639, "tiempo_medio_10": 17.84489193}}, {"type": "Feature", "geometry": {"type": "Polygon", "coordinates": [[[-69.4017622857374, -32.540494779374775], [-69.3484957142626, -32.540494779374775], [-69.3484957142626, -32.495579220625224], [-69.4017622857374, -32.495579220625224], [-69.4017622857374, -32.540494779374775]]]}, "properties": {"provincia": "Mendoza", "localidad": "Las Heras", "tipo": "esp_verde", "tiempo_medio_01": 42.63302618, "tiempo_medio_10": 6.591596759}}, {"type": "Feature", "geometry": {"type": "Polygon", "coordinates": [[[-69.20176228573742, -32.540494779374775], [-69.14849571426261, -32.540494779374775], [-69.14849571426261, -32.495579220625224], [-69.20176228573742, -32.495579220625224], [-69.20176228573742, -32.540494779374775]]]}, "properties": {"provincia": "Mendoza", "localidad": "Las Heras", "tipo": "jardin", "tiempo_medio_01": 240.0, "tiempo_medio_10": 25.07849073}}, {"type": "Feature", "geometry": {"type": "Polygon", "coordinates": [[[-69.30176228573741, -32.540494779374775], [-69.2484957142626, -32.540494779374775], [-69.2484957142626, -32.495579220625224], [-69.30176228573741, -32.495579220625224], [-69.30176228573741, -32.540494779374775]]]}, "properties": {"provincia": "Mendoza", "localidad": "Las Heras", "tipo": "salud", "tiempo_medio_01": 21.18610273, "tiempo_medio_10": 20.73773406}}, {"type": "Feature", "geometry": {"type": "Polygon", "coordinates": [[[-68.78715780805437, -33.012492779374774], [-68.7336081919456, -33.012492779374774], [-68.7336081919456, -32.96757722062522], [-68.78715780805437, -32.96757722062522], [-68.78715780805437, -33.012492779374774]]]}, "properties": {"provincia": "Mendoza", "localidad": "Maip\u00fa", "tipo": "esp_verde", "tiempo_medio_01": 46.69720167, "tiempo_medio_10": 3.452478462}}, {"type": "Feature", "geometry": {"type": "Polygon", "coordinates": [[[-68.58715780805439, -33.012492779374774], [-68.53360819194562, -33.012492779374774], [-68.53360819194562, -32.96757722062522], [-68.58715780805439, -32.96757722062522], [-68.58715780805439, -33.012492779374774]]]}, "properties": {"provincia": "Mendoza", "localidad": "Maip\u00fa", "tipo": "jardin", "tiempo_medio_01": 240.0, "tiempo_medio_10": 16.84702839}}, {"type": "Feature", "geometry": {"type": "Polygon", "coordinates": [[[-68.68715780805438, -33.012492779374774], [-68.63360819194561, -33.012492779374774], [-68.63360819194561, -32.96757722062522], [-68.68715780805438, -32.96757722062522], [-68.68715780805438, -33.012492779374774]]]}, "properties": {"provincia": "Mendoza", "localidad": "Maip\u00fa", "tipo": "salud", "tiempo_medio_01": 46.94073447, "tiempo_medio_10": 16.15817539}}, {"type": "Feature", "geometry": {"type": "Polygon", "coordinates": [[[-54.74011042298236, -26.444869779374777], [-54.689955577017635, -26.444869779374777], [-54.689955577017635, -26.399954220625226], [-54.74011042298236, -26.399954220625226], [-54.74011042298236, -26.444869779374777]]]}, "properties": {"provincia": "Misiones", "localidad": "Eldorado", "tipo": "esp_verde", "tiempo_medio_01": 18.56714237, "tiempo_medio_10": 2.93070959}}, {"type": "Feature", "geometry": {"type": "Polygon", "coordinates": [[[-54.54011042298236, -26.444869779374777], [-54.48995557701763, -26.444869779374777], [-54.48995557701763, -26.399954220625226], [-54.54011042298236, -26.399954220625226], [-54.54011042298236, -26.444869779374777]]]}, "properties": {"provincia": "Misiones", "localidad": "Eldorado", "tipo": "jardin", "tiempo_medio_01": 240.0, "tiempo_medio_10": 177.2599897}}, {"type": "Feature", "geometry": {"type": "Polygon", "coordinates": [[[-54.64011042298236, -26.444869779374777], [-54.58995557701763, -26.444869779374777], [-54.58995557701763, -26.399954220625226], [-54.64011042298236, -26.399954220625226], [-54.64011042298236, -26.444869779374777]]]}, "properties": {"provincia": "Misiones", "localidad": "Eldorado", "tipo": "salud", "tiempo_medio_01": 30.76322749, "tiempo_medio_10": 14.19879737}}, {"type": "Feature", "geometry": {"type": "Polygon", "coordinates": [[[-55.2436205898607, -27.474992779374777], [-55.19300541013931, -27.474992779374777], [-55.19300541013931, -27.430077220625225], [-55.2436205898607, -27.430077220625225], [-55.2436205898607, -27.474992779374777]]]}, "properties": {"provincia": "Misiones", "localidad": "Ober\u00e1", "tipo": "esp_verde", "tiempo_medio_01": 13.23908485, "tiempo_medio_10": 4.216223095}}, {"type": "Feature", "geometry": {"type": "Polygon", "coordinates": [[[-55.043620589860694, -27.474992779374777], [-54.993005410139304, -27.474992779374777], [-54.993005410139304, -27.430077220625225], [-55.043620589860694, -27.430077220625225], [-55.043620589860694, -27.474992779374777]]]}, "properties": {"provincia": "Misiones", "localidad": "Ober\u00e1", "tipo": "jardin", "tiempo_medio_01": 240.0, "tiempo_medio_10": 8.665468056}}, {"type": "Feature", "geometry": {"type": "Polygon", "coordinates": [[[-55.143620589860696, -27.474992779374777], [-55.093005410139305, -27.474992779374777], [-55.093005410139305, -27.430077220625225], [-55.143620589860696, -27.430077220625225], [-55.143620589860696, -27.474992779374777]]]}, "properties": {"provincia": "Misiones", "localidad": "Ober\u00e1", "tipo": "salud", "tiempo_medio_01": 16.50527567, "tiempo_medio_10": 12.03099761}}, {"type": "Feature", "geometry": {"type": "Polygon", "coordinates": [[[-56.084395246056836, -27.456053779374777], [-56.03378875394316, -27.456053779374777], [-56.03378875394316, -27.411138220625226], [-56.084395246056836, -27.411138220625226], [-56.084395246056836, -27.456053779374777]]]}, "properties": {"provincia": "Misiones", "localidad": "Posadas", "tipo": "esp_verde", "tiempo_medio_01": 14.66503826, "tiempo_medio_10": 2.836608415}}, {"type": "Feature", "geometry": {"type": "Polygon", "coordinates": [[[-55.88439524605683, -27.456053779374777], [-55.83378875394316, -27.456053779374777], [-55.83378875394316, -27.411138220625226], [-55.88439524605683, -27.411138220625226], [-55.88439524605683, -27.456053779374777]]]}, "properties": {"provincia": "Misiones", "localidad": "Posadas", "tipo": "jardin", "tiempo_medio_01": 240.0, "tiempo_medio_10": 7.480388664}}, {"type": "Feature", "geometry": {"type": "Polygon", "coordinates": [[[-55.984395246056835, -27.456053779374777], [-55.93378875394316, -27.456053779374777], [-55.93378875394316, -27.411138220625226], [-55.984395246056835, -27.411138220625226], [-55.984395246056835, -27.456053779374777]]]}, "properties": {"provincia": "Misiones", "localidad": "Posadas", "tipo": "salud", "tiempo_medio_01": 11.98316853, "tiempo_medio_10": 8.406526093}}, {"type": "Feature", "geometry": {"type": "Polygon", "coordinates": [[[-68.30423948485816, -38.819988779374775], [-68.24660851514184, -38.819988779374775], [-68.24660851514184, -38.775073220625224], [-68.30423948485816, -38.775073220625224], [-68.30423948485816, -38.819988779374775]]]}, "properties": {"provincia": "Neuqu\u00e9n", "localidad": "Centenario", "tipo": "esp_verde", "tiempo_medio_01": 38.85956074, "tiempo_medio_10": 17.27517218}}, {"type": "Feature", "geometry": {"type": "Polygon", "coordinates": [[[-68.10423948485817, -38.819988779374775], [-68.04660851514186, -38.819988779374775], [-68.04660851514186, -38.775073220625224], [-68.10423948485817, -38.775073220625224], [-68.10423948485817, -38.819988779374775]]]}, "properties": {"provincia": "Neuqu\u00e9n", "localidad": "Centenario", "tipo": "jardin", "tiempo_medio_01": 240.0, "tiempo_medio_10": 16.81438232}}, {"type": "Feature", "geometry": {"type": "Polygon", "coordinates": [[[-68.20423948485816, -38.819988779374775], [-68.14660851514185, -38.819988779374775], [-68.14660851514185, -38.775073220625224], [-68.20423948485816, -38.775073220625224], [-68.20423948485816, -38.819988779374775]]]}, "properties": {"provincia": "Neuqu\u00e9n", "localidad": "Centenario", "tipo": "salud", "tiempo_medio_01": 14.32850067, "tiempo_medio_10": 17.87803273}}, {"type": "Feature", "geometry": {"type": "Polygon", "coordinates": [[[-68.29852384393598, -38.90725077937478], [-68.24082215606401, -38.90725077937478], [-68.24082215606401, -38.862335220625226], [-68.29852384393598, -38.862335220625226], [-68.29852384393598, -38.90725077937478]]]}, "properties": {"provincia": "Neuqu\u00e9n", "localidad": "Neuqu\u00e9n", "tipo": "esp_verde", "tiempo_medio_01": 43.41632164, "tiempo_medio_10": 5.840927176}}, {"type": "Feature", "geometry": {"type": "Polygon", "coordinates": [[[-68.098523843936, -38.90725077937478], [-68.04082215606402, -38.90725077937478], [-68.04082215606402, -38.862335220625226], [-68.098523843936, -38.862335220625226], [-68.098523843936, -38.90725077937478]]]}, "properties": {"provincia": "Neuqu\u00e9n", "localidad": "Neuqu\u00e9n", "tipo": "jardin", "tiempo_medio_01": 240.0, "tiempo_medio_10": 28.06964023}}, {"type": "Feature", "geometry": {"type": "Polygon", "coordinates": [[[-68.19852384393599, -38.90725077937478], [-68.14082215606402, -38.90725077937478], [-68.14082215606402, -38.862335220625226], [-68.19852384393599, -38.862335220625226], [-68.19852384393599, -38.90725077937478]]]}, "properties": {"provincia": "Neuqu\u00e9n", "localidad": "Neuqu\u00e9n", "tipo": "salud", "tiempo_medio_01": 17.00374382, "tiempo_medio_10": 19.18506376}}, {"type": "Feature", "geometry": {"type": "Polygon", "coordinates": [[[-68.40627677106404, -38.970995779374775], [-68.34852322893595, -38.970995779374775], [-68.34852322893595, -38.926080220625224], [-68.40627677106404, -38.926080220625224], [-68.40627677106404, -38.970995779374775]]]}, "properties": {"provincia": "Neuqu\u00e9n", "localidad": "Plottier", "tipo": "esp_verde", "tiempo_medio_01": 11.8929319, "tiempo_medio_10": 24.1215141}}, {"type": "Feature", "geometry": {"type": "Polygon", "coordinates": [[[-68.20627677106405, -38.970995779374775], [-68.14852322893596, -38.970995779374775], [-68.14852322893596, -38.926080220625224], [-68.20627677106405, -38.926080220625224], [-68.20627677106405, -38.970995779374775]]]}, "properties": {"provincia": "Neuqu\u00e9n", "localidad": "Plottier", "tipo": "jardin", "tiempo_medio_01": 181.5092998, "tiempo_medio_10": 240.0}}, {"type": "Feature", "geometry": {"type": "Polygon", "coordinates": [[[-68.30627677106405, -38.970995779374775], [-68.24852322893595, -38.970995779374775], [-68.24852322893595, -38.926080220625224], [-68.30627677106405, -38.926080220625224], [-68.30627677106405, -38.970995779374775]]]}, "properties": {"provincia": "Neuqu\u00e9n", "localidad": "Plottier", "tipo": "salud", "tiempo_medio_01": 17.81375394, "tiempo_medio_10": 39.15815363}}, {"type": "Feature", "geometry": {"type": "Polygon", "coordinates": [[[-68.82786246940451, -39.47925377937477], [-68.76968953059547, -39.47925377937477], [-68.76968953059547, -39.43433822062522], [-68.82786246940451, -39.43433822062522], [-68.82786246940451, -39.47925377937477]]]}, "properties": {"provincia": "R\u00edo Negro", "localidad": "Cipolletti", "tipo": "esp_verde", "tiempo_medio_01": 92.68535185, "tiempo_medio_10": 3.247859554}}, {"type": "Feature", "geometry": {"type": "Polygon", "coordinates": [[[-68.62786246940452, -39.47925377937477], [-68.56968953059548, -39.47925377937477], [-68.56968953059548, -39.43433822062522], [-68.62786246940452, -39.43433822062522], [-68.62786246940452, -39.47925377937477]]]}, "properties": {"provincia": "R\u00edo Negro", "localidad": "Cipolletti", "tipo": "jardin", "tiempo_medio_01": 240.0, "tiempo_medio_10": 13.7962461}}, {"type": "Feature", "geometry": {"type": "Polygon", "coordinates": [[[-68.72786246940451, -39.47925377937477], [-68.66968953059548, -39.47925377937477], [-68.66968953059548, -39.43433822062522], [-68.72786246940451, -39.43433822062522], [-68.72786246940451, -39.47925377937477]]]}, "properties": {"provincia": "R\u00edo Negro", "localidad": "Cipolletti", "tipo": "salud", "tiempo_medio_01": 98.58244297, "tiempo_medio_10": 16.74581267}}, {"type": "Feature", "geometry": {"type": "Polygon", "coordinates": [[[-67.74729110758338, -39.033093779374774], [-67.6894868924166, -39.033093779374774], [-67.6894868924166, -38.98817822062522], [-67.74729110758338, -38.98817822062522], [-67.74729110758338, -39.033093779374774]]]}, "properties": {"provincia": "R\u00edo Negro", "localidad": "General Roca", "tipo": "esp_verde", "tiempo_medio_01": 14.74165012, "tiempo_medio_10": 3.761467403}}, {"type": "Feature", "geometry": {"type": "Polygon", "coordinates": [[[-67.54729110758339, -39.033093779374774], [-67.48948689241661, -39.033093779374774], [-67.48948689241661, -38.98817822062522], [-67.54729110758339, -38.98817822062522], [-67.54729110758339, -39.033093779374774]]]}, "properties": {"provincia": "R\u00edo Negro", "localidad": "General Roca", "tipo": "jardin", "tiempo_medio_01": 11.94866467, "tiempo_medio_10": 240.0}}, {"type": "Feature", "geometry": {"type": "Polygon", "coordinates": [[[-67.64729110758338, -39.033093779374774], [-67.5894868924166, -39.033093779374774], [-67.5894868924166, -38.98817822062522], [-67.64729110758338, -38.98817822062522], [-67.64729110758338, -39.033093779374774]]]}, "properties": {"provincia": "R\u00edo Negro", "localidad": "General Roca", "tipo": "salud", "tiempo_medio_01": 10.84606096, "tiempo_medio_10": 19.84900854}}, {"type": "Feature", "geometry": {"type": "Polygon", "coordinates": [[[-71.7530333854572, -40.99704877937477], [-71.69354261454279, -40.99704877937477], [-71.69354261454279, -40.95213322062522], [-71.7530333854572, -40.95213322062522], [-71.7530333854572, -40.99704877937477]]]}, "properties": {"provincia": "R\u00edo Negro", "localidad": "San Carlos De Bariloche", "tipo": "esp_verde", "tiempo_medio_01": 12.83695596, "tiempo_medio_10": 12.86549188}}, {"type": "Feature", "geometry": {"type": "Polygon", "coordinates": [[[-71.55303338545721, -40.99704877937477], [-71.4935426145428, -40.99704877937477], [-71.4935426145428, -40.95213322062522], [-71.55303338545721, -40.95213322062522], [-71.55303338545721, -40.99704877937477]]]}, "properties": {"provincia": "R\u00edo Negro", "localidad": "San Carlos De Bariloche", "tipo": "jardin", "tiempo_medio_01": 15.34588283, "tiempo_medio_10": 240.0}}, {"type": "Feature", "geometry": {"type": "Polygon", "coordinates": [[[-71.6530333854572, -40.99704877937477], [-71.5935426145428, -40.99704877937477], [-71.5935426145428, -40.95213322062522], [-71.6530333854572, -40.95213322062522], [-71.6530333854572, -40.99704877937477]]]}, "properties": {"provincia": "R\u00edo Negro", "localidad": "San Carlos De Bariloche", "tipo": "salud", "tiempo_medio_01": 9.217106679, "tiempo_medio_10": 27.6187129}}, {"type": "Feature", "geometry": {"type": "Polygon", "coordinates": [[[-65.35989908903565, -24.931349779374777], [-65.31037691096435, -24.931349779374777], [-65.31037691096435, -24.886434220625226], [-65.35989908903565, -24.886434220625226], [-65.35989908903565, -24.931349779374777]]]}, "properties": {"provincia": "Salta", "localidad": "Salta", "tipo": "esp_verde", "tiempo_medio_01": 9.972420205, "tiempo_medio_10": 5.839967399}}, {"type": "Feature", "geometry": {"type": "Polygon", "coordinates": [[[-65.15989908903566, -24.931349779374777], [-65.11037691096436, -24.931349779374777], [-65.11037691096436, -24.886434220625226], [-65.15989908903566, -24.886434220625226], [-65.15989908903566, -24.931349779374777]]]}, "properties": {"provincia": "Salta", "localidad": "Salta", "tipo": "jardin", "tiempo_medio_01": 183.2084324, "tiempo_medio_10": 238.3945803}}, {"type": "Feature", "geometry": {"type": "Polygon", "coordinates": [[[-65.25989908903566, -24.931349779374777], [-65.21037691096436, -24.931349779374777], [-65.21037691096436, -24.886434220625226], [-65.25989908903566, -24.886434220625226], [-65.25989908903566, -24.931349779374777]]]}, "properties": {"provincia": "Salta", "localidad": "Salta", "tipo": "salud", "tiempo_medio_01": 12.1527564, "tiempo_medio_10": 18.45652931}}, {"type": "Feature", "geometry": {"type": "Polygon", "coordinates": [[[-64.73155506580214, -23.115297779374774], [-64.68272693419785, -23.115297779374774], [-64.68272693419785, -23.070382220625223], [-64.73155506580214, -23.070382220625223], [-64.73155506580214, -23.115297779374774]]]}, "properties": {"provincia": "Salta", "localidad": "San Ram\u00f3n De La Nueva Or\u00e1n", "tipo": "esp_verde", "tiempo_medio_01": 121.9273816, "tiempo_medio_10": 6.835084612}}, {"type": "Feature", "geometry": {"type": "Polygon", "coordinates": [[[-64.53155506580215, -23.115297779374774], [-64.48272693419786, -23.115297779374774], [-64.48272693419786, -23.070382220625223], [-64.53155506580215, -23.070382220625223], [-64.53155506580215, -23.115297779374774]]]}, "properties": {"provincia": "Salta", "localidad": "San Ram\u00f3n De La Nueva Or\u00e1n", "tipo": "jardin", "tiempo_medio_01": 77.7346668, "tiempo_medio_10": 20.10672413}}, {"type": "Feature", "geometry": {"type": "Polygon", "coordinates": [[[-64.63155506580215, -23.115297779374774], [-64.58272693419785, -23.115297779374774], [-64.58272693419785, -23.070382220625223], [-64.63155506580215, -23.070382220625223], [-64.63155506580215, -23.115297779374774]]]}, "properties": {"provincia": "Salta", "localidad": "San Ram\u00f3n De La Nueva Or\u00e1n", "tipo": "salud", "tiempo_medio_01": 62.99359534, "tiempo_medio_10": 11.20609046}}, {"type": "Feature", "geometry": {"type": "Polygon", "coordinates": [[[-63.576268661583704, -22.542569779374777], [-63.5276453384163, -22.542569779374777], [-63.5276453384163, -22.497654220625225], [-63.576268661583704, -22.497654220625225], [-63.576268661583704, -22.542569779374777]]]}, "properties": {"provincia": "Salta", "localidad": "Tartagal", "tipo": "esp_verde", "tiempo_medio_01": 240.0, "tiempo_medio_10": 6.355603416}}, {"type": "Feature", "geometry": {"type": "Polygon", "coordinates": [[[-63.3762686615837, -22.542569779374777], [-63.327645338416296, -22.542569779374777], [-63.327645338416296, -22.497654220625225], [-63.3762686615837, -22.497654220625225], [-63.3762686615837, -22.542569779374777]]]}, "properties": {"provincia": "Salta", "localidad": "Tartagal", "tipo": "jardin", "tiempo_medio_01": 240.0, "tiempo_medio_10": 240.0}}, {"type": "Feature", "geometry": {"type": "Polygon", "coordinates": [[[-63.4762686615837, -22.542569779374777], [-63.4276453384163, -22.542569779374777], [-63.4276453384163, -22.497654220625225], [-63.4762686615837, -22.497654220625225], [-63.4762686615837, -22.542569779374777]]]}, "properties": {"provincia": "Salta", "localidad": "Tartagal", "tipo": "salud", "tiempo_medio_01": 240.0, "tiempo_medio_10": 14.82739658}}, {"type": "Feature", "geometry": {"type": "Polygon", "coordinates": [[[-68.66061642967539, -31.555528779374775], [-68.6079195703246, -31.555528779374775], [-68.6079195703246, -31.510613220625224], [-68.66061642967539, -31.510613220625224], [-68.66061642967539, -31.555528779374775]]]}, "properties": {"provincia": "San Juan", "localidad": "Capital", "tipo": "esp_verde", "tiempo_medio_01": 6.452492236, "tiempo_medio_10": 4.614239445}}, {"type": "Feature", "geometry": {"type": "Polygon", "coordinates": [[[-68.4606164296754, -31.555528779374775], [-68.40791957032461, -31.555528779374775], [-68.40791957032461, -31.510613220625224], [-68.4606164296754, -31.510613220625224], [-68.4606164296754, -31.555528779374775]]]}, "properties": {"provincia": "San Juan", "localidad": "Capital", "tipo": "jardin", "tiempo_medio_01": 240.0, "tiempo_medio_10": 11.63365385}}, {"type": "Feature", "geometry": {"type": "Polygon", "coordinates": [[[-68.56061642967539, -31.555528779374775], [-68.5079195703246, -31.555528779374775], [-68.5079195703246, -31.510613220625224], [-68.56061642967539, -31.510613220625224], [-68.56061642967539, -31.555528779374775]]]}, "properties": {"provincia": "San Juan", "localidad": "Capital", "tipo": "salud", "tiempo_medio_01": 10.05092587, "tiempo_medio_10": 15.91592973}}, {"type": "Feature", "geometry": {"type": "Polygon", "coordinates": [[[-68.64809470844511, -31.510394779374774], [-68.59542329155488, -31.510394779374774], [-68.59542329155488, -31.465479220625223], [-68.64809470844511, -31.465479220625223], [-68.64809470844511, -31.510394779374774]]]}, "properties": {"provincia": "San Juan", "localidad": "Chimbas", "tipo": "esp_verde", "tiempo_medio_01": 14.9312429, "tiempo_medio_10": 2.822932686}}, {"type": "Feature", "geometry": {"type": "Polygon", "coordinates": [[[-68.44809470844513, -31.510394779374774], [-68.39542329155489, -31.510394779374774], [-68.39542329155489, -31.465479220625223], [-68.44809470844513, -31.465479220625223], [-68.44809470844513, -31.510394779374774]]]}, "properties": {"provincia": "San Juan", "localidad": "Chimbas", "tipo": "jardin", "tiempo_medio_01": 240.0, "tiempo_medio_10": 13.3197895}}, {"type": "Feature", "geometry": {"type": "Polygon", "coordinates": [[[-68.54809470844512, -31.510394779374774], [-68.49542329155489, -31.510394779374774], [-68.49542329155489, -31.465479220625223], [-68.54809470844512, -31.465479220625223], [-68.54809470844512, -31.510394779374774]]]}, "properties": {"provincia": "San Juan", "localidad": "Chimbas", "tipo": "salud", "tiempo_medio_01": 20.95028071, "tiempo_medio_10": 15.54667453}}, {"type": "Feature", "geometry": {"type": "Polygon", "coordinates": [[[-68.59391291461758, -31.709047779374774], [-68.54112908538242, -31.709047779374774], [-68.54112908538242, -31.664132220625223], [-68.59391291461758, -31.664132220625223], [-68.59391291461758, -31.709047779374774]]]}, "properties": {"provincia": "San Juan", "localidad": "Rawson", "tipo": "esp_verde", "tiempo_medio_01": 13.70009284, "tiempo_medio_10": 2.751254774}}, {"type": "Feature", "geometry": {"type": "Polygon", "coordinates": [[[-68.39391291461759, -31.709047779374774], [-68.34112908538243, -31.709047779374774], [-68.34112908538243, -31.664132220625223], [-68.39391291461759, -31.664132220625223], [-68.39391291461759, -31.709047779374774]]]}, "properties": {"provincia": "San Juan", "localidad": "Rawson", "tipo": "jardin", "tiempo_medio_01": 240.0, "tiempo_medio_10": 33.14735572}}, {"type": "Feature", "geometry": {"type": "Polygon", "coordinates": [[[-68.49391291461758, -31.709047779374774], [-68.44112908538243, -31.709047779374774], [-68.44112908538243, -31.664132220625223], [-68.49391291461758, -31.664132220625223], [-68.49391291461758, -31.709047779374774]]]}, "properties": {"provincia": "San Juan", "localidad": "Rawson", "tipo": "salud", "tiempo_medio_01": 19.12126717, "tiempo_medio_10": 22.96185948}}, {"type": "Feature", "geometry": {"type": "Polygon", "coordinates": [[[-66.4703546462604, -33.32597077937478], [-66.41661335373959, -33.32597077937478], [-66.41661335373959, -33.28105522062523], [-66.4703546462604, -33.28105522062523], [-66.4703546462604, -33.32597077937478]]]}, "properties": {"provincia": "San Luis", "localidad": "San Luis", "tipo": "esp_verde", "tiempo_medio_01": 24.8434137, "tiempo_medio_10": 6.769911028}}, {"type": "Feature", "geometry": {"type": "Polygon", "coordinates": [[[-66.27035464626042, -33.32597077937478], [-66.2166133537396, -33.32597077937478], [-66.2166133537396, -33.28105522062523], [-66.27035464626042, -33.28105522062523], [-66.27035464626042, -33.32597077937478]]]}, "properties": {"provincia": "San Luis", "localidad": "San Luis", "tipo": "jardin", "tiempo_medio_01": 36.55673059, "tiempo_medio_10": 9.829059338}}, {"type": "Feature", "geometry": {"type": "Polygon", "coordinates": [[[-66.37035464626041, -33.32597077937478], [-66.3166133537396, -33.32597077937478], [-66.3166133537396, -33.28105522062523], [-66.37035464626041, -33.28105522062523], [-66.37035464626041, -33.32597077937478]]]}, "properties": {"provincia": "San Luis", "localidad": "San Luis", "tipo": "salud", "tiempo_medio_01": 36.99357161, "tiempo_medio_10": 15.90652364}}, {"type": "Feature", "geometry": {"type": "Polygon", "coordinates": [[[-65.60078884650912, -33.69007977937478], [-65.54682115349087, -33.69007977937478], [-65.54682115349087, -33.645164220625226], [-65.60078884650912, -33.645164220625226], [-65.60078884650912, -33.69007977937478]]]}, "properties": {"provincia": "San Luis", "localidad": "Villa Mercedes", "tipo": "esp_verde", "tiempo_medio_01": 12.58592044, "tiempo_medio_10": 6.846931541}}, {"type": "Feature", "geometry": {"type": "Polygon", "coordinates": [[[-65.40078884650913, -33.69007977937478], [-65.34682115349088, -33.69007977937478], [-65.34682115349088, -33.645164220625226], [-65.40078884650913, -33.645164220625226], [-65.40078884650913, -33.69007977937478]]]}, "properties": {"provincia": "San Luis", "localidad": "Villa Mercedes", "tipo": "jardin", "tiempo_medio_01": 240.0, "tiempo_medio_10": 13.51800307}}, {"type": "Feature", "geometry": {"type": "Polygon", "coordinates": [[[-65.50078884650912, -33.69007977937478], [-65.44682115349087, -33.69007977937478], [-65.44682115349087, -33.645164220625226], [-65.50078884650912, -33.645164220625226], [-65.50078884650912, -33.69007977937478]]]}, "properties": {"provincia": "San Luis", "localidad": "Villa Mercedes", "tipo": "salud", "tiempo_medio_01": 15.98066771, "tiempo_medio_10": 18.86886714}}, {"type": "Feature", "geometry": {"type": "Polygon", "coordinates": [[[-65.13376528475284, -32.37445877937478], [-65.08059671524715, -32.37445877937478], [-65.08059671524715, -32.329543220625226], [-65.13376528475284, -32.329543220625226], [-65.13376528475284, -32.37445877937478]]]}, "properties": {"provincia": "San Luis", "localidad": "Villa de Merlo", "tipo": "esp_verde", "tiempo_medio_01": 14.97189897, "tiempo_medio_10": 4.228043478}}, {"type": "Feature", "geometry": {"type": "Polygon", "coordinates": [[[-64.93376528475285, -32.37445877937478], [-64.88059671524717, -32.37445877937478], [-64.88059671524717, -32.329543220625226], [-64.93376528475285, -32.329543220625226], [-64.93376528475285, -32.37445877937478]]]}, "properties": {"provincia": "San Luis", "localidad": "Villa de Merlo", "tipo": "jardin", "tiempo_medio_01": 240.0, "tiempo_medio_10": 22.02183794}}, {"type": "Feature", "geometry": {"type": "Polygon", "coordinates": [[[-65.03376528475285, -32.37445877937478], [-64.98059671524716, -32.37445877937478], [-64.98059671524716, -32.329543220625226], [-65.03376528475285, -32.329543220625226], [-65.03376528475285, -32.37445877937478]]]}, "properties": {"provincia": "San Luis", "localidad": "Villa de Merlo", "tipo": "salud", "tiempo_medio_01": 21.04835992, "tiempo_medio_10": 15.47776186}}, {"type": "Feature", "geometry": {"type": "Polygon", "coordinates": [[[-67.66962891717512, -46.48176677937477], [-67.60442708282488, -46.48176677937477], [-67.60442708282488, -46.43685122062522], [-67.66962891717512, -46.43685122062522], [-67.66962891717512, -46.48176677937477]]]}, "properties": {"provincia": "Santa Cruz", "localidad": "Caleta Olivia", "tipo": "esp_verde", "tiempo_medio_01": 6.286196239, "tiempo_medio_10": 2.882063674}}, {"type": "Feature", "geometry": {"type": "Polygon", "coordinates": [[[-67.46962891717513, -46.48176677937477], [-67.4044270828249, -46.48176677937477], [-67.4044270828249, -46.43685122062522], [-67.46962891717513, -46.43685122062522], [-67.46962891717513, -46.48176677937477]]]}, "properties": {"provincia": "Santa Cruz", "localidad": "Caleta Olivia", "tipo": "jardin", "tiempo_medio_01": 12.8851023, "tiempo_medio_10": 10.57047259}}, {"type": "Feature", "geometry": {"type": "Polygon", "coordinates": [[[-67.56962891717512, -46.48176677937477], [-67.50442708282489, -46.48176677937477], [-67.50442708282489, -46.43685122062522], [-67.56962891717512, -46.43685122062522], [-67.56962891717512, -46.48176677937477]]]}, "properties": {"provincia": "Santa Cruz", "localidad": "Caleta Olivia", "tipo": "salud", "tiempo_medio_01": 15.00974632, "tiempo_medio_10": 18.50371049}}, {"type": "Feature", "geometry": {"type": "Polygon", "coordinates": [[[-68.09073472620508, -46.81910577937477], [-68.02512527379491, -46.81910577937477], [-68.02512527379491, -46.77419022062522], [-68.09073472620508, -46.77419022062522], [-68.09073472620508, -46.81910577937477]]]}, "properties": {"provincia": "Santa Cruz", "localidad": "Pico Truncado", "tipo": "esp_verde", "tiempo_medio_01": 14.72919892, "tiempo_medio_10": 6.558060606}}, {"type": "Feature", "geometry": {"type": "Polygon", "coordinates": [[[-67.8907347262051, -46.81910577937477], [-67.82512527379492, -46.81910577937477], [-67.82512527379492, -46.77419022062522], [-67.8907347262051, -46.77419022062522], [-67.8907347262051, -46.81910577937477]]]}, "properties": {"provincia": "Santa Cruz", "localidad": "Pico Truncado", "tipo": "jardin", "tiempo_medio_01": 16.81631325, "tiempo_medio_10": 12.99949495}}, {"type": "Feature", "geometry": {"type": "Polygon", "coordinates": [[[-67.99073472620509, -46.81910577937477], [-67.92512527379492, -46.81910577937477], [-67.92512527379492, -46.77419022062522], [-67.99073472620509, -46.77419022062522], [-67.99073472620509, -46.81910577937477]]]}, "properties": {"provincia": "Santa Cruz", "localidad": "Pico Truncado", "tipo": "salud", "tiempo_medio_01": 22.61110064, "tiempo_medio_10": 15.57630303}}, {"type": "Feature", "geometry": {"type": "Polygon", "coordinates": [[[-69.41031886808895, -51.662072779374775], [-69.33794513191103, -51.662072779374775], [-69.33794513191103, -51.617157220625224], [-69.41031886808895, -51.617157220625224], [-69.41031886808895, -51.662072779374775]]]}, "properties": {"provincia": "Santa Cruz", "localidad": "R\u00edo Gallegos", "tipo": "esp_verde", "tiempo_medio_01": 16.48430061, "tiempo_medio_10": 9.52390331}}, {"type": "Feature", "geometry": {"type": "Polygon", "coordinates": [[[-69.21031886808896, -51.662072779374775], [-69.13794513191104, -51.662072779374775], [-69.13794513191104, -51.617157220625224], [-69.21031886808896, -51.617157220625224], [-69.21031886808896, -51.662072779374775]]]}, "properties": {"provincia": "Santa Cruz", "localidad": "R\u00edo Gallegos", "tipo": "jardin", "tiempo_medio_01": 172.3102945, "tiempo_medio_10": 240.0}}, {"type": "Feature", "geometry": {"type": "Polygon", "coordinates": [[[-69.31031886808896, -51.662072779374775], [-69.23794513191103, -51.662072779374775], [-69.23794513191103, -51.617157220625224], [-69.31031886808896, -51.617157220625224], [-69.31031886808896, -51.662072779374775]]]}, "properties": {"provincia": "Santa Cruz", "localidad": "R\u00edo Gallegos", "tipo": "salud", "tiempo_medio_01": 44.45004417, "tiempo_medio_10": 14.05983925}}, {"type": "Feature", "geometry": {"type": "Polygon", "coordinates": [[[-61.61382798254961, -31.264786779374777], [-61.56129401745039, -31.264786779374777], [-61.56129401745039, -31.219871220625226], [-61.61382798254961, -31.219871220625226], [-61.61382798254961, -31.264786779374777]]]}, "properties": {"provincia": "Santa Fe", "localidad": "Rafaela", "tipo": "esp_verde", "tiempo_medio_01": 4.688434334, "tiempo_medio_10": 4.205182732}}, {"type": "Feature", "geometry": {"type": "Polygon", "coordinates": [[[-61.413827982549606, -31.264786779374777], [-61.36129401745039, -31.264786779374777], [-61.36129401745039, -31.219871220625226], [-61.413827982549606, -31.219871220625226], [-61.413827982549606, -31.264786779374777]]]}, "properties": {"provincia": "Santa Fe", "localidad": "Rafaela", "tipo": "jardin", "tiempo_medio_01": 8.337242381, "tiempo_medio_10": 18.6188987}}, {"type": "Feature", "geometry": {"type": "Polygon", "coordinates": [[[-61.51382798254961, -31.264786779374777], [-61.46129401745039, -31.264786779374777], [-61.46129401745039, -31.219871220625226], [-61.51382798254961, -31.219871220625226], [-61.51382798254961, -31.264786779374777]]]}, "properties": {"provincia": "Santa Fe", "localidad": "Rafaela", "tipo": "salud", "tiempo_medio_01": 5.26607724, "tiempo_medio_10": 14.79830635}}, {"type": "Feature", "geometry": {"type": "Polygon", "coordinates": [[[-60.82530443385455, -32.97166077937477], [-60.77177956614546, -32.97166077937477], [-60.77177956614546, -32.92674522062522], [-60.82530443385455, -32.92674522062522], [-60.82530443385455, -32.97166077937477]]]}, "properties": {"provincia": "Santa Fe", "localidad": "Rosario", "tipo": "esp_verde", "tiempo_medio_01": 5.519889425, "tiempo_medio_10": 5.015866114}}, {"type": "Feature", "geometry": {"type": "Polygon", "coordinates": [[[-60.625304433854545, -32.97166077937477], [-60.57177956614546, -32.97166077937477], [-60.57177956614546, -32.92674522062522], [-60.625304433854545, -32.92674522062522], [-60.625304433854545, -32.97166077937477]]]}, "properties": {"provincia": "Santa Fe", "localidad": "Rosario", "tipo": "jardin", "tiempo_medio_01": 240.0, "tiempo_medio_10": 10.80767081}}, {"type": "Feature", "geometry": {"type": "Polygon", "coordinates": [[[-60.72530443385455, -32.97166077937477], [-60.67177956614546, -32.97166077937477], [-60.67177956614546, -32.92674522062522], [-60.72530443385455, -32.92674522062522], [-60.72530443385455, -32.97166077937477]]]}, "properties": {"provincia": "Santa Fe", "localidad": "Rosario", "tipo": "salud", "tiempo_medio_01": 8.405829898, "tiempo_medio_10": 8.578963227}}, {"type": "Feature", "geometry": {"type": "Polygon", "coordinates": [[[-60.76584992463914, -31.677405779374777], [-60.71308407536087, -31.677405779374777], [-60.71308407536087, -31.632490220625225], [-60.76584992463914, -31.632490220625225], [-60.76584992463914, -31.677405779374777]]]}, "properties": {"provincia": "Santa Fe", "localidad": "Santa Fe", "tipo": "esp_verde", "tiempo_medio_01": 11.08498835, "tiempo_medio_10": 3.496567243}}, {"type": "Feature", "geometry": {"type": "Polygon", "coordinates": [[[-60.56584992463914, -31.677405779374777], [-60.513084075360865, -31.677405779374777], [-60.513084075360865, -31.632490220625225], [-60.56584992463914, -31.632490220625225], [-60.56584992463914, -31.677405779374777]]]}, "properties": {"provincia": "Santa Fe", "localidad": "Santa Fe", "tipo": "jardin", "tiempo_medio_01": 240.0, "tiempo_medio_10": 8.620410951}}, {"type": "Feature", "geometry": {"type": "Polygon", "coordinates": [[[-60.66584992463914, -31.677405779374777], [-60.61308407536087, -31.677405779374777], [-60.61308407536087, -31.632490220625225], [-60.66584992463914, -31.632490220625225], [-60.66584992463914, -31.677405779374777]]]}, "properties": {"provincia": "Santa Fe", "localidad": "Santa Fe", "tipo": "salud", "tiempo_medio_01": 12.86291676, "tiempo_medio_10": 7.747250629}}, {"type": "Feature", "geometry": {"type": "Polygon", "coordinates": [[[-64.36904148277083, -27.764329779374776], [-64.31829251722917, -27.764329779374776], [-64.31829251722917, -27.719414220625225], [-64.36904148277083, -27.719414220625225], [-64.36904148277083, -27.764329779374776]]]}, "properties": {"provincia": "Santiago del Estero", "localidad": "La Banda", "tipo": "esp_verde", "tiempo_medio_01": 14.7934762, "tiempo_medio_10": 7.692702236}}, {"type": "Feature", "geometry": {"type": "Polygon", "coordinates": [[[-64.16904148277084, -27.764329779374776], [-64.11829251722918, -27.764329779374776], [-64.11829251722918, -27.719414220625225], [-64.16904148277084, -27.719414220625225], [-64.16904148277084, -27.764329779374776]]]}, "properties": {"provincia": "Santiago del Estero", "localidad": "La Banda", "tipo": "jardin", "tiempo_medio_01": 26.67366604, "tiempo_medio_10": 17.02615113}}, {"type": "Feature", "geometry": {"type": "Polygon", "coordinates": [[[-64.26904148277083, -27.764329779374776], [-64.21829251722917, -27.764329779374776], [-64.21829251722917, -27.719414220625225], [-64.26904148277083, -27.719414220625225], [-64.26904148277083, -27.764329779374776]]]}, "properties": {"provincia": "Santiago del Estero", "localidad": "La Banda", "tipo": "salud", "tiempo_medio_01": 11.15043075, "tiempo_medio_10": 13.15691219}}, {"type": "Feature", "geometry": {"type": "Polygon", "coordinates": [[[-64.39718205532814, -27.822512779374776], [-64.34640594467184, -27.822512779374776], [-64.34640594467184, -27.777597220625225], [-64.39718205532814, -27.777597220625225], [-64.39718205532814, -27.822512779374776]]]}, "properties": {"provincia": "Santiago del Estero", "localidad": "Santiago del Estero", "tipo": "esp_verde", "tiempo_medio_01": 16.03288315, "tiempo_medio_10": 2.634575487}}, {"type": "Feature", "geometry": {"type": "Polygon", "coordinates": [[[-64.19718205532816, -27.822512779374776], [-64.14640594467186, -27.822512779374776], [-64.14640594467186, -27.777597220625225], [-64.19718205532816, -27.777597220625225], [-64.19718205532816, -27.822512779374776]]]}, "properties": {"provincia": "Santiago del Estero", "localidad": "Santiago del Estero", "tipo": "jardin", "tiempo_medio_01": 20.19252756, "tiempo_medio_10": 19.34405142}}, {"type": "Feature", "geometry": {"type": "Polygon", "coordinates": [[[-64.29718205532815, -27.822512779374776], [-64.24640594467185, -27.822512779374776], [-64.24640594467185, -27.777597220625225], [-64.29718205532815, -27.777597220625225], [-64.29718205532815, -27.822512779374776]]]}, "properties": {"provincia": "Santiago del Estero", "localidad": "Santiago del Estero", "tipo": "salud", "tiempo_medio_01": 16.34439742, "tiempo_medio_10": 14.94528802}}, {"type": "Feature", "geometry": {"type": "Polygon", "coordinates": [[[-64.9925260232231, -27.524753779374777], [-64.94188797677687, -27.524753779374777], [-64.94188797677687, -27.479838220625226], [-64.9925260232231, -27.479838220625226], [-64.9925260232231, -27.524753779374777]]]}, "properties": {"provincia": "Santiago del Estero", "localidad": "Termas de R\u00edo Hondo", "tipo": "esp_verde", "tiempo_medio_01": 17.09712309, "tiempo_medio_10": 3.981747397}}, {"type": "Feature", "geometry": {"type": "Polygon", "coordinates": [[[-64.79252602322312, -27.524753779374777], [-64.74188797677688, -27.524753779374777], [-64.74188797677688, -27.479838220625226], [-64.79252602322312, -27.479838220625226], [-64.79252602322312, -27.524753779374777]]]}, "properties": {"provincia": "Santiago del Estero", "localidad": "Termas de R\u00edo Hondo", "tipo": "jardin", "tiempo_medio_01": 40.55973211, "tiempo_medio_10": 12.75294251}}, {"type": "Feature", "geometry": {"type": "Polygon", "coordinates": [[[-64.89252602322311, -27.524753779374777], [-64.84188797677687, -27.524753779374777], [-64.84188797677687, -27.479838220625226], [-64.89252602322311, -27.479838220625226], [-64.89252602322311, -27.524753779374777]]]}, "properties": {"provincia": "Santiago del Estero", "localidad": "Termas de R\u00edo Hondo", "tipo": "salud", "tiempo_medio_01": 16.27762564, "tiempo_medio_10": 5.233807153}}, {"type": "Feature", "geometry": {"type": "Polygon", "coordinates": [[[-67.93651250440193, -53.881359779374776], [-67.86035549559806, -53.881359779374776], [-67.86035549559806, -53.836444220625225], [-67.93651250440193, -53.836444220625225], [-67.93651250440193, -53.881359779374776]]]}, "properties": {"provincia": "Tierra del Fuego", "localidad": "R\u00edo Grande", "tipo": "esp_verde", "tiempo_medio_01": 11.88820844, "tiempo_medio_10": 4.675289994}}, {"type": "Feature", "geometry": {"type": "Polygon", "coordinates": [[[-67.73651250440194, -53.881359779374776], [-67.66035549559807, -53.881359779374776], [-67.66035549559807, -53.836444220625225], [-67.73651250440194, -53.836444220625225], [-67.73651250440194, -53.881359779374776]]]}, "properties": {"provincia": "Tierra del Fuego", "localidad": "R\u00edo Grande", "tipo": "jardin", "tiempo_medio_01": 240.0, "tiempo_medio_10": 17.88582696}}, {"type": "Feature", "geometry": {"type": "Polygon", "coordinates": [[[-67.83651250440194, -53.881359779374776], [-67.76035549559806, -53.881359779374776], [-67.76035549559806, -53.836444220625225], [-67.83651250440194, -53.836444220625225], [-67.83651250440194, -53.881359779374776]]]}, "properties": {"provincia": "Tierra del Fuego", "localidad": "R\u00edo Grande", "tipo": "salud", "tiempo_medio_01": 13.27205275, "tiempo_medio_10": 10.5565631}}, {"type": "Feature", "geometry": {"type": "Polygon", "coordinates": [[[-67.33454521623969, -54.599186779374776], [-67.25705278376029, -54.599186779374776], [-67.25705278376029, -54.554271220625225], [-67.33454521623969, -54.554271220625225], [-67.33454521623969, -54.599186779374776]]]}, "properties": {"provincia": "Tierra del Fuego", "localidad": "Tolhuin", "tipo": "esp_verde", "tiempo_medio_01": 11.06530837, "tiempo_medio_10": 21.17}}, {"type": "Feature", "geometry": {"type": "Polygon", "coordinates": [[[-67.1345452162397, -54.599186779374776], [-67.0570527837603, -54.599186779374776], [-67.0570527837603, -54.554271220625225], [-67.1345452162397, -54.554271220625225], [-67.1345452162397, -54.599186779374776]]]}, "properties": {"provincia": "Tierra del Fuego", "localidad": "Tolhuin", "tipo": "jardin", "tiempo_medio_01": 240.0, "tiempo_medio_10": 32.95}}, {"type": "Feature", "geometry": {"type": "Polygon", "coordinates": [[[-67.2345452162397, -54.599186779374776], [-67.15705278376029, -54.599186779374776], [-67.15705278376029, -54.554271220625225], [-67.2345452162397, -54.554271220625225], [-67.2345452162397, -54.599186779374776]]]}, "properties": {"provincia": "Tierra del Fuego", "localidad": "Tolhuin", "tipo": "salud", "tiempo_medio_01": 240.0, "tiempo_medio_10": 240.0}}, {"type": "Feature", "geometry": {"type": "Polygon", "coordinates": [[[-68.49221477273188, -54.826413779374775], [-68.4142872272681, -54.826413779374775], [-68.4142872272681, -54.781498220625224], [-68.49221477273188, -54.781498220625224], [-68.49221477273188, -54.826413779374775]]]}, "properties": {"provincia": "Tierra del Fuego", "localidad": "Ushuaia", "tipo": "esp_verde", "tiempo_medio_01": 29.14634416, "tiempo_medio_10": 13.7925784}}, {"type": "Feature", "geometry": {"type": "Polygon", "coordinates": [[[-68.2922147727319, -54.826413779374775], [-68.21428722726812, -54.826413779374775], [-68.21428722726812, -54.781498220625224], [-68.2922147727319, -54.781498220625224], [-68.2922147727319, -54.826413779374775]]]}, "properties": {"provincia": "Tierra del Fuego", "localidad": "Ushuaia", "tipo": "jardin", "tiempo_medio_01": 20.3071567, "tiempo_medio_10": 240.0}}, {"type": "Feature", "geometry": {"type": "Polygon", "coordinates": [[[-68.39221477273189, -54.826413779374775], [-68.31428722726811, -54.826413779374775], [-68.31428722726811, -54.781498220625224], [-68.39221477273189, -54.781498220625224], [-68.39221477273189, -54.826413779374775]]]}, "properties": {"provincia": "Tierra del Fuego", "localidad": "Ushuaia", "tipo": "salud", "tiempo_medio_01": 16.25123419, "tiempo_medio_10": 16.67624913}}, {"type": "Feature", "geometry": {"type": "Polygon", "coordinates": [[[-65.34395208887717, -26.857274779374777], [-65.29361591112281, -26.857274779374777], [-65.29361591112281, -26.812359220625225], [-65.34395208887717, -26.812359220625225], [-65.34395208887717, -26.857274779374777]]]}, "properties": {"provincia": "Tucum\u00e1n", "localidad": "San Miguel de Tucum\u00e1n", "tipo": "esp_verde", "tiempo_medio_01": 13.38356979, "tiempo_medio_10": 3.486744738}}, {"type": "Feature", "geometry": {"type": "Polygon", "coordinates": [[[-65.14395208887719, -26.857274779374777], [-65.09361591112282, -26.857274779374777], [-65.09361591112282, -26.812359220625225], [-65.14395208887719, -26.812359220625225], [-65.14395208887719, -26.857274779374777]]]}, "properties": {"provincia": "Tucum\u00e1n", "localidad": "San Miguel de Tucum\u00e1n", "tipo": "jardin", "tiempo_medio_01": 240.0, "tiempo_medio_10": 8.481323219}}, {"type": "Feature", "geometry": {"type": "Polygon", "coordinates": [[[-65.24395208887718, -26.857274779374777], [-65.19361591112282, -26.857274779374777], [-65.19361591112282, -26.812359220625225], [-65.24395208887718, -26.812359220625225], [-65.24395208887718, -26.857274779374777]]]}, "properties": {"provincia": "Tucum\u00e1n", "localidad": "San Miguel de Tucum\u00e1n", "tipo": "salud", "tiempo_medio_01": 10.10571904, "tiempo_medio_10": 7.045471496}}, {"type": "Feature", "geometry": {"type": "Polygon", "coordinates": [[[-65.39693860476724, -26.764874779374775], [-65.34664339523273, -26.764874779374775], [-65.34664339523273, -26.719959220625224], [-65.39693860476724, -26.719959220625224], [-65.39693860476724, -26.764874779374775]]]}, "properties": {"provincia": "Tucum\u00e1n", "localidad": "Taf\u00ed Viejo", "tipo": "esp_verde", "tiempo_medio_01": 8.426550269, "tiempo_medio_10": 3.451388962}}, {"type": "Feature", "geometry": {"type": "Polygon", "coordinates": [[[-65.19693860476725, -26.764874779374775], [-65.14664339523274, -26.764874779374775], [-65.14664339523274, -26.719959220625224], [-65.19693860476725, -26.719959220625224], [-65.19693860476725, -26.764874779374775]]]}, "properties": {"provincia": "Tucum\u00e1n", "localidad": "Taf\u00ed Viejo", "tipo": "jardin", "tiempo_medio_01": 240.0, "tiempo_medio_10": 19.54729557}}, {"type": "Feature", "geometry": {"type": "Polygon", "coordinates": [[[-65.29693860476725, -26.764874779374775], [-65.24664339523274, -26.764874779374775], [-65.24664339523274, -26.719959220625224], [-65.29693860476725, -26.719959220625224], [-65.29693860476725, -26.764874779374775]]]}, "properties": {"provincia": "Tucum\u00e1n", "localidad": "Taf\u00ed Viejo", "tipo": "salud", "tiempo_medio_01": 9.694658647, "tiempo_medio_10": 18.00917085}}, {"type": "Feature", "geometry": {"type": "Polygon", "coordinates": [[[-65.43046409637118, -26.830289779374777], [-65.3801399036288, -26.830289779374777], [-65.3801399036288, -26.785374220625226], [-65.43046409637118, -26.785374220625226], [-65.43046409637118, -26.830289779374777]]]}, "properties": {"provincia": "Tucum\u00e1n", "localidad": "Yerba Buena", "tipo": "esp_verde", "tiempo_medio_01": NaN, "tiempo_medio_10": 14.51594977}}, {"type": "Feature", "geometry": {"type": "Polygon", "coordinates": [[[-65.2304640963712, -26.830289779374777], [-65.18013990362881, -26.830289779374777], [-65.18013990362881, -26.785374220625226], [-65.2304640963712, -26.785374220625226], [-65.2304640963712, -26.830289779374777]]]}, "properties": {"provincia": "Tucum\u00e1n", "localidad": "Yerba Buena", "tipo": "jardin", "tiempo_medio_01": NaN, "tiempo_medio_10": 39.44557173}}, {"type": "Feature", "geometry": {"type": "Polygon", "coordinates": [[[-65.33046409637119, -26.830289779374777], [-65.28013990362881, -26.830289779374777], [-65.28013990362881, -26.785374220625226], [-65.33046409637119, -26.785374220625226], [-65.33046409637119, -26.830289779374777]]]}, "properties": {"provincia": "Tucum\u00e1n", "localidad": "Yerba Buena", "tipo": "salud", "tiempo_medio_01": NaN, "tiempo_medio_10": 20.06739247}}]}